adsh	cik	name	sic	countryba	stprba	cityba	zipba	bas1	bas2	baph	countryma	stprma	cityma	zipma	mas1	mas2	countryinc	stprinc	ein	former	changed	afs	wksi	fye	form	period	fy	fp	filed	accepted	prevrpt	detail	instance	nciks	aciks
0001193125-10-072854	794367	MACY'S, INC.	5311	US	OH	CINCINNATI	45202	7 WEST SEVENTH STREET		5135797000	US	OH	CINCINNATI	45202	7 W SEVENTH ST		US	DE	133324058	FEDERATED DEPARTMENT STORES INC /DE/	19950307	1-LAF	1	0131	10-K	20100131	2009	FY	20100331	2010-03-31 12:06:00.0	0	0	m-20100130.xml	1	
0001193125-10-072909	1080224	EDGAR ONLINE INC	7389	US	CT	NORWALK	06854	50 WASHINGTON ST		2038525666	US	CT	NORWALK	06854	50 WASHINGTON ST		US	DE	061447017			5-SML	0	1231	10-K	20091231	2009	FY	20100331	2010-03-31 12:26:00.0	0	1	edgr-20091231.xml	1	
0001193125-10-073247	1058057	MARVELL TECHNOLOGY GROUP LTD	3674	BM		HAMILTON HM 12		CANON'S COURT	22 VICTORIA STREET	4412966395							BM		770481679			1-LAF	1	0131	10-K	20100131	2009	FY	20100331	2010-03-31 15:22:00.0	0	0	mrvl-20100130.xml	1	
0000060667-10-000064	60667	LOWES COMPANIES INC	5211	US	NC	MOORESVILLE	28117	1000 LOWE'S BLVD.		7047581000	US	NC	MOORESVILLE	28115	P.O. BOX 1000		US	NC	560578072			1-LAF	1	0131	10-K/A	20100131	2009	FY	20100330	2010-03-31 17:03:00.0	0	0	low-20100129.xml	1	
0000950123-10-029721	16988	CANON INC	3861	JP		TOKYO JAPAN	00000	30 2 SHIMOMARUKO 3 CHOME	OHTA-KU	0118135482	JP		TOKYO JAPAN	00000	30 2 SHIMOMARUKO 3 CHOME	OHTA-KU	JP		954348646	CANON CAMERA CO	19690411	1-LAF	1	1231	20-F	20091231	2009	FY	20100330	2010-03-30 06:53:00.0	0	0	caj-20091231.xml	1	
0000950123-10-029809	932787	STMICROELECTRONICS NV	3674	CH		GENEVA	00000	39 CHEMIN DU CHAMP DES FILLES	1228 PLAN-LES-OUATES	011 41 22 929 2929	CH		GENEVA	00000	39 CHEMIN DU CHAMP DES FILLES	1228 PLAN-LES-OUATES	NL		000000000	SGS THOMSON MICROELECTRONICS NV	19950310	1-LAF	1	1231	20-F/A	20091231	2009	FY	20100330	2010-03-30 11:51:00.0	0	0	stm-20091231.xml	1	
0000950123-10-029845	109198	TJX COMPANIES INC /DE/	5651	US	MA	FRAMINGHAM	01701	770 COCHITUATE RD		508-390-2662	US	MA	FRAMINGHAM	01701	770 COCHITUATE ROAD		US	DE	042207613	ZAYRE CORP	19890625	1-LAF	1	0131	10-K	20100131	2009	FY	20100330	2010-03-30 12:40:00.0	0	0	tjx-20100130.xml	1	
0000950123-10-030079	64978	MERCK SHARP & DOHME CORP.	2834	US	NJ	WHITEHOUSE STATION	08889-0100	ONE MERCK DR	P O BOX 100	9084231688	US	NJ	WHITEHOUSE STATION	08889-0100	ONE MERCK DR	PO BOX 100 WS3AB-05	US	NJ	221109110	MERCK & CO INC	19920703	4-NON	1	1231	10-K	20091231	2009	FY	20100330	2010-03-30 16:48:00.0	0	0	mrk-20091231.xml	1	
0000950123-10-030164	1326380	GAMESTOP CORP.	5734	US	TX	GRAPEVINE	76051	625 WESTPORT PARKWAY		817-424-2000	US	TX	GRAPEVINE	76051	625 WESTPORT PARKWAY		US	DE	000000000	GSC HOLDINGS CORP.	20050506	1-LAF	1	0131	10-K	20100131	2009	FY	20100330	2010-03-30 17:30:00.0	0	0	gme-20100130.xml	1	
0001104659-10-017258	56873	KROGER CO	5411	US	OH	CINCINNATI	45201	1014 VINE ST		5137624000							US	OH	310345740			1-LAF	1	0131	10-K	20100131	2009	FY	20100330	2010-03-30 13:52:00.0	0	0	kr-20100130.xml	1	
0001193125-10-071527	1166126	J C PENNEY CO INC	5311	US	TX	PLANO	75024-3698	6501 LEGACY DRIVE		9722431100							US	DE	260037077	J C PENNEY HOLDINGS INC	20020128	1-LAF	1	0131	10-K	20100131	2009	FY	20100330	2010-03-30 16:22:00.0	0	0	jcp-20100130.xml	1	
0001193125-10-071652	104169	WAL MART STORES INC	5331	US	AR	BENTONVILLE	72716	702 SOUTHWEST 8TH ST		5012734000	US	AR	BENTONVILLE	72716	702 SOUTHWEST 8TH STREET		US	DE	710415188			1-LAF	1	0131	10-K	20100131	2009	FY	20100330	2010-03-30 17:08:00.0	0	0	wmt-20100131.xml	1	
0000104207-10-000039	104207	WALGREEN CO	5912	US	IL	DEERFIELD	60015	200 WILMOT RD		8479402500	US	IL	DEERFIELD	60015	200 WILMOT RD		US	IL	361924025			1-LAF	1	0831	10-Q	20100228	2010	Q2	20100329	2010-03-29 17:19:00.0	0	0	wag-20100228.xml	1	
0000950123-10-029090	929887	APOLLO GROUP INC	8200	US	AZ	PHOENIX	85040	4615 EAST ELWOOD ST		6029665394	US	AZ	PHOENIX	85040	4615 E ELWOOD STREET		US	AZ	860419443			1-LAF	1	0831	10-Q	20100228	2010	Q2	20100329	2010-03-29 07:02:00.0	1	0	apol-20100228.xml	1	
0001104659-10-017012	756894	BARRICK GOLD CORP	1040	CA	ON	TORONTO ONTARIO CANA	M5J2S1	BCE PLACE, CANADA TRUST TOWER	161 BAY STREET SUITE 3700	4163077470	CA	ON	ONTARIO M5J2S1	M5J2S1	BCE PLACE, CANADA TRUST TOWER	P O BOX 212 TORONTO			000000000	BARRICK RESOURCES CORP	19860109		0	1231	40-F	20091231	2009	FY	20100329	2010-03-29 17:07:00.0	0	0	abx-20091231.xml	1	
0001193125-10-070192	1341439	ORACLE CORP	7372	US	CA	REDWOOD CITY	94065	500 ORACLE PARKWAY	MAIL STOP 5 OP 7	6505067000	US	CA	REDWOOD CITY	94065	500 ORACLE PARKWAY	MAIL STOP 5 OP 7			542185193	OZARK HOLDING INC.	20051013	1-LAF	1	0531	10-Q	20100228	2010	Q3	20100329	2010-03-29 17:24:00.0	0	0	orcl-20100228.xml	1	
0000950123-10-028511	1329099	BAIDU, INC.	7370	CN		BEIJING	100085	BAIDU CAMPUS, NO. 10 SHANGDI 10TH STREET	HAIDIAN DISTRICT	(86-10) 5992 8888	CN		BEIJING	100085	BAIDU CAMPUS, NO. 10 SHANGDI 10TH STREET	HAIDIAN DISTRICT	KY		000000000	BAIDU.COM, INC.	20050602	1-LAF	1	1231	20-F	20091231	2009	FY	20100326	2010-03-26 07:53:00.0	0	0	bidu-20091231.xml	1	
0000950123-10-028780	1039101	L 3 COMMUNICATIONS CORP	3663	US	NY	NEW YORK	10016	600 THIRD AVENUE	34TH FLOOR	(212) 697-1111	US	NY	NEW YORK	10016	600 THIRD AVENUE	34TH FLOOR	US	DE	133937436			1-LAF	1	1231	S-4	20091231	2009	FY	20100326	2010-03-26 16:09:00.0	0	0	lll-20091231.xml	49	913556 1240854 1240870 1274417 1274420 1274421 1274422 1274424 1169270 1169273 1240390 1270671 1165044 1168410 1168412 1
0001047469-10-002778	2809	AGNICO EAGLE MINES LTD	1040	CA	ON	TORONTO	M5C 2Y7	145 KING STREET EAST	SUITE 400	4169471212	CA	ON	TORONTO	M5C 2Y7	145 KING STREET EAST	SUITE 400	CA	ON	000000000			1-LAF	1	1231	20-F	20091231	2009	FY	20100326	2010-03-26 16:07:00.0	0	0	aem-20091231.xml	1	
0001193125-10-068386	39911	GAP INC	5651	US	CA	SAN FRANCISCO	94105	TWO FOLSOM STREET		4159524400	US	CA	SAN FRANCISCO	94105	TWO FOLSOM STREET		US	DE	941697231	GAP STORES INC	19850617	1-LAF	1	0131	10-K	20100131	2009	FY	20100326	2010-03-26 14:23:00.0	0	0	gps-20100130.xml	1	
0001193125-10-068566	1467373	ACCENTURE PLC	7389	IE		DUBLIN	D2	1 GRAND CANAL SQUARE	GRAND CANAL HARBOUR	353-1-646-2000	IE		DUBLIN	D2	1 GRAND CANAL SQUARE	GRAND CANAL HARBOUR	IE		980627530			1-LAF	0	0831	10-Q	20100228	2010	Q2	20100326	2010-03-26 16:05:00.0	0	0	acn-20100228.xml	1	
0001193125-10-068571	701985	LIMITED BRANDS INC	5621	US	OH	COLUMBUS	43216	THREE LIMITED PKWY	P O BOX 16000	6144157000	US	OH	COLUMBUS	43216	THREE LIMITED PARKWAY	P.O. BOX 16000	US	DE	311029810	LIMITED INC	19920703	1-LAF	1	0131	10-K	20100131	2009	FY	20100326	2010-03-26 16:06:00.0	0	0	ltd-20100130.xml	1	
0001370368-10-000015	1159510	CREDIT SUISSE GROUP AG	6211	CH		ZURICH	00000	8070 SWITZERLAND	PO BOX A	0114772721616	CH		ZURICH	00000	8070 SWITZERLAND	PO BOX A			000000000	CREDIT SUISSE GROUP	20010921	1-LAF	1	1231	20-F	20091231	2009	FY	20100326	2010-03-26 06:17:00.0	0	0	cs-20091231.xml	2	1053092
0001193125-10-067178	354950	HOME DEPOT INC	5211	US	GA	ATLANTA	30339-4024	2455 PACES FERRY ROAD		770-433-82	US	GA	ATLANTA	30339-4024	2455 PACES FERRY ROAD		US	DE	953261426			1-LAF	1	0131	10-K	20100131	2009	FY	20100325	2010-03-25 16:39:00.0	0	0	hd-20100131.xml	1	
0000950123-10-027743	40704	GENERAL MILLS INC	2040	US	MN	MINNEAPOLIS	55426	NUMBER ONE GENERAL MILLS BLVD		(763) 764-7600	US	MN	MINNEAPOLIS	55440	P O BOX 1113		US	DE	410274440			1-LAF	1	0531	10-Q	20100228	2010	Q3	20100324	2010-03-24 16:47:00.0	0	0	gis-20100228.xml	1	
0000950123-10-027758	723531	PAYCHEX INC	8700	US	NY	ROCHESTER	14625-0397	911 PANORAMA TRAIL S		7163856666	US	NY	ROCHESTER	14625-0397	911 PANORAMA TRAIL SOUTH		US	DE	161124166			1-LAF	1	0531	10-Q	20100228	2010	Q3	20100324	2010-03-24 17:02:00.0	0	0	payx-20100228.xml	1	
0000950123-10-026782	72333	NORDSTROM INC	5651	US	WA	SEATTLE	98101-4407	1700 SEVENTH AVENUE	SUITE 1300	2066282111	US	WA	SEATTLE	98111	PO BOX 1770		US	WA	910515058	NORDSTROM BEST INC	19730611	1-LAF	1	0131	10-K	20100131	2009	FY	20100322	2010-03-22 14:24:00.0	0	0	jwn-20100130.xml	1	
0000950123-10-026283	1048911	FEDEX CORP	4513	US	TN	MEMPHIS	38120-	942 SOUTH SHADY GROVE ROAD		9018187500	US	TN	MEMPHIS	38120-	942 SOUTH SHADY GROVE ROAD		US	DE	621721435	FDX CORP	19971103	1-LAF	1	0531	10-Q	20100228	2010	Q3	20100319	2010-03-19 12:36:00.0	0	0	fdx-20100228.xml	1	
0001047469-10-002469	1091587	ABB LTD	3613	CH		ZURICH SWITZERLAND	999999999	PO BOX 8131	CH 8050										000000000			1-LAF	1	1231	20-F	20091231	2009	FY	20100319	2010-03-19 14:24:00.0	0	0	abb-20091231.xml	1	
0001193125-10-061070	769397	AUTODESK INC	7372	US	CA	SAN RAFAEL	94903	111 MCINNIS PKWY		4155075000	US	CA	SAN RAFAEL	94903	111 MCINNIS PKWY		US	DE	942819853			1-LAF	1	0131	10-K	20100131	2009	FY	20100319	2010-03-19 06:06:00.0	0	0	adsk-20100131.xml	1	
0001193125-10-061795	885639	KOHLS CORPORATION	5311	US	WI	MENOMONEE FALLS	53051	N56 W17000 RIDGEWOOD DR		4147835800	US	WI	MENOMONEE FALLS	53051	N54 W13600 WOODALE DR		US	WI	391630919			1-LAF	1	0131	10-K	20100131	2009	FY	20100319	2010-03-19 16:00:00.0	0	0	kss-20100130.xml	1	
0001193125-10-061876	859737	HOLOGIC INC	3844	US	MA	BEDFORD	01730	35 CROSBY DRIVE		7819997300	US	MA	BEDFORD	01730	35 CROSBY DRIVE		US	DE	042902449			1-LAF	0	0930	8-K	20090930	2009	FY	20100319	2010-03-19 16:36:00.0	0	0	holx-20100319.xml	1	
0000950123-10-025907	866787	AUTOZONE INC	5531	US	TN	MEMPHIS	38103	123 SOUTH FRONT ST		9014956500	US	TN	MEMPHIS	38101-2198	P O BOX 2198	DEPT 8074	US	NV	621482048			1-LAF	1	0831	10-Q	20100131	2010	Q2	20100318	2010-03-18 14:19:00.0	0	0	azo-20100213.xml	1	
0000950123-10-025998	826083	DELL INC	3571	US	TX	ROUND ROCK	78682-2244	ONE DELL WAY	STED	5127284737	US	TX	ROUND ROCK	78682	ONE DELL WAY		US	DE	742487834	DELL COMPUTER CORP	19920703	1-LAF	1	0131	10-K	20100131	2009	FY	20100318	2010-03-18 16:26:00.0	0	0	dell-20100129.xml	1	
0001045810-10-000006	1045810	NVIDIA CORP	3674	US	CA	SANTA CLARA	95050	2701 SAN TOMAS EXPRESSWAY		408-486-2000	US	CA	SANTA CLARA	95050	2701 SAN TOMAS EXPRESSWAY		US	DE	943177549	NVIDIA CORP/DE	20020612	1-LAF	1	1231	10-K	20100131	2010	FY	20100318	2010-03-17 19:17:00.0	0	0	nvda-20100131.xml	1	
0001047469-10-002408	27419	TARGET CORP	5331	US	MN	MINNEAPOLIS	55403	1000 NICOLLET MALL		6123046073	US	MN	MINNEAPOLIS	55403	1000 NICOLLET MALL		US	MN	410215170	DAYTON HUDSON CORP	19920703	1-LAF	1	0131	10-K/A	20100131	2009	FY	20100318	2010-03-18 12:04:00.0	0	0	tgt-20100130.xml	1	
0001193125-10-059399	909832	COSTCO WHOLESALE CORP /NEW	5331	US	WA	ISSAQUAH	98027-	999 LAKE DRIVE		4253138100	US	WA	ISSAQUAH	98027	999 LAKE DRIVE		US	WA	911223280	COSTCO COMPANIES INC	19970401	1-LAF	0	0831	10-Q	20100131	2010	Q2	20100317	2010-03-17 13:53:00.0	0	0	cost-20100214.xml	1	
0001193125-10-059620	1413159	TEXTAINER GROUP HOLDINGS LTD	7359	BM		HAMILTON	HM HX	CENTURY HOUSE	16 PAR-LA-VILLE ROAD	(441) 296-2500	BM		HAMILTON	HM HX	CENTURY HOUSE	16 PAR-LA-VILLE ROAD	BM		980530316			2-ACC	0	1231	20-F	20091231	2009	FY	20100317	2010-03-17 17:01:00.0	0	0	tgh-20091231.xml	1	
0001354488-10-000860	843006	ISSUER DIRECT CORP	2750	US	NC	CARY	27511	201 SHANNON OAKS CIRCLE	SUITE 105	9194611600	US	NC	CARY	27511	201 SHANNON OAKS CIRCLE	SUITE 105			261331503	DOCUCON INC	20071002	5-SML	0	1231	10-K/A	20091231	2009	FY	20100317	2010-03-17 17:29:00.0	0	0	isdr-20091231.xml	1	
0001167379-10-000044	1167379	ALCON INC	3851	US	TX	FORT WORTH	76134	6201 SOUTH FREEWAY		8175686248	CH		SWITZERLAND	0000	BOSCH 69 6331 HUNENBERG		CH		980205094			1-LAF	1	1231	20-F	20091231	2009	FY	20100316	2010-03-16 09:07:00.0	0	0	acl-20091231.xml	1	
0001047469-10-002121	27419	TARGET CORP	5331	US	MN	MINNEAPOLIS	55403	1000 NICOLLET MALL		6123046073	US	MN	MINNEAPOLIS	55403	1000 NICOLLET MALL		US	MN	410215170	DAYTON HUDSON CORP	19920703	1-LAF	1	0131	10-K	20100131	2009	FY	20100312	2010-03-12 12:11:00.0	1	0	tgt-20100130.xml	1	
0001047469-10-002073	47217	HEWLETT PACKARD CO	3570	US	CA	PALO ALTO	94304	3000 HANOVER ST	MS 1050	6508571501	US	CA	PALO ALTO	94304	3000 HANOVER ST	MS 1050	US	DE	941081436			1-LAF	0	1031	10-Q	20100131	2010	Q1	20100311	2010-03-11 16:16:00.0	0	0	hpq-20100131.xml	1	
0001056358-10-000020	1056358	MANNATECH INC	2833	US	TX	COPPELL	75019	600 SOUTH ROYAL LANE	SUITE 200	9724717400	US	TX	COPPELL	75019	600 SOUTH ROYAL LANE	SUITE 200	US	TX	752508900			2-ACC	0	1231	10-K	20091231	2009	FY	20100311	2010-03-11 13:49:00.0	0	0	mtex-20091231.xml	1	
0001193125-10-052794	713676	PNC FINANCIAL SERVICES GROUP INC	6021	US	PA	PITTSBURGH	15222	ONE PNC PLAZA	249 FIFTH AVENUE	412-762-2000	US	PA	PITTSBURGH	15222	ONE PNC PLAZA	249 FIFTH AVENUE	US	PA	251435979	PNC BANK CORP	19930505	1-LAF	1	1231	10-K	20091231	2009	FY	20100311	2010-03-10 17:38:00.0	0	0	pnc-20091231.xml	1	
0001193125-10-053838	1108524	SALESFORCE COM INC	7372	US	CA	SAN FRANCISCO	94105	THE LANDMARK	ONE MARKET STREET STE.300		US	CA	SAN FRANCISCO	94105	THE LANDMARK	ONE MARKET STREET STE. 300	US	DE	943320693			1-LAF	1	0131	10-K	20100131	2009	FY	20100311	2010-03-11 15:32:00.0	0	0	crm-20100131.xml	1	
0000897101-10-000491	64670	MEDTRONIC INC	3845	US	MN	MINNEAPOLIS	55432	710 MEDTRONIC PKWY	MS LC300	7635144000	US	MN	MINNEAPOLIS	55432	710 MEDTRONIC PKWY		US	MN	410793183			1-LAF	1	0430	10-Q	20100131	2010	Q3	20100310	2010-03-10 15:14:00.0	0	0	mdt-20100129.xml	1	
0000950123-10-022850	16732	CAMPBELL SOUP CO	2000	US	NJ	CAMDEN	08103	CAMPBELL PL		8563424800	US	NJ	CAMDEN	08103	CAMPBELL PL		US	NJ	210419870			1-LAF	1	0731	10-Q	20100131	2010	Q2	20100310	2010-03-10 08:52:00.0	0	0	cpb-20100131.xml	1	
0001104659-10-013535	1090872	AGILENT TECHNOLOGIES INC	3825	US	CA	SANTA CLARA	95051	5301 STEVENS CREEK BLVD		408-345-8647	US	CA	SANTA CLARA	95052-8059	5301 STEVENS CREEK BLVD, MS 1A-LC	P.O. BOX 58059	US	DE	770518772	HP MEASUREMENT INC	19990716	1-LAF	1	1031	10-Q	20100131	2010	Q1	20100310	2010-03-10 16:52:00.0	0	0	a-20100131.xml	1	
0001193125-10-052571	866873	DEL MONTE FOODS CO	2033	US	CA	SAN FRANCISCO	94105	ONE MARKET @ THE LANDMARK	C/O DEL MONTE CORP	415-247-3000	US	CA	SAN FRANCISCO	94105	ONE MARKET @ THE LANDMARK		US	DE	133542950	DMPF HOLDINGS CORP	19600201	1-LAF	0	0430	10-Q	20100131	2010	Q3	20100310	2010-03-10 15:46:00.0	0	0	dlm-20100131.xml	1	
0001193125-10-052764	1364742	BLACKROCK INC.	6211	US	NY	NEW YORK	10055	55 EAST 52ND STREET		212-810-5300	US	NY	NEW YORK	10055	55 EAST 52ND STREET		US	DE	320174431	BLACKROCK, INC.	20060929	1-LAF	1	1231	10-K	20091231	2009	FY	20100310	2010-03-10 17:26:00.0	0	0	blk-20091231.xml	1	
0000950123-10-022556	6951	APPLIED MATERIALS INC /DE	3674	US	CA	SANTA CLARA	95054-3299	3050 BOWERS AVE		4087275555	US	CA	SANTA CLARA	95054-3299	3050 BOWERS AVE		US	DC	941655526	APPLIED MATERIALS TECHNOLOGY INC	19730319	1-LAF	1	1031	10-Q	20100131	2010	Q1	20100309	2010-03-09 16:06:00.0	0	0	amat-20100131.xml	1	
0000950123-10-022156	12659	H&R BLOCK INC	7200	US	MO	KANSAS CITY	64105	ONE H&R BLOCK WAY		8168543000	US	MO	KANSAS CITY	64105	ONE H&R BLOCK WAY		US	MO	440607856			1-LAF	0	0430	10-Q	20100131	2010	Q3	20100308	2010-03-08 17:27:00.0	0	0	hrb-20100131.xml	1	
0000801898-10-000005	801898	JOY GLOBAL INC	3532	US	WI	MILWAUKEE	53201-0554	100 EAST WISCONSIN AVE SUITE 2780		4144866400	US	WI	MILWAUKEE	53201-0554	100 EAST WISCONSIN AVE SUITE 2780		US	DE	391566457	HARNISCHFEGER INDUSTRIES INC	19920703	1-LAF	1	1031	10-Q	20100131	2010	Q1	20100305	2010-03-05 12:19:00.0	0	0	joyg-20100129.xml	1	
0000950123-10-021539	25475	CRAWFORD & CO	6411	US	GA	ATLANTA	30319	1001SUMMIT BLVD, NE		4042560830	US	GA	ATLANTA	30319	1001 SUMMIT BLVD, NE		US	GA	580506554			2-ACC	0	1231	10-K	20091231	2009	FY	20100305	2010-03-05 15:36:00.0	0	0	crda-20091231.xml	1	
0001193125-10-047979	1345111	TIM HORTONS INC.	5812	CA	ON	OAKVILLE	L6K 2Y1	874 SINCLAIR ROAD		(905) 845-6511	CA	ON	OAKVILLE	L6K 2Y1	874 SINCLAIR ROAD		CA	ON	510370507			1-LAF	1	1231	10-K	20091231	2009	FY	20100304	2010-03-04 16:55:00.0	0	0	thi-20100103.xml	1	
0000950123-10-020525	103379	V F CORP	2320	US	NC	GREENSBORO	27408	105 CORPORATE CENTER BOULEVARD		(336)424-6000	US	NC	GREENSBORO	27420	P. O. BOX 21488		US	PA	231180120	VF CORPORATION	19900621	1-LAF	1	1231	10-K	20091231	2009	FY	20100303	2010-03-03 15:54:00.0	0	0	vfc-20100102.xml	1	
0000897101-10-000409	203077	ST JUDE MEDICAL INC	3845	US	MN	ST PAUL	55117	ONE ST JUDE MEDICAL DRIVE		6517562000	US	MN	ST PAUL	55117	ONE ST JUDE MEDICAL DRIVE		US	MN	411276891			1-LAF	1	1231	10-K	20091231	2009	FY	20100302	2010-03-02 16:39:00.0	0	0	stj-20100102.xml	1	
0000950123-10-019786	13610	BOWNE & CO INC	2750	US	NY	NEW YORK	10041-0006	55 WATER STREET		2129245500	US	NY	NEW YORK	10041-0006	55 WATER STREET		US	DE	132618477			2-ACC	0	1231	10-K	20091231	2009	FY	20100302	2010-03-02 09:58:00.0	0	0	bne-20091231.xml	1	
0001014739-10-000004	1014739	BIOSCRIP, INC.	5912	US	NY	ELMSFORD	10523	100 CLEARBROOK ROAD		914 460 1600	US	NY	ELMSFORD	10523	100 CLEARBROOK ROAD		US	DE	050489664	MIM CORP	19960516	2-ACC	1	1231	10-K	20091231	2009	FY	20100302	2010-03-02 12:32:00.0	0	0	bios-20091231.xml	1	
0001047469-10-001695	791519	STAPLES INC	5940	US	MA	FRAMINGHAM	01702	500 STAPLES DRIVE	P O BOX 9328	5082535000	US	MA	FRAMINGHAM	01702	500 STAPLES DR		US	DE	042896127			1-LAF	1	0131	10-K	20100131	2009	FY	20100302	2010-03-02 06:29:00.0	0	0	spls-20100130.xml	1	
0001193125-10-045994	86144	SAFEWAY INC	5411	US	CA	PLEASANTON	94588	5918 STONERIDGE MALL RD		9254673000	US	CA	PLEASANTON	94588	5918 STONERIDGE MALL ROAD		US	DE	943019135	SAFEWAY STORES INC	19900226	1-LAF	1	1231	10-K	20091231	2009	FY	20100302	2010-03-02 16:49:00.0	0	0	swy-20100102.xml	1	
0001398432-10-000148	879101	KIMCO REALTY CORP	6798	US	NY	NEW HYDE PARK	11042	3333 NEW HYDE PARK RD	PO BOX 5020	5168699000	US	NY	NEW HYDE PARKQ	11042	3333 NEW HYDE PARK ROAD	PO BOX 5020	US	MD	132744380			1-LAF	1	1231	10-K/A	20091231	2009	FY	20100302	2010-03-01 19:19:00.0	1	0	kim-20091231.xml	1	
0000037748-10-000014	37748	MASSEY ENERGY CO	1221	US	VA	RICHMOND	23219	4 NORTH 4TH STREET		9493492000	US	VA	RICHMOND	23219	4 NORTH 4TH STREET		US	DE	950740960	FLUOR CORP/DE/	19920703	1-LAF	1	1231	10-K	20091231	2009	FY	20100301	2010-03-01 16:06:00.0	0	0	mee-20091231.xml	1	
0000085408-10-000006	85408	ROWAN COMPANIES INC	1381	US	TX	HOUSTON	77056-6127	2800 POST OAK BLVD.	SUITE 5450	7136217800	US	TX	HOUSTON	77056-6127	2800 POST OAK BOULEVARD	SUITE 5450	US	DE	750759420	ROWAN DRILLING CO INC	19711110	1-LAF	1	1231	10-K	20091231	2009	FY	20100301	2010-03-01 17:28:00.0	0	0	rdc-20091231.xml	1	
0000751652-10-000006	751652	QUESTAR CORP	1311	US	UT	SALT LAKE CITY	84145	180 EAST 100 SOUTH ST	PO BOX 45433	8015345000	US	UT	SALT LAKE CITY	84145	180 EAST 100 SOUTH ST	P O BOX 45433	US	UT	870407509			1-LAF	1	1231	10-K	20091231	2009	FY	20100301	2010-02-26 21:45:00.0	0	0	str-20091231.xml	1	
0000950123-10-018464	886982	GOLDMAN SACHS GROUP INC	6211	US	NY	NEW YORK	10004	85 BROAD ST		2129021000	US	NY	NEW YORK	10004	85 BROAD ST		US	DE	134019460	GOLDMAN SACHS GROUP INC/	20010104	1-LAF	1	1231	10-K	20091231	2009	FY	20100301	2010-02-26 18:20:00.0	0	0	gs-20091231.xml	1	
0000950123-10-018519	216228	ITT CORP	3561	US	NY	WHITE PLAINS	10604	1133 WESTCHESTER AVENUE		9146412000	US	NY	WHITE PLAINS	10604	1133 WESTCHESTER AVENUE		US	IN	135158950	ITT INDUSTRIES INC	19951220	1-LAF	1	1231	10-K	20091231	2009	FY	20100301	2010-02-26 20:23:00.0	0	0	itt-20091231.xml	1	
0000950123-10-018524	1368007	NYSE EURONEXT	6200	US	NY	NEW YORK	10005	11 WALL STREET		212-656-3000	US	NY	NEW YORK	10005	11 WALL STREET		US	DE	205110848	NYSE EURONEXT, INC.	20060628	1-LAF	1	1231	10-K	20091231	2009	FY	20100301	2010-02-26 20:30:00.0	0	0	nyx-20091231.xml	1	
0000950123-10-018671	1001082	DISH NETWORK CORP	4841	US	CO	ENGLEWOOD	80112	9601 S. MERIDIAN BLVD.		3037231000	US	CO	ENGLEWOOD	80112	9601 S. MERIDIAN BLVD.		US	NV	880336997	ECHOSTAR COMMUNICATIONS CORP	19950919	1-LAF	1	1231	10-K	20091231	2009	FY	20100301	2010-03-01 07:12:00.0	0	0	dish-20091231.xml	1	
0000950123-10-018679	310158	MERCK & CO. INC.	2834	US	NJ	WHITEHOUSE STATION	08889-0100	ONE MERCK DRIVE	P.O. BOX 100	908  423 1688	US	NJ	WHITEHOUSE STATION	08889-0100	ONE MERCK DRIVE	P.O. BOX 100	US	NJ	221918501	SCHERING PLOUGH CORP	19920703	1-LAF	1	1231	10-K	20091231	2009	FY	20100301	2010-03-01 07:33:00.0	0	0	mrk-20091231.xml	1	
0000950123-10-018789	91576	KEYCORP /NEW/	6021	US	OH	CLEVELAND	44114-1306	127 PUBLIC SQ		2166896300	US	OH	CLEVELAND	44114-1306	127 PUBLIC SQ		US	OH	346542451	SOCIETY CORP	19920703	1-LAF	1	1231	10-K	20091231	2009	FY	20100301	2010-03-01 08:45:00.0	0	0	key-20091231.xml	1	
0000950123-10-019013	915912	AVALONBAY COMMUNITIES INC	6798	US	VA	ALEXANDRIA	22314	2900 EISENHOWER AVENUE	SUITE 300	7033296300	US	VA	ALEXANDRIA	22314	2900 EISENHOWER AVENUE	STE 300	US	MD	770404318	AVALON BAY COMMUNITIES INC	19980618	1-LAF	1	1231	10-K	20091231	2009	FY	20100301	2010-03-01 12:03:00.0	0	0	avb-20091231.xml	1	
0000950123-10-019083	1453090	WEATHERFORD INTERNATIONAL LTD./SWITZERLAND	1381	US	TX	HOUSTON	77027	515 POST OAK BLVD.		(713) 693-4000	US	TX	HOUSTON	77027	515 POST OAK BLVD.		CH		000000000			1-LAF	1	1231	10-K	20091231	2009	FY	20100301	2010-03-01 12:58:00.0	0	0	wft-20091231.xml	1	
0000950123-10-019101	896878	INTUIT INC	7372	US	CA	MOUNTAIN VIEW	94043	2700 COAST AVENUE		650-944-6000	US	CA	MOUNTAIN VIEW	94039-7850	P.O. BOX 7850		US	DE	770034661			1-LAF	1	0731	10-Q	20100131	2010	Q2	20100301	2010-03-01 13:21:00.0	0	0	intu-20100131.xml	1	
0000950123-10-019173	1301063	ALPHA NATURAL RESOURCES, INC.	1221	US	VA	ABINGDON	24212	ONE ALPHA PLACE	P.O. BOX 2345	276-619-4410	US	VA	ABINGDON	24212	ONE ALPHA PLACE	P.O. BOX 2345	US	DE	421638663	FOUNDATION COAL HOLDINGS, INC.	20040819	1-LAF	1	1231	10-K	20091231	2009	FY	20100301	2010-03-01 14:37:00.0	0	0	anr-20091231.xml	1	
0000950123-10-019204	1050915	QUANTA SERVICES INC	1731	US	TX	HOUSTON	77056	1360 POST OAK BLVD	SUITE 2100	7133506000	US	TX	HOUSTON	77056	1360 POST OAK BLVD SUITE 2100		US	DE	742851603			1-LAF	1	1231	10-K	20091231	2009	FY	20100301	2010-03-01 15:03:00.0	0	0	pwr-20091231.xml	1	
0000950123-10-019211	721083	SMITH INTERNATIONAL INC	3533	US	TX	HOUSTON	77032	16740 HARDY ST	P O BOX 60068	2814433370	US	TX	HOUSTON	77205	16740 HARDY ST	P O BOX 60068	US	DE	953822631			1-LAF	1	1231	10-K	20091231	2009	FY	20100301	2010-03-01 15:10:00.0	0	0	sii-20091231.xml	1	
0000950123-10-019343	1037676	ARCH COAL INC	1221	US	MO	ST LOUIS	63141	CITY PLACE ONE STE 300	ARCH MINERAL CORP	3149942700	US	MO	CREVE COEUR	63141	CITYPLACE ONE SUITE 300	ARCH MINERAL CORP	US	DE	430921172	ARCH MINERAL CORP	19970411	1-LAF	1	1231	10-K	20091231	2009	FY	20100301	2010-03-01 16:36:00.0	0	0	aci-20091231.xml	1	
0000950123-10-019392	200406	JOHNSON & JOHNSON	2834	US	NJ	NEW BRUNSWICK	08933	ONE JOHNSON & JOHNSON PLZ		732-524-2455	US	NJ	NEW BRUNSWICK	08933	ONE JOHNSON & JOHNSON PLZ		US	NJ	221024240			1-LAF	1	1231	10-K	20091231	2009	FY	20100301	2010-03-01 16:50:00.0	0	0	jnj-20100103.xml	1	
0000950123-10-019484	1066107	EL PASO CORP/DE	4922	US	TX	HOUSTON	77002	1001 LOUISIANA ST, SUITE 2955A	EL PASO BLDG	7134202600	US	TX	HOUSTON	77002	1001 LOUISIANA ST	SUITE 2955A	US	DE	760568816	EL PASO ENERGY CORP/DE	19980716	1-LAF	0	1231	10-K	20091231	2009	FY	20100301	2010-03-01 17:24:00.0	0	0	ep-20091231.xml	1	
0000950123-10-019490	945764	DENBURY RESOURCES INC	1311	US	TX	PLANO	75024	5100 TENNYSON PARKWAY	SUITE 3000	9726732000	US	TX	PLANO	75024	5100 TENNYSON PARKWAY	SUITE 3000	US	DE	752815171	NEWSCOPE RESOURCES LTD	19950627	1-LAF	1	1231	10-K	20091231	2009	FY	20100301	2010-03-01 17:25:00.0	0	0	dnr-20091231.xml	1	
0001047469-10-001573	38079	FOREST OIL CORP	1311	US	CO	DENVER	80202	707 SEVENTEENTH STREET	SUITE 3600	3038121400	US	CO	DENVER	80202	707 SEVENTEENTH STREET	SUITE 3600	US	NY	250484900	FOREST OIL CORP	20040819	1-LAF	1	1231	10-K	20091231	2009	FY	20100301	2010-02-26 19:47:00.0	0	0	fst-20091231.xml	1	
0001047469-10-001574	732485	GENZYME CORP	2836	US	MA	CAMBRIDGE	02139	ONE KENDALL SQ		6172527500	US	MA	CAMBRIDGE	02139	ONE KENDALL SQUARE		US	MA	061047163			1-LAF	1	1231	10-K	20091231	2009	FY	20100301	2010-02-26 19:48:00.0	0	0	genz-20091231.xml	1	
0001047469-10-001604	827052	EDISON INTERNATIONAL	4911	US	CA	ROSEMEAD	91770	2244 WALNUT GROVE AVE, STE 369	P O BOX 800	(626) 302-2222	US	CA	ROSEMEAD	91770	2244 WALNUT GROVE AVE, STE 369	P O BOX 800	US	CA	954137452	SCECORP	19920703	1-LAF	1	1231	10-K	20091231	2009	FY	20100301	2010-03-01 09:06:00.0	0	0	eix-20091231.xml	1	
0001047469-10-001605	92103	SOUTHERN CALIFORNIA EDISON CO	4911	US	CA	ROSEMEAD	91770	2244 WALNUT GROVE AVE	P O BOX 800	6263021212	US	CA	ROSEMEAD	91770	2244 WALNUT GROVE AVE		US	CA	951240335			4-NON	1	1231	10-K	20091231	2009	FY	20100301	2010-03-01 09:09:00.0	0	0	sce-20091231.xml	1	
0001047469-10-001607	930835	EDISON MISSION ENERGY	4911	US	CA	IRVINE	92612	18101 VON KARMAN AVE	STE 1700	9497525588	US	CA	IRVINE	92612	18101 VON KARMAN AVE	STE 1700	US	DE	954031807	MISSION ENERGY CO	19941003	4-NON	0	1231	10-K	20091231	2009	FY	20100301	2010-03-01 09:17:00.0	0	0	eme-20091231.xml	1	
0001047469-10-001609	1134016	MIDWEST GENERATION LLC	4991	US	IL	CHICAGO	60605	ONE FINANCIAL PLACE	440 SOUTH LASALLE STREET #3500	3125836000	US	IL	CHICAGO	60605	ONE FINANCIAL PLACE	440 SOUTH LASALLE STREET #3500	US	DE	330868558			4-NON	0	1231	10-K	20091231	2009	FY	20100301	2010-03-01 09:23:00.0	0	0	mwg-20091231.xml	1	
0001047469-10-001610	1099534	EME HOMER CITY GENERATION LP	4991	US	PA	HOMER CITY	15748	1750 POWER PLANT ROAD		724 479 9011	US	PA	HOMER CITY	15748	1750 POWER PLANT ROAD		US	PA	330826938			4-NON	0	1231	10-K	20091231	2009	FY	20100301	2010-03-01 09:30:00.0	0	0	hcg-20091231.xml	1	
0001047469-10-001644	1023131	COVANCE INC	8731	US	NJ	PRINCETON	08540	210 CARNEGIE CENTER		6094524440	US	NJ	PRINCETON	08540	COVANCE INC	210 CARNEGIE CENTER	US	DE	223265977	CORNING PHARMACEUTICAL SERVICES INC	19960917	1-LAF	1	1231	10-K	20091231	2009	FY	20100301	2010-03-01 16:05:00.0	0	0	cvd-20091231.xml	1	
0001047469-10-001649	718877	ACTIVISION BLIZZARD, INC.	7372	US	CA	SANTA MONICA	90405	3100 OCEAN PARK BLVD		3102552000	US	CA	SANTA MONICA	90405	3100 OCEAN PARK BLVD		US	DE	954803544	ACTIVISION INC /NY	19930114	1-LAF	1	1231	10-K	20091231	2009	FY	20100301	2010-03-01 16:19:00.0	0	0	atvi-20091231.xml	1	
0001047469-10-001666	1144519	BUNGE LTD	2070	US	NY	WHITE PLAINS	10606	50 MAIN STREET	6TH FLOOR	914-684-2800	US	NY	WHITE PLAINS	10606	50 MAIN STREET	6TH FLOOR			000000000	BUNGE LTD	20010710	1-LAF	1	1231	10-K	20091231	2009	FY	20100301	2010-03-01 17:23:00.0	0	0	bg-20091231.xml	1	
0001047469-10-001674	895648	GENERAL GROWTH PROPERTIES INC	6798	US	IL	CHICAGO	60606	110 N WACKER DRIVE	STE 3100	3129605000	US	IL	CHICAGO	60606	110 N WACKER DRIVE	STE 3100	US	DE	421283895			1-LAF	0	1231	10-K	20091231	2009	FY	20100301	2010-03-01 17:34:00.0	0	0	ggp-20091231.xml	1	
0001061219-10-000011	1061219	ENTERPRISE PRODUCTS PARTNERS L P	4922	US	TX	HOUSTON	77002	1100 LOUISIANA 10TH FLOOR		7133816500	US	TX	HOUSTON	77002	1100 LOUISIANA 10TH FLOOR		US	DE	760568219			1-LAF	1	1231	10-K	20091231	2009	FY	20100301	2010-03-01 11:21:00.0	0	0	epd-20091231.xml	1	
0001104659-10-010697	315189	DEERE & CO	3523	US	IL	MOLINE	61265-8098	ONE JOHN DEERE PLACE		(309) 765-5688	US	IL	MOLINE	61265-8098	ONE JOHN DEERE PLACE		US	DE	362382580			1-LAF	1	1031	10-Q	20100131	2010	Q1	20100301	2010-03-01 15:52:00.0	0	0	de-20100131.xml	1	
0001193125-10-043237	740761	BUCYRUS INTERNATIONAL INC	3532	US	WI	SOUTH MILWAUKEE	53172-0500	P O BOX 500	1100 MILWAUKEE AVENUE	4147684000	US	WI	SOUTH MILWAUKEE	53172-0500	P O BOX 500	1100 MILWAUKEE AVENUE	US	DE	390188050	BUCYRUS ERIE CO /DE	19920703	1-LAF	1	1231	10-K	20091231	2009	FY	20100301	2010-02-26 18:11:00.0	0	0	bucy-20091231.xml	1	
0001193125-10-043405	1059556	MOODYS CORP /DE/	7320	US	NY	NEW YORK	10007	7 WORLD TRADE CENTER	AT 250 GREENWICH STREET	2125530300	US	NY	NEW YORK	10007	7 WORLD TRADE CENTER	AT 250 GREENWICH STREET	US	DE	133998945	DUN & BRADSTREET CORP /DE/	19980728	1-LAF	1	1231	10-K	20091231	2009	FY	20100301	2010-02-26 21:40:00.0	0	0	mco-20091231.xml	1	
0001193125-10-043450	1067983	BERKSHIRE HATHAWAY INC	6331	US	NE	OMAHA	68131	1440 KIEWIT PLZ		4023461400	US	NE	OMAHA	68131	1440 KIEWIT PLAZA		US	DE	470813844	NBH INC	19980810	1-LAF	1	1231	10-K	20091231	2009	FY	20100301	2010-03-01 06:02:00.0	0	0	brka-20091231.xml	1	
0001193125-10-043667	1349436	SANDRIDGE ENERGY INC	1311	US	OK	OKLAHOMA CITY	73102-6406	123 ROBERT S. KERR AVENUE		405-429-5500	US	OK	OKLAHOMA CITY	73102-6406	123 ROBERT S. KERR AVENUE		US	DE	208084793	RIATA ENERGY INC	20060111	1-LAF	1	1231	10-K	20091231	2009	FY	20100301	2010-03-01 06:05:00.0	0	0	sd-20091231.xml	1	
0001193125-10-044002	1070750	HOST HOTELS & RESORTS, INC.	6798	US	MD	BETHESDA	20817	6903 ROCKLEDGE DR	SUITE 1500	240-744-1000	US	MD	BETHESDA	20817-1109	HOST MARRIOTT CORP	6903 ROCKLEDGE DR., SUITE 1500	US	MD	530085950	HOST MARRIOTT CORP/	19981229	1-LAF	1	1231	10-K	20091231	2009	FY	20100301	2010-03-01 09:45:00.0	0	0	hst-20091231.xml	1	
0001193125-10-044296	80661	PROGRESSIVE CORP/OH/	6331	US	OH	MAYFIELD VILLAGE	44143	6300 WILSON MILLS RD		4404615000	US	OH	MAYFIELD VILLAGE	44143	6300 WILSON MILLS RD		US	OH	340963169			1-LAF	1	1231	10-K	20091231	2009	FY	20100301	2010-03-01 12:59:00.0	0	0	pgr-20091231.xml	1	
0001193125-10-044311	318154	AMGEN INC	2836	US	CA	THOUSAND OAKS	91320-1799	ONE AMGEN CENTER DRIVE	MAIL STOP 24-1-B	(805)313-1762	US	CA	THOUSAND OAKS	91320-1799	ONE AMGEN CENTER DRIVE	MAIL STOP 24-1-B	US	DE	953540776	AMGEN	19870305	1-LAF	1	1231	10-K	20091231	2009	FY	20100301	2010-03-01 13:05:00.0	0	0	amgn-20091231.xml	1	
0001193125-10-044365	1135152	FMC TECHNOLOGIES INC	3533	US	TX	HOUSTON	77067	1803 GEARS ROAD		2815914000	US	TX	HOUSTON	77067	1803 GEARS ROAD		US	DE	364412642			1-LAF	1	1231	10-K	20091231	2009	FY	20100301	2010-03-01 13:32:00.0	0	0	fti-20091231.xml	1	
0001193125-10-044488	3673	ALLEGHENY ENERGY, INC	4911	US	PA	GREENSBURG	15601	800 CABIN HILL DRIVE		7248373000	US	PA	GREENSBURG	15601	800 CABIN HILL DRIVE		US	MD	135531602	ALLEGHENY ENERGY INC	19970926	1-LAF	1	1231	10-K	20091231	2009	FY	20100301	2010-03-01 14:32:00.0	0	0	aye-20091231.xml	1	
0001193125-10-044561	1086222	AKAMAI TECHNOLOGIES INC	7389	US	MA	CAMBRIDGE	02142	8 CAMBRIDGE CENTER		6174443000	US	MA	CAMBRIDGE	02142	8 CAMBRIDGE CENTER		US	DE	043432319			1-LAF	1	1231	10-K	20091231	2009	FY	20100301	2010-03-01 15:18:00.0	0	0	akam-20091231.xml	1	
0001193125-10-044584	1378946	PEOPLE'S UNITED FINANCIAL, INC.	6035	US	CT	BRIDGEPORT	06604	C/O PEOPLE'S BANK	850 MAIN STREET	203-338-4114	US	CT	BRIDGEPORT	06604	C/O PEOPLE'S BANK	850 MAIN STREET	US	DE	000000000			1-LAF	1	1231	10-K	20091231	2009	FY	20100301	2010-03-01 15:28:00.0	0	0	pbct-20091231.xml	1	
0001193125-10-044592	945436	MEMC ELECTRONIC MATERIALS INC	3674	US	MO	ST. PETERS	63376	501 PEARL DRIVE	P. O. BOX 8	6364745000	US	MO	ST. PETERS	63376	501 PEARL DRIVE	P. O. BOX 8	US	DE	561505767			1-LAF	1	1231	10-K	20091231	2009	FY	20100301	2010-03-01 15:33:00.0	0	0	wfr-20091231.xml	1	
0001193125-10-044679	1043277	C H ROBINSON WORLDWIDE INC	4731	US	MN	EDEN PRAIRIE	55347	14701 CHARLSON ROAD		9529378500	US	MN	EDEN PRAIRIE	55347	14701 CHARLSON ROAD		US	DE	411883630			1-LAF	1	1231	10-K	20091231	2009	FY	20100301	2010-03-01 16:04:00.0	0	0	chrw-20091231.xml	1	
0001193125-10-044723	708819	MCDERMOTT INTERNATIONAL INC	3443	US	TX	HOUSTON	77079	777 N. ELDRIDGE PARKWAY		281-870-5000	US	TX	HOUSTON	77079	777 N. ELDRIDGE PARKWAY		PA		720593134			1-LAF	1	1231	10-K	20091231	2009	FY	20100301	2010-03-01 16:18:00.0	0	0	mdr-20091231.xml	1	
0001193125-10-044753	882095	GILEAD SCIENCES INC	2836	US	CA	FOSTER CITY	94404	333 LAKESIDE DR		6505743000	US	CA	FOSTER CITY	94404	333 LAKESIDE DR		US	DE	943047598			1-LAF	1	1231	10-K	20091231	2009	FY	20100301	2010-03-01 16:28:00.0	0	0	gild-20091231.xml	1	
0001193125-10-044784	895126	CHESAPEAKE ENERGY CORP	1311	US	OK	OKLAHOMA CITY	73118	6100 N WESTERN AVE		4058488000	US	OK	OKLAHOMA CITY	73118	6100 NORTH WESTERN AVE		US	OK	731395733			1-LAF	1	1231	10-K	20091231	2009	FY	20100301	2010-03-01 16:42:00.0	0	0	chk-20091231.xml	1	
0001193125-10-044821	910073	NEW YORK COMMUNITY BANCORP INC	6036	US	NY	WESTBURY	11590	615 MERRICK AVE		7183596400	US	NY	WESTBURY	11590	615 MERRICK AVE		US	DE	061377322	QUEENS COUNTY BANCORP INC	19930802	1-LAF	1	1231	10-K	20091231	2009	FY	20100301	2010-03-01 16:59:00.0	0	0	nyb-20091231.xml	1	
0001193125-10-044876	1053507	AMERICAN TOWER CORP /MA/	4899	US	MA	BOSTON	02116	116 HUNTINGTON AVE		6173757500	US	MA	BOSTON	02116	116 HUNTINGTON AVE		US	DE	650723837	AMERICAN TOWER SYSTEMS CORP	19980128	1-LAF	1	1231	10-K	20091231	2009	FY	20100301	2010-03-01 17:13:00.0	0	0	amt-20091231.xml	1	
0001393311-10-000004	1393311	PUBLIC STORAGE	6798	US	CA	GLENDALE	91201-2349	701 WESTERN AVENUE		818-244-8080	US	CA	GLENDALE	91201-2349	701 WESTERN AVENUE		US	MD	953551121			1-LAF	1	1231	10-K	20091231	2009	FY	20100301	2010-02-26 21:49:00.0	0	0	psa-20091231.xml	1	
0001398432-10-000145	879101	KIMCO REALTY CORP	6798	US	NY	NEW HYDE PARK	11042	3333 NEW HYDE PARK RD	PO BOX 5020	5168699000	US	NY	NEW HYDE PARKQ	11042	3333 NEW HYDE PARK ROAD	PO BOX 5020	US	MD	132744380			1-LAF	1	1231	10-K	20091231	2009	FY	20100301	2010-03-01 12:17:00.0	1	0	kim-20091231.xml	1	
0000004904-10-000018	4904	AMERICAN ELECTRIC POWER CO INC	4911	US	OH	COLUMBUS	43215	1 RIVERSIDE PLAZA		614-716-1000	US	OH	COLUMBUS	43215	1 RIVERSIDE PLAZA		US	NY	134922640	KINGSPORT UTILITIES INC	19660906	1-LAF	1	1231	10-K	20091231	2009	FY	20100226	2010-02-26 15:30:00.0	0	0	aep-20091231.xml	1	
0000065984-10-000041	65984	ENTERGY CORP /DE/	4911	US	LA	NEW ORLEANS	70113	639 LOYOLA AVE		5045764000	US	LA	NEW ORLEANS	70161	PO BOX 61000		US	DE	721229752	ENTERGY CORP /FL/	19940329	1-LAF	1	1231	10-K/A	20091231	2009	FY	20100226	2010-02-26 16:58:00.0	0	0	etr-20091231.xml	1	
0000086521-10-000019	1032208	SEMPRA ENERGY	4932	US	CA	SAN DIEGO	92101	101 ASH STREET	P O BOX 129400	6196962000	US	CA	SAN DIEGO	92101	101 ASH STREET	P O BOX 129400	US	CA	330732627	MINERAL ENERGY CO	19970205	1-LAF	1	1231	10-K	20091231	2009	FY	20100226	2010-02-25 18:30:00.0	0	0	sre-20091231.xml	4	75527 86521 92108
0000096223-10-000004	96223	LEUCADIA NATIONAL CORP	2400	US	NY	NEW YORK	10010	315 PARK AVE S		2124601900	US	NY	NEW YORK	10010	315 PARK AVENUE SOUTH		US	NY	132615557	TALCOTT NATIONAL CORP	19800603	1-LAF	1	1231	10-K	20091231	2009	FY	20100226	2010-02-26 15:48:00.0	0	0	luk-20091231.xml	1	
0000097745-10-000008	97745	THERMO FISHER SCIENTIFIC INC.	3829	US	MA	WALTHAM	02451	81 WYMAN ST	PO BOX 9046	7816221000	US	MA	WALTHAM	02451	81 WYMAN ST	PO BOX 9046	US	DE	042209186	THERMO ELECTRON CORP	19920703	1-LAF	1	1231	10-K	20091231	2009	FY	20100226	2010-02-26 15:16:00.0	0	0	tmo-20091231.xml	1	
0000107815-10-000046	783325	WISCONSIN ENERGY CORP	4931	US	WI	MILWAUKEE	53201	231 W MICHIGAN ST	P O BOX 1331	414-221-2345	US	WI	MILWAUKEE	53201	231 WEST MICHIGAN STREET	P O BOX 1331	US	WI	391391525			1-LAF	1	1231	10-K	20091231	2009	FY	20100226	2010-02-26 10:05:00.0	0	0	wec-20091231.xml	1	
0000753308-10-000025	753308	FPL GROUP INC	4911	US	FL	JUNO BEACH	33408	700 UNIVERSE BLVD		5616946311	US	FL	JUNO BEACH	33408	P O BOX 14000		US	FL	592449419			1-LAF	1	1231	10-K	20091231	2009	FY	20100226	2010-02-26 14:59:00.0	0	0	fpl-20091231.xml	2	37634
0000831259-10-000010	831259	FREEPORT MCMORAN COPPER & GOLD INC	1000	US	AZ	PHOENIX	85004-4414	ONE NORTH CENTRAL AVENUE		6023668100	US	LA	NEW ORLEANS	70112	1615 POYDRAS STREET		US	DE	742480931	FREEPORT MCMORAN COPPER COMPANY INC	19910114	1-LAF	1	1231	10-K	20091231	2009	FY	20100226	2010-02-26 15:13:00.0	0	0	fcx-20091231.xml	1	
0000882835-10-000009	882835	ROPER INDUSTRIES INC	3823	US	FL	SARASOTA	34240	6901 PROFESSIONAL PKWY EAST	SUITE 200	9415562601	US	FL	SARASOTA	34240	6901 PROFESSIONAL PKWY EAST	SUITE 200	US	DE	510263969	ROPER INDUSTRIES INC /DE/	19930328	1-LAF	1	1231	10-K	20091231	2009	FY	20100226	2010-02-26 16:28:00.0	0	0	rop-20091231.xml	1	
0000922224-10-000012	922224	PPL CORP	4911	US	PA	ALLENTOWN	181011179	TWO N NINTH ST		6107745151	US	PA	ALLENTOWN	18101-1179	TWO N NINTH ST		US	PA	232758192	PP&L RESOURCES INC	19941123	1-LAF	1	1231	10-K	20091231	2009	FY	20100226	2010-02-25 18:26:00.0	0	0	ppl-20091231.xml	3	317187 1161976
0000930413-10-001062	78814	PITNEY BOWES INC /DE/	3579	US	CT	STAMFORD	06926-0700	PITNEY BOWES INC	1 ELMCROFT ROAD	2033565000	US	CT	STAMFORD	06926-0700	1 ELMCROFT ROAD		US	DE	060495050			1-LAF	1	1231	10-K	20091231	2009	FY	20100226	2010-02-26 14:47:00.0	0	0	pbi-20091231.xml	1	
0000941548-10-000015	941548	CAMERON INTERNATIONAL CORP	3533	US	TX	HOUSTON	77027	1333 WEST LOOP SOUTH	STE 1700	7135133322	US	TX	HOUSTON	77027	1333 WEST LOOP SOUTH	STE 1700	US	DE	760451843	COOPER CAMERON CORP	19950315	1-LAF	1	1231	10-K	20091231	2009	FY	20100226	2010-02-26 16:54:00.0	0	0	cam-20091231.xml	1	
0000950103-10-000520	936402	SHIRE PLC	2834	GB		HAMPSHIRE ENGLAND RG	R924 8EP	HAMPSHIRE INTL BUSINESS PARK	CHINEHAM BASINGSTOKE	441256894000	GB		HAMPSHIRE ENGLAND RG	R924 8EP	HAMPSHIRE INTL BUSINESS PARK	CHINEHAM BASINGSTOKE			000000000	SHIRE LTD.	20080523	1-LAF	1	1231	10-K	20091231	2009	FY	20100226	2010-02-26 12:40:00.0	0	0	shpgf-20091231.xml	1	
0000950123-10-017254	885725	BOSTON SCIENTIFIC CORP	3841	US	MA	NATICK	01760-1537	ONE BOSTON SCIENTIFIC PL		5086508000							US	DE	042695240			1-LAF	1	1231	10-K	20091231	2009	FY	20100226	2010-02-25 19:40:00.0	0	0	bsx-20091231.xml	1	
0000950123-10-017258	808362	BAKER HUGHES INC	3533	US	TX	HOUSTON	77019-2118	2929 ALLEN PARKWAY	SUITE 2100	7134398600	US	TX	HOUSTON	77210-4740	PO BOX 4740		US	DE	760207995			1-LAF	0	1231	10-K	20091231	2009	FY	20100226	2010-02-25 19:46:00.0	0	0	bhi-20091231.xml	1	
0000950123-10-017267	107263	WILLIAMS COMPANIES INC	4922	US	OK	TULSA	74172	ONE WILLIAMS CTR		9185732000	US	OK	TULSA	74172	ONE WILLIAM CENTER		US	DE	730569878	WILLIAMS BROTHERS COMPANIES	19710817	1-LAF	1	1231	10-K	20091231	2009	FY	20100226	2010-02-25 19:57:00.0	0	0	wmb-20091231.xml	1	
0000950123-10-017377	1056239	L 3 COMMUNICATIONS HOLDINGS INC	3663	US	NY	NEW YORK	10016	600 THIRD AVENUE	34TH FLOOR	2126971111	US	NY	NEW YORK	10016	600 THIRD AVENUE	34TH FLOOR	US	DE	133937434			1-LAF	1	1231	10-K	20091231	2009	FY	20100226	2010-02-26 06:05:00.0	0	0	lll-20091231.xml	2	1039101
0000950123-10-017583	1000697	WATERS CORP /DE/	3826	US	MA	MILFORD	01757	34 MAPLE ST		5084782000	US	MA	MILFORD	01757	34 MAPLE STREET		US	DE	133668640	WCD INVESTORS INC /DE/	19960605	1-LAF	1	1231	10-K	20091231	2009	FY	20100226	2010-02-26 09:25:00.0	0	0	wat-20091231.xml	1	
0000950123-10-017631	1136893	FIDELITY NATIONAL INFORMATION SERVICES, INC.	7389	US	FL	JACKSONVILLE	32204	601 RIVERSIDE AVENUE		904-854-8547	US	FL	JACKSONVILLE	32204	601 RIVERSIDE AVENUE				371490331	CERTEGY INC	20010607	1-LAF	1	1231	10-K	20091231	2009	FY	20100226	2010-02-26 10:07:00.0	0	0	fis-20091231.xml	1	
0000950123-10-017647	1021860	NATIONAL OILWELL VARCO INC	3533	US	TX	HOUSTON	77042-4200	10000 RICHMOND AVENUE	6TH FLOOR	7133467500	US	TX	HOUSTON	77042-4200	10000 RICHMOND AVENUE	6TH FLOOR	US	DE	760475815	NATIONAL OILWELL INC	19960829	1-LAF	1	1231	10-K	20091231	2009	FY	20100226	2010-02-26 10:35:00.0	0	0	nov-20091231.xml	1	
0000950123-10-017728	40987	GENUINE PARTS CO	5013	US	GA	ATLANTA	30339	2999 CIRCLE 75 PARKWAY		4049531700	US	GA	ATLANTA	30339	2999 CIRCLE 75 PARKWAY		US	GA	580254510			1-LAF	1	1231	10-K	20091231	2009	FY	20100226	2010-02-26 11:40:00.0	0	0	gpc-20091231.xml	1	
0000950123-10-017776	1169055	NOBLE CORP	1381	US	TX	SUGAR LAND	77478	13135 S DAIRY ASHFORD		41 0 41 761 6555									980366361			1-LAF	1	1231	10-K	20091231	2009	FY	20100226	2010-02-26 12:17:00.0	0	0	ne-20091231.xml	2	1458891
0000950123-10-017817	49826	ILLINOIS TOOL WORKS INC	3560	US	IL	GLENVIEW	60025-5811	3600 W LAKE AVE		8476574106	US	IL	GLENVIEW	60025-5811	3600 WEST LAKE AVENUE		US	DE	361258310			1-LAF	1	1231	10-K	20091231	2009	FY	20100226	2010-02-26 12:51:00.0	0	0	itw-20091231.xml	1	
0000950123-10-017877	72971	WELLS FARGO & CO/MN	6021	US	CA	SAN FRANCISCO	94163	420 MONTGOMERY STREET		6126671234	US	CA	SAN FRANCISCO	94163	WELLS FARGO & COMPANY	420 MONTGOMERY STREET	US	DE	410449260	NORWEST CORP	19920703	1-LAF	1	1231	10-K	20091231	2009	FY	20100226	2010-02-26 13:26:00.0	0	0	wfc-20091231.xml	1	
0000950123-10-017899	912750	NEWFIELD EXPLORATION CO /DE/	1311	US	TX	HOUSTON	77060	363 NORTH SAM HOUSTON PARKWAY EAST	SUITE 100	281-847-6000	US	TX	HOUSTON	77060	363 NORTH SAM HOUSTON PARKWAY EAST	SUITE 100	US	DE	721133047			1-LAF	1	1231	10-K	20091231	2009	FY	20100226	2010-02-26 13:51:00.0	0	0	nfx-20091231.xml	1	
0000950123-10-017949	914208	INVESCO LTD.	6282	US	GA	ATLANTA	30309	1555 PEACHTREE STREET NE	SUITE 1800	404-892-0896	US	GA	ATLANTA	30309	1555 PEACHTREE STREET NE	SUITE 1800	BM		980557567	INVESCO LTD	20080508	1-LAF	1	1231	10-K	20091231	2009	FY	20100226	2010-02-26 14:17:00.0	0	0	ivz-20091231.xml	1	
0000950123-10-018097	1035002	VALERO ENERGY CORP/TX	2911	US	TX	SAN ANTONIO	78269-6000	P.O. BOX 696000		2103452000	US	TX	SAN ANTONIO	78269-6000	P.O. BOX 696000		US	DE	741828067			1-LAF	1	1231	10-K	20091231	2009	FY	20100226	2010-02-26 15:55:00.0	0	0	vlo-20091231.xml	1	
0000950123-10-018122	921847	HUDSON CITY BANCORP INC	6036	US	NJ	PARAMUS	07652	WEST 80 CENTURY RD		2019671900	US	NJ	PARMUS	07652	WEST 80 CENTURY ROAD		US	DE	223640393			1-LAF	1	1231	10-K	20091231	2009	FY	20100226	2010-02-26 16:04:00.0	0	0	hcbk-20091231.xml	1	
0000950123-10-018123	36104	US BANCORP \DE\	6021	US	MN	MINNEAPOLIS	55402	U.S.BANCORP	800 NICOLLET MALL	(651)466-3000	US	MN	MINNEAPOLIS	55402	U.S.BANCORP	800 NICOLLET MALL	US	DE	410255900	FIRST BANK SYSTEM INC	19920703	1-LAF	1	1231	10-K	20091231	2009	FY	20100226	2010-02-26 16:05:00.0	0	0	usb-20091231.xml	1	
0000950123-10-018149	20171	CHUBB CORP	6331	US	NJ	WARREN	07061	15 MOUNTAIN VIEW ROAD		9089032000	US	NJ	WARREN	07061	15 MOUNTAIN VIEW ROAD		US	NJ	132595722			1-LAF	1	1231	10-K	20091231	2009	FY	20100226	2010-02-26 16:15:00.0	0	0	cb-20091231.xml	1	
0000950123-10-018160	1043604	JUNIPER NETWORKS INC	3576	US	CA	SUNNYVALE	94089	1194 NORTH MATHILDA AVE		6505268000	US	CA	SUNNYVALE	94089	1194 NORTH MATHILDA AVE		US	DE	770422528			1-LAF	0	1231	10-K	20091231	2009	FY	20100226	2010-02-26 16:19:00.0	0	0	jnpr-20091231.xml	1	
0000950123-10-018176	1032033	SLM CORP	6141	US	VA	RESTON	20190	12061 BLUEMONT WAY		7038103000	US	VA	RESTON	20190	12061 BLUEMONT WAY		US	DE	522013874	SALLIE MAE	20020517	1-LAF	1	1231	10-K	20091231	2009	FY	20100226	2010-02-26 16:26:00.0	0	0	slm-20091231.xml	1	
0000950123-10-018180	31277	EATON CORP	3590	US	OH	CLEVELAND	44114-2584	EATON CTR	1111 SUPERIOR AVE	2165235000	US	OH	CLEVELAND	44114	1111 SUPERIOR AVENUE		US	OH	340196300	EATON YALE & TOWNE INC	19710822	1-LAF	1	1231	10-K	20091231	2009	FY	20100226	2010-02-26 16:28:00.0	0	0	etn-20091231.xml	1	
0000950123-10-018216	1365135	WESTERN UNION CO	7389	US	CO	ENGLEWOOD	80112	12500 EAST BELFORD AVENUE		(720) 332-3361	US	CO	ENGLEWOOD	80112	12500 EAST BELFORD AVENUE		US	DE	204531180			1-LAF	1	1231	10-K	20091231	2009	FY	20100226	2010-02-26 16:42:00.0	0	0	wu-20091231.xml	1	
0000950123-10-018235	310522	FEDERAL NATIONAL MORTGAGE ASSOCIATION FANNIE MAE	6111	US	DC	WASHINGTON	20016	3900 WISCONSIN AVE N.W.		202-752-7000	US	DC	WASHINGTON	20016	3900 WISCONSIN AVE N.W.				520883107	FEDERAL NATIONAL MORTGAGE ASSOCIATION	19950110	1-LAF	1	1231	10-K	20091231	2009	FY	20100226	2010-02-26 16:49:00.0	0	0	fnm-20091231.xml	1	
0000950123-10-018242	937966	ASML HOLDING NV	3559	NL		DR VELDHOVEN	5504	DE RUN 6501		31402683000	NL		AH VELDHOVEN	5500	P.O. BOX 324				000000000	ASM LITHOGRAPHY HOLDING NV	19950215	1-LAF	1	1231	20-F/A	20091231	2009	FY	20100226	2010-02-26 16:51:00.0	0	0	asml-20091231.xml	1	
0000950123-10-018284	1099219	METLIFE INC	6311	US	NY	NEW YORK	10036	1095 AVENUE OF AMERICAS		212-578-5500	US	NY	NEW YORK	10036	1095 AVENUE OF AMERICAS		US	DE	134075851			1-LAF	1	1231	10-K	20091231	2009	FY	20100226	2010-02-26 17:03:00.0	0	0	met-20091231.xml	1	
0000950123-10-018286	1022646	ULTRA PETROLEUM CORP	1311	US	TX	HOUSTON	77060	363 N SAM HOUSTON PARKWAY E	SUITE 1200	2818760120	US	TX	HOUSTON	77060	363 N SAM HOUSTON PARKWAY 3	SUITE 1200			000000000			1-LAF	1	1231	10-K	20091231	2009	FY	20100226	2010-02-26 17:03:00.0	0	0	upl-20091231.xml	1	
0000950123-10-018307	1163739	NABORS INDUSTRIES LTD	1381	BM		HAMILTON, HM08	0000	MINTFLOWER PLACE	8 PAR-LA-VILLE ROAD	2464219471	BM		HAMILTON, HMPX	0000	P O BOX HM3349		BM		980363970			1-LAF	1	1231	10-K	20091231	2009	FY	20100226	2010-02-26 17:09:00.0	0	1	nbr-20091231.xml	1	
0000950123-10-018311	6769	APACHE CORP	1311	US	TX	HOUSTON	77056-4400	2000 POST OAK BLVD	STE 100	7132966000	US	TX	HOUSTON	77056-4400	2000 POST OAK BLVD	STE 100	US	DE	410747868	APACHE OIL CORP	19660830	1-LAF	1	1231	10-K	20091231	2009	FY	20100226	2010-02-26 17:11:00.0	0	0	apa-20091231.xml	1	
0000950123-10-018336	4447	HESS CORP	2911	US	NY	NEW YORK	10036	1185 AVENUE OF THE AMERICAS		2129978500	US	NY	NEW YORK	10036	1185 AVENUE OF THE AMERICAS		US	DE	134921002	AMERADA HESS CORP	19920703	1-LAF	1	1231	10-K	20091231	2009	FY	20100226	2010-02-26 17:16:00.0	0	0	hes-20091231.xml	1	
0000950123-10-018400	1396009	VULCAN MATERIALS CO	1400	US	AL	BIRMINGHAM	35242	1200 URBAN CENTER DRIVE		(205) 298-3000	US	AL	BIRMINGHAM	35242	1200 URBAN CENTER DRIVE		US	NJ	208579133	VIRGINIA HOLDCO, INC.	20070409	1-LAF	1	1231	10-K	20091231	2009	FY	20100226	2010-02-26 17:26:00.0	0	0	vmc-20091231.xml	1	
0000950123-10-018425	890801	MCAFEE, INC.	7372	US	CA	SANTA CLARA	95054	3965 FREEDOM CIRCLE		4089883832	US	CA	SANTA CLARA	95054	3965 FREEDOM CIRCLE		US	DE	770316593	NETWORKS ASSOCIATES INC/	19980611	1-LAF	1	1231	10-K	20091231	2009	FY	20100226	2010-02-26 17:30:00.0	0	0	mfe-20091231.xml	1	
0000950123-10-018432	899881	PROLOGIS	6798	US	CO	DENVER	80239	4545 AIRPORT WAY		3033759292	US	CO	DENVER	80239	4545 AIRPORT WAY		US	MD	742604728	PROLOGIS TRUST	19980717	1-LAF	1	1231	10-K	20091231	2009	FY	20100226	2010-02-26 17:31:00.0	0	0	pld-20091231.xml	1	
0001047469-10-001435	26172	CUMMINS INC	3510	US	IN	COLUMBUS	47202-3005	500 JACKSON ST	BOX 3005 MAIL CODE 60207	8123773842	US	IN	COLUMBUS	47202-3005	BOX 3005 MAIL CODE 60207	500	US	IN	350257090	CUMMINS ENGINE CO INC	19920703	1-LAF	1	1231	10-K	20091231	2009	FY	20100226	2010-02-25 18:46:00.0	0	0	cmi-20091231.xml	1	
0001047469-10-001447	88205	SPX CORP	3540	US	NC	CHARLOTTE	28277	13515 BALLANTYNE CORPORATE PLACE		704-752-4400	US	NC	CHARLOTTE	28277	13515 BALLANTYNE CORPORATE PLACE		US	DE	381016240	SEALED POWER CORP	19880515	1-LAF	1	1231	10-K	20091231	2009	FY	20100226	2010-02-25 21:21:00.0	1	0	spx-20091231.xml	1	
0001047469-10-001452	1234308	DIRECTV HOLDINGS LLC	4841	US	CA	EL SEGUNDO					US	CA	EL SEGUNDO	90245	2230 E IMPERIAL HIGHWAY		US	DE	593772785			4-NON	0	1231	10-K	20091231	2009	FY	20100226	2010-02-26 06:02:00.0	1	0	dtvh-20091231.xml	2	1234307
0001047469-10-001456	1465112	DIRECTV	4899	US	CA	EL SEGUNDO	90245	2230 E. IMPERIAL HIGHWAY		310-964-0724	US	CA	EL SEGUNDO	90245	2230 E. IMPERIAL HIGHWAY		US	DE	264772533			1-LAF	1	1231	10-K	20091231	2009	FY	20100226	2010-02-26 06:09:00.0	1	0	dtv-20091231.xml	1	
0001047469-10-001465	5272	AMERICAN INTERNATIONAL GROUP INC	6331	US	NY	NEW YORK	10270	70 PINE ST		2127707000	US	NY	NEW YORK	10270	70 PINE STREET		US	DE	132592361	AMERICAN INTERNATIONAL ENTERPRISES INC	19700507	1-LAF	1	1231	10-K	20091231	2009	FY	20100226	2010-02-26 07:20:00.0	0	0	aig-20091231.xml	1	
0001047469-10-001476	21344	COCA COLA CO	2080	US	GA	ATLANTA	30313	ONE COCA COLA PLAZA		404-676-2121	US	GA	ATLANTA	30313	ONE COCA COLA PLAZA		US	DE	580628465			1-LAF	1	1231	10-K	20091231	2009	FY	20100226	2010-02-26 09:40:00.0	0	0	ko-20091231.xml	1	
0001047469-10-001512	1168054	CIMAREX ENERGY CO	1311	US	CO	DENVER	80203-4518	1700 LINCOLN STREET	SUITE 1800	303-295-3995	US	CO	DENVER	80203-4518	1700 LINCOLN STREET	SUITE 1800	US	DE	450466694	HELMERICH & PAYNE EXPLORATION & PRODUCTION CO	20020222	1-LAF	1	1231	10-K	20091231	2009	FY	20100226	2010-02-26 14:07:00.0	1	0	xec-20091231.xml	1	
0001047469-10-001515	1004440	CONSTELLATION ENERGY GROUP INC	4911	US	MD	BALTIMORE	21202	100 CONSTELLATION WAY		4104702800	US	MD	BALTIMORE	21202	100 CONSTELLATION WAY		US	MD	521964611	CONSTELLATION ENERGY CORP	19951220	1-LAF	1	1231	10-K	20091231	2009	FY	20100226	2010-02-26 14:21:00.0	0	0	ceg-20091231.xml	2	9466
0001047469-10-001535	315293	AON CORP	6411	US	IL	CHICAGO	60601	200 EAST RANDOLPH STREET		3123811000	US	IL	CHICAGO	60601	200 EAST RANDOLPH STREET		US	DE	363051915	COMBINED INTERNATIONAL CORP	19870504	1-LAF	1	1231	10-K	20091231	2009	FY	20100226	2010-02-26 16:17:00.0	0	0	aon-20091231.xml	1	
0001047469-10-001536	72903	XCEL ENERGY INC	4931	US	MN	MINNEAPOLIS	55402	800 NICOLLET MALL		6123305500	US	MN	MINNEAPOLIS	55401	800 NICOLLET MALL		US	MN	410448030	NORTHERN STATES POWER CO /MN/	19920703	1-LAF	1	1231	10-K	20091231	2009	FY	20100226	2010-02-26 16:24:00.0	0	0	xel-20091231.xml	1	
0001047469-10-001549	837173	WALTER ENERGY, INC.	1220	US	FL	TAMPA	33607	4211 W. BOY SCOUT BLVD.		8138714811	US	FL	TAMPA	33607	4211 W. BOY SCOUT BLVD.	4211 W. BOY SCOUT BLVD.	US	DE	133429953	WALTER INDUSTRIES INC /NEW/	19950207	1-LAF	1	1231	10-K	20091231	2009	FY	20100226	2010-02-26 16:59:00.0	0	0	wlt-20091231.xml	1	
0001094093-10-000021	1094093	PROGRESS ENERGY INC	4911	US	NC	RALEIGH	27601	410 S WILMINGTON ST		9195466463	US	NC	RALEIGH	27601	410 S WILMINGTON ST		US	NC	562155481	CP&L ENERGY INC	20000314	1-LAF	1	1231	10-K	20091231	2009	FY	20100226	2010-02-26 14:55:00.0	0	0	pgn-20091231.xml	3	17797 37637
0001104659-10-010102	1070423	PLAINS ALL AMERICAN PIPELINE LP	4610	US	TX	HOUSTON	77002	333 CLAY STREET	SUITE 1600	7136544100	US	TX	HOUSTON	77002	333 CLAY STREET	SUITE 1600	US	DE	760582150			1-LAF	1	1231	10-K	20091231	2009	FY	20100226	2010-02-26 13:01:00.0	0	0	paa-20091231.xml	1	
0001104659-10-010302	31462	ECOLAB INC	2840	US	MN	ST PAUL	55102	ECOLAB CORPORATE CENTER	370 WABASHA STREET NORTH	6512932233	US	MN	ST. PAUL	55102	ECOLAB CORPORATE CENTER	370 WABASHA STREET NORTH	US	DE	410231510	ECONOMICS LABORATORY INC	19861203	1-LAF	1	1231	10-K	20091231	2009	FY	20100226	2010-02-26 16:38:00.0	0	0	ecl-20091231.xml	1	
0001104659-10-010334	1001838	SOUTHERN COPPER CORP/	1000	US	AZ	PHOENIX	85028	11811 NORTH TATUM BLVD	SUITE 2500	602-494-5328	US	AZ	PHOENIX	85028	11811 NORTH TATUM BLVD	SUITE 2500	US	DE	133849074	SOUTHERN PERU COPPER CORP/	19960726	1-LAF	1	1231	10-K	20091231	2009	FY	20100226	2010-02-26 17:11:00.0	0	0	scco-20091231.xml	1	
0001122304-10-000024	1122304	AETNA INC /PA/	6324	US	CT	HARTFORD	06156	151 FARMINGTON AVENUE		8602730123	US	CT	HARTFORD	06156	151 FARMINGTON AVENUE		US	PA	232229683	AETNA U S HEALTHCARE INC	20000822	1-LAF	1	1231	10-K	20091231	2009	FY	20100226	2010-02-26 15:59:00.0	0	0	aet-20091231.xml	1	
0001130310-10-000006	1130310	CENTERPOINT ENERGY INC	4911	US	TX	HOUSTON	77002	1111 LOUISIANA ST.		7132073000	US	TX	HOUSTON	77002	1111 LOUISIANA ST.				740694415	RELIANT ENERGY REGCO INC	20001220	1-LAF	1	1231	10-K	20091231	2009	FY	20100226	2010-02-26 08:01:00.0	0	0	cnp-20091231.xml	1	
0001193125-10-041006	874761	AES CORP	4991	US	VA	ARLINGTON	22203	4300 WILSON BOULEVARD		7035221315	US	VA	ARLINGTON	22203	4300 WILSON BOULEVARD		US	DE	541163725	AES CORPORATION	19930328	1-LAF	1	1231	10-K	20091231	2009	FY	20100226	2010-02-25 17:55:00.0	0	0	aes-20091231.xml	1	
0001193125-10-041024	1135971	PEPCO HOLDINGS INC	4931	US	DC	WASHINGTON	20068	SUITE 1300	701 NINTH STREET, NW	202-872-2000	US	DC	WASHINGTON	20068	SUITE 1300	701 NINTH STREET, NW	US	DE	522297449	NEW RC INC	20010302	1-LAF	1	1231	10-K	20091231	2009	FY	20100226	2010-02-25 18:05:00.0	0	0	pom-20091231.xml	4	8192 27879 79732
0001193125-10-041232	4962	AMERICAN EXPRESS CO	6199	US	NY	NEW YORK	10285	200 VESEY STREET	50TH FLOOR	2126402000	US	NY	NEW YORK	10285	200 VESEY STREET	50TH FLOOR	US	NY	134922250			1-LAF	1	1231	10-K	20091231	2009	FY	20100226	2010-02-25 20:48:00.0	0	0	axp-20091231.xml	1	
0001193125-10-041278	106535	WEYERHAEUSER CO	2400	US	WA	FEDERAL WAY	98003	33663 WEYERHAEUSER WAY SOUTH		2539242345	US	WA	FEDERAL WAY	98003	33663 WEYERHAEUSER WAY SOUTH		US	WA	910470860			1-LAF	1	1231	10-K	20091231	2009	FY	20100226	2010-02-25 21:36:00.0	0	0	wy-20091231.xml	1	
0001193125-10-041620	1010775	MIRANT CORP	4911	US	GA	ATLANTA	30338	1155 PERIMETER CENTER WEST	SUITE 100	6785795000	US	GA	ATLANTA	30338	1155 PERIMETER CENTER WEST	SUITE 100	US	DE	582056305	SOUTHERN ENERGY INC	19980729	1-LAF	1	1231	10-K	20091231	2009	FY	20100226	2010-02-26 07:02:00.0	0	0	mir-20091231.xml	1	
0001193125-10-041666	70858	BANK OF AMERICA CORP /DE/	6021	US	NC	CHARLOTTE	28255	BANK OF AMERICA CORPORATE CENTER	100 N TRYON ST	7043868486	US	NC	CHARLOTTE	28255	BANK OF AMERICA CORPORATE CENTER	100 N TRYON ST	US	DE	560906609	BANKAMERICA CORP/DE/	19981022	1-LAF	1	1231	10-K	20091231	2009	FY	20100226	2010-02-26 07:51:00.0	0	0	bac-20091231.xml	1	
0001193125-10-041685	732712	VERIZON COMMUNICATIONS INC	4813	US	NY	NEW YORK	10007	140 WEST STREET	29TH FLOOR	212-395-1000	US	NY	NEW YORK	10007	140 WEST STREET	29TH FLOOR	US	DE	232259884	BELL ATLANTIC CORP	19920703	1-LAF	1	1231	10-K	20091231	2009	FY	20100226	2010-02-26 08:03:00.0	0	0	vz-20091231.xml	1	
0001193125-10-041735	1413329	PHILIP MORRIS INTERNATIONAL INC.	2111	US	NY	NEW YORK	10017	120 PARK AVENUE		(917) 663-2000	US	NY	NEW YORK	10017	120 PARK AVENUE		US	VA	133435103			1-LAF	1	1231	10-K	20091231	2009	FY	20100226	2010-02-26 08:24:00.0	0	0	pm-20091231.xml	1	
0001193125-10-041949	1276520	GENWORTH FINANCIAL INC	6311	US	VA	RICHMOND	23230	6620 WEST BROAD STREET		804-281-6000	US	VA	RICHMOND	23230	6620 WEST BROAD STREET		US	DE	331073076			1-LAF	1	1231	10-K	20091231	2009	FY	20100226	2010-02-26 10:25:00.0	0	0	gnw-20091231.xml	1	
0001193125-10-042025	63908	MCDONALDS CORP	5812	US	IL	OAK BROOK	60523	ONE MCDONALD'S PLZ	DEPT 332	6306233154	US	IL	OAK BROOK	60523	ONE MCDONALDS PLAZA	DEPT 332	US	DE	362361282			1-LAF	1	1231	10-K	20091231	2009	FY	20100226	2010-02-26 10:46:00.0	0	0	mcd-20091231.xml	1	
0001193125-10-042257	858470	CABOT OIL & GAS CORP	1311	US	TX	HOUSTON	77077	1200 ENCLAVE PARKWAY		2815894600							US	DE	043072771			1-LAF	1	1231	10-K	20091231	2009	FY	20100226	2010-02-26 12:46:00.0	0	0	cog-20091231.xml	1	
0001193125-10-042277	354908	FLIR SYSTEMS INC	3812	US	OR	WILSONVILLE	97070	27700 SW PARKWAY AVENUE		5034983547	US	OR	WILSONVILLE	97070	27700 SW PARKWAY AVENUE		US	OR	930708501			1-LAF	1	1231	10-K	20091231	2009	FY	20100226	2010-02-26 12:59:00.0	0	0	flir-20091231.xml	1	
0001193125-10-042347	35527	FIFTH THIRD BANCORP	6022	US	OH	CINCINNATI	45263	38 FOUNTAIN SQ PLZ	FIFTH THIRD CENTER	5135795300							US	OH	310854434			1-LAF	1	1231	10-K	20091231	2009	FY	20100226	2010-02-26 13:15:00.0	0	0	fitb-20091231.xml	1	
0001193125-10-042425	78003	PFIZER INC	2834	US	NY	NEW YORK	10017	235 E 42ND ST		2125732323	US	NY	NEW YORK	10017	235 E 42ND ST		US	DE	135315170	PFIZER CHARLES & CO INC	19710908	1-LAF	1	1231	10-K	20091231	2009	FY	20100226	2010-02-26 13:43:00.0	0	0	pfe-20091231.xml	1	
0001193125-10-042491	101830	SPRINT NEXTEL CORP	4813	US	KS	OVERLAND PARK	66251	6200 SPRINT PARKWAY		800-829-0965	US	KS	OVERLAND PARK	66251	6200 SPRINT PARKWAY		US	KS	480457967	SPRINT CORP	19921222	1-LAF	1	1231	10-K	20091231	2009	FY	20100226	2010-02-26 14:05:00.0	0	0	s-20091231.xml	1	
0001193125-10-042577	798354	FISERV INC	7374	US	WI	BROOKFIELD	53045	255 FISERV DR	PO BOX 979	4148795000	US	WI	BROOKFIELD	53045	255 FISERV DRIVE		US	WI	391506125			1-LAF	1	1231	10-K	20091231	2009	FY	20100226	2010-02-26 14:29:00.0	0	0	fisv-20091231.xml	1	
0001193125-10-042642	75362	PACCAR INC	3711	US	WA	BELLEVUE	98004	PACCAR BUILDING	777 106TH AVENUE NE	425 468 7383	US	WA	BELLEVUE	98004	PACCAR BUILDING	777 106TH AVENUE NE	US	DE	910351110	PACIFIC CAR & FOUNDRY CO	19720707	1-LAF	1	1231	10-K	20091231	2009	FY	20100226	2010-02-26 14:59:00.0	0	0	pcar-20091231.xml	1	
0001193125-10-042654	55067	KELLOGG CO	2040	US	MI	BATTLE CREEK	49016-3599	ONE KELLOGG SQ	P O BOX 3599	2699612000	US	MI	BATTLE CREEK	49016-3599	ONE KELLOGG SQUARE	P O BOX 3599	US	DE	380710690			1-LAF	1	1231	10-K	20091231	2009	FY	20100226	2010-02-26 15:03:00.0	0	0	k-20100102.xml	1	
0001193125-10-042685	73124	NORTHERN TRUST CORP	6022	US	IL	CHICAGO	60603	50 S LASALLE ST		3126306000	US	IL	CHICAGO	60603	50 S LASALLE ST		US	DE	362723087	NORTRUST CORP	19780525	1-LAF	1	1231	10-K	20091231	2009	FY	20100226	2010-02-26 15:13:00.0	0	0	ntrs-20091231.xml	1	
0001193125-10-042716	5513	UNUM GROUP	6321	US	TN	CHATTANOOGA	37402	1 FOUNTAIN SQUARE		4232944350	US	TN	CHATTANOOGA	37402	1 FOUNTAIN SQUARE		US	DE	621598430	UNUMPROVIDENT CORP	19990702	1-LAF	1	1231	10-K	20091231	2009	FY	20100226	2010-02-26 15:23:00.0	0	0	unm-20091231.xml	1	
0001193125-10-042763	895421	MORGAN STANLEY	6211	US	NY	NEW YORK	10036	1585 BROADWAY		212-761-4000	US	NY	NEW YORK	10036	1585 BROADWAY		US	DE	363145972	MORGAN STANLEY DEAN WITTER & CO	19980326	1-LAF	1	1231	10-K	20091231	2009	FY	20100226	2010-02-26 15:35:00.0	0	0	ms-20091231.xml	1	
0001193125-10-042765	62709	MARSH & MCLENNAN COMPANIES, INC.	6411	US	NY	NEW YORK	10036	1166 AVENUE OF THE AMERICAS		2123455000	US	NY	NEW YORK	10036	1166 AVENUE OF THE AMERICAS		US	DE	362668272	MARSH & MCLENNAN COMPANIES INC	19920703	1-LAF	1	1231	10-K	20091231	2009	FY	20100226	2010-02-26 15:35:00.0	0	0	mmc-20091231.xml	1	
0001193125-10-042802	717423	MURPHY OIL CORP /DE	2911	US	AR	EL DORADO	71731-7000	200 PEACH ST	PO BOX 7000	8708626411	US	AR	EL DORADO	71731-7000	200 PEACH STREET	PO BOX 7000	US	DE	710361522	NEW MURPHY OIL CORP /DE	19831115	1-LAF	1	1231	10-K	20091231	2009	FY	20100226	2010-02-26 15:43:00.0	0	0	mur-20091231.xml	1	
0001193125-10-042810	320335	TORCHMARK CORP	6311	US	TX	MCKINNEY	75070	3700 SOUTH STONEBRIDGE DRIVE		972-569-4000	US	TX	MCKINNEY	75070	3700 SOUTH  STONEBRIDGE DRIVE		US	DE	630780404	TORCHMARK CORP SAVINGS & INVESTMENT PLAN	19820825	1-LAF	1	1231	10-K	20091231	2009	FY	20100226	2010-02-26 15:47:00.0	0	0	tmk-20091231.xml	1	
0001193125-10-042883	715957	DOMINION RESOURCES INC /VA/	4911	US	VA	RICHMOND	23219	120 TREDEGAR STREET		8048192000	US	VA	RICHMOND	23261	P. O. BOX 26532		US	VA	541229715			1-LAF	1	1231	10-K	20091231	2009	FY	20100226	2010-02-26 16:06:00.0	0	0	d-20091231.xml	2	103682
0001193125-10-042898	101778	MARATHON OIL CORP	2911	US	TX	HOUSTON	77253-3128	P O BOX 3128		7136296600	US	TX	HOUSTON	77056	5555 SAN FELIPE ROAD		US	DE	250996816	USX CORP	19920703	1-LAF	1	1231	10-K	20091231	2009	FY	20100226	2010-02-26 16:09:00.0	0	0	mro-20091231.xml	1	
0001193125-10-042908	1090727	UNITED PARCEL SERVICE INC	4210	US	GA	ATLANTA	30328	55 GLENLAKE PARKWAY NE		4048286000	US	GA	ATLANTA	30328	55 GLENLAKE PARKWAY NE		US	DE	582480149			1-LAF	1	1231	10-K	20091231	2009	FY	20100226	2010-02-26 16:13:00.0	0	0	ups-20091231.xml	1	
0001193125-10-042929	34088	EXXON MOBIL CORP	2911	US	TX	IRVING	75039-2298	5959 LAS COLINAS BLVD		9724441000	US	TX	IRVING	75039-2298	5959 LAS COLINAS BLVD		US	NJ	135409005	EXXON CORP	19920703	1-LAF	1	1231	10-K	20091231	2009	FY	20100226	2010-02-26 16:17:00.0	0	0	xom-20091231.xml	1	
0001193125-10-042948	1390777	BANK OF NEW YORK MELLON CORP	6022	US	NY	NEW YORK	10286	ONE WALL STREET		212-495-1784	US	NY	NEW YORK	10286	ONE WALL STREET				000000000			1-LAF	1	1231	10-K	20091231	2009	FY	20100226	2010-02-26 16:22:00.0	0	0	bk-20091231.xml	1	
0001193125-10-042964	1038357	PIONEER NATURAL RESOURCES CO	1311	US	TX	IRVING	75039	200 WILLIAMS SQUARE WEST	5205 N OCONNOR BLVD	9724449001	US	TX	IRVING	75039	200 WILLIAMS SQUARE WEST	5205 N OCONNOR BLVD	US	DE	752702753			1-LAF	1	1231	10-K	20091231	2009	FY	20100226	2010-02-26 16:26:00.0	0	0	pxd-20091231.xml	1	
0001193125-10-042974	746515	EXPEDITORS INTERNATIONAL OF WASHINGTON INC	4731	US	WA	SEATTLE	98104	1015 THIRD AVENUE 12TH FLOOR		2066743400	US	WA	SEATTLE	98104	1015 THIRD AVENUE 12TH FLOOR		US	WA	911069248			1-LAF	1	1231	10-K	20091231	2009	FY	20100226	2010-02-26 16:27:00.0	0	0	expd-20091231.xml	1	
0001193125-10-042975	92230	BB&T CORP	6021	US	NC	WINSTON-SALEM	27101	200 WEST SECOND STREET		3367332000	US	NC	WINSTON-SALEM	27101	200 WEST SECOND STREET		US	NC	560939887	SOUTHERN NATIONAL CORP /NC/	19920703	1-LAF	1	1231	10-K	20091231	2009	FY	20100226	2010-02-26 16:28:00.0	0	0	bbt-20091231.xml	1	
0001193125-10-042997	310764	STRYKER CORP	3841	US	MI	KALAMAZOO	49002	2825 AIRVIEW BLVD		2693852600	US	MI	KALAMAZOO	49002	2825 AIRVIEW BLVD		US	MI	381239739			1-LAF	1	1231	10-K	20091231	2009	FY	20100226	2010-02-26 16:33:00.0	0	0	syk-20091231.xml	1	
0001193125-10-043015	81061	PUBLIX SUPER MARKETS INC	5411	US	FL	LAKELAND	33811	3300 PUBLIX CORPORATE PARKWAY		863-688-1188	US	FL	LAKELAND	33811	3300 PUBLIX CORPORATE PARKWAY		US	FL	590324412			1-LAF	1	1231	10-K	20091231	2009	FY	20100226	2010-02-26 16:37:00.0	0	0	cik000008106-20091226.xml	1	
0001193125-10-043035	1466258	INGERSOLL-RAND PLC	3822	IE		CO. DUBLIN	00000	170/175 LAKEVIEW DRIVE	AIRSIDE BUSINESS PARK, SWORDS,	732-652-7000	US	NJ	PISCATAWAY	08855	C/O INGERSOLL-RAND COMPANY	ONE CENTENNIAL AVENUE	IE		000000000			1-LAF	1	1231	10-K	20091231	2009	FY	20100226	2010-02-26 16:44:00.0	0	0	ir-20091231.xml	1	
0001193125-10-043048	1137774	PRUDENTIAL FINANCIAL INC	6311	US	NJ	NEWARK	07102	751 BROAD ST		9738026000	US	NJ	NEWARK	07102	751 BROAD ST		US	NJ	223703799			1-LAF	1	1231	10-K	20091231	2009	FY	20100226	2010-02-26 16:49:00.0	0	0	pru-20091231.xml	1	
0001193125-10-043079	108772	XEROX CORP	3577	US	CT	NORWALK	06856	45 GLOVER AVENUE	PO BOX 4505	2039683000	US	CT	NORWALK	06856	45 GLOVER AVENUE	PO BOX 4505	US	NY	160468020	HALOID XEROX INC	19730813	1-LAF	1	1231	10-K	20091231	2009	FY	20100226	2010-02-26 16:58:00.0	0	0	xrx-20091231.xml	1	
0001193125-10-043083	1326160	DUKE ENERGY CORP	4931	US	NC	CHARLOTTE	28202	526 SOUTH CHURCH STREET	EC03T	704-594-6200	US	NC	CHARLOTTE	28202	526 SOUTH CHURCH STREET	EC03T	US	DE	202777218	DUKE ENERGY HOLDING CORP.	20050628	1-LAF	1	1231	10-K	20091231	2009	FY	20100226	2010-02-26 17:00:00.0	0	0	duk-20091231.xml	1	
0001193125-10-043086	64803	CVS CAREMARK CORP	5912	US	RI	WOONSOCKET	02895	ONE CVS DR.		4017651500	US	RI	WOONSOCKET	02895	ONE CVS DR.		US	DE	050494040	CVS/CAREMARK CORP	20070322	1-LAF	1	1231	10-K	20091231	2009	FY	20100226	2010-02-26 17:01:00.0	0	0	cvs-20091231.xml	1	
0001193125-10-043093	790070	EMC CORP	3572	US	MA	HOPKINTON	01748-9103	176 SOUTH STREET		5082937208	US	MA	HOPKINTON	01748-9103	176 SOUTH STREET		US	MA	042680009			1-LAF	1	1231	10-K	20091231	2009	FY	20100226	2010-02-26 17:03:00.0	0	0	emc-20091231.xml	1	
0001193125-10-043119	49938	IMPERIAL OIL LTD	2911	CA	AB	CALGARY	T2P 3M9	237 FOURTH AVENUE S.W.		1-800-567-3776	CA	AB	CALGARY	T2P 3M9	237 FOURTH AVENUE S.W.				980017682			1-LAF	1	1231	10-K	20091231	2009	FY	20100226	2010-02-26 17:11:00.0	0	0	imo-20091231.xml	1	
0001193125-10-043126	850693	ALLERGAN INC	2834	US	CA	IRVINE	92612	2525 DUPONT DRIVE		7142464500	US	CA	IRVINE	92713-9534	P.O. BOX 19534		US	DE	951622442			1-LAF	1	1231	10-K	20091231	2009	FY	20100226	2010-02-26 17:14:00.0	0	0	agn-20091231.xml	1	
0001193125-10-043149	1011006	YAHOO INC	7373	US	CA	SUNNYVALE	94089	YAHOO! INC.	701 FIRST AVENUE	4083493300	US	CA	SUNNYVALE	94089	701 FIRST AVENUE		US	DE	770398689			1-LAF	1	1231	10-K	20091231	2009	FY	20100226	2010-02-26 17:19:00.0	0	0	yhoo-20091231.xml	1	
0001193125-10-043152	927628	CAPITAL ONE FINANCIAL CORP	6022	US	VA	MCLEAN	22102	1680 CAPITAL ONE DRIVE	SUITE 1400	7037201000	US	VA	MCLEAN	22102	1680 CAPITAL ONE DRIVE	SUITE 1400	US	DE	541719854	OAKSTONE FINANCIAL CORP	19940728	1-LAF	1	1231	10-K	20091231	2009	FY	20100226	2010-02-26 17:19:00.0	0	0	cof-20091231.xml	1	
0001193125-10-043155	1002910	AMEREN CORP	4931	US	MO	ST LOUIS	63166-6149	1901 CHOUTEAU AVE	MC 1370	314-621-3222	US	MO	ST LOUIS	63103	1901 CHOUTEAU AVE	MC 1370	US	MO	431723446			1-LAF	1	1231	10-K	20091231	2009	FY	20100226	2010-02-26 17:21:00.0	0	0	aee-20091231.xml	6	18651 18654 49816 100826 1135361
0001193125-10-043162	1014473	VERISIGN INC/CA	7371	US	CA	MOUNTAIN VIEW	94043	487 EAST MIDDLEFIELD ROAD	ATTN: GENERAL COUNSEL	6509617500	US	CA	MOUNTAIN VIEW	94043	487 EAST MIDDLEFIELD ROAD	ATTN: GENERAL COUNSEL	US	DE	943221585			1-LAF	1	1231	10-K	20091231	2009	FY	20100226	2010-02-26 17:22:00.0	0	0	vrsn-20091231.xml	1	
0001193125-10-043173	4977	AFLAC INC	6321	US	GA	COLUMBUS	31999	1932 WYNNTON RD		7063233431	US	GA	COLUMBUS	31999	1932 WYNNTON ROAD		US	GA	581167100	AMERICAN FAMILY CORP	19920306	1-LAF	1	1231	10-K	20091231	2009	FY	20100226	2010-02-26 17:25:00.0	0	0	afl-20091231.xml	1	
0001193125-10-043180	1156375	CME GROUP INC.	6200	US	IL	CHICAGO	60606	20 S. WACKER DR.		3129303011	US	IL	CHICAGO	60606	20 S. WACKER DR.		US	DE	364459170	CHICAGO MERCANTILE EXCHANGE HOLDINGS INC	20010802	1-LAF	1	1231	10-K	20091231	2009	FY	20100226	2010-02-26 17:27:00.0	0	0	cme-20091231.xml	1	
0001206774-10-000406	831001	CITIGROUP INC	6021	US	NY	NEW YORK	10043	399 PARK AVENUE		2125591000	US	NY	NEW YORK	10043	399 PARK AVENUE		US	DE	521568099	TRAVELERS GROUP INC	19950519	1-LAF	1	1231	10-K	20091231	2009	FY	20100226	2010-02-26 17:00:00.0	0	0	c-20091231.xml	1	
0000007332-10-000005	7332	SOUTHWESTERN ENERGY CO	1311	US	TX	HOUSTON	77032	2350 N. SAM HOUSTON PARKWAY EAST	SUITE 125	2816184700	US	TX	HOUSTON	77032	2350 N. SAM HOUSTON PARKWAY EAST	SUITE 125	US	DE	710205415	ARKANSAS WESTERN GAS CO	19790917	1-LAF	1	1231	10-K	20091231	2009	FY	20100225	2010-02-25 17:26:00.0	0	0	swn-20091231.xml	1	
0000059558-10-000073	59558	LINCOLN NATIONAL CORP	6311	US	PA	RADNOR	19087	150 N RADNOR CHESTER RD		4845831475	US	PA	RADNOR	19087	150 N RADNOR CHESTER RD		US	IN	351140070			1-LAF	1	1231	10-K	20091231	2009	FY	20100225	2010-02-25 15:59:00.0	0	0	lnc-20091231.xml	1	
0000092122-10-000009	92122	SOUTHERN CO	4911	US	GA	ATLANTA	30308	30 IVAN ALLEN JR. BLVD., N.W.		4045065000	US	GA	ATLANTA	30308	30 IVAN ALLEN JR. BLVD., N.W.		US	DE	580690070			1-LAF	1	1231	10-K	20091231	2009	FY	20100225	2010-02-25 16:39:00.0	0	0	so-20091231.xml	6	3153 41091 44545 66904 1160661
0000277135-10-000011	277135	GRAINGER W W INC	5000	US	IL	LAKE FOREST	60045-5201	100 GRAINGER PARKWAY		847-535-1000	US	IL	LAKE FOREST	60045	100 GRAINGER PARKWAY		US	IL	361150280			1-LAF	1	1231	10-K	20091231	2009	FY	20100225	2010-02-25 11:10:00.0	0	0	gww-20091231.xml	1	
0000732717-10-000013	732717	AT&T INC.	4813	US	TX	DALLAS	75202	208 S. AKARD ST	ATTN :  ANDREW LIBERA	2108214105	US	TX	DALLAS	75202	208 S. AKARD ST	ATTN :  ANDREW LIBERA	US	DE	431301883	SBC COMMUNICATIONS INC	19950501	1-LAF	1	1231	10-K	20091231	2009	FY	20100225	2010-02-25 17:19:00.0	0	0	t-20091231.xml	1	
0000797468-10-000020	797468	OCCIDENTAL PETROLEUM CORP /DE/	1311	US	CA	LOS ANGELES	90024	10889 WILSHIRE BLVD		3102088800	US	CA	LOS ANGELES	90024	10889 WILSHIRE BOULEVARD		US	DE	954035997			1-LAF	1	1231	10-K	20091231	2009	FY	20100225	2010-02-25 14:54:00.0	0	0	oxy-20091231.xml	1	
0000821189-10-000011	821189	EOG RESOURCES INC	1311	US	TX	HOUSTON	77002	1111 BAGBY, SKY LOBBY 2		7136517000	US	TX	HOUSTON	77002	1111 BAGBY, SKY LOBBY 2		US	DE	470684736	ENRON OIL & GAS CO	19920703	1-LAF	1	1231	10-K	20091231	2009	FY	20100225	2010-02-25 17:11:00.0	0	0	eog-20091231.xml	1	
0000950123-10-016612	701221	CIGNA CORP	6324	US	PA	PHILADELPHIA	19192-1550	ONE LIBERTY PLACE	1601 CHESTNUT STREET	2157611000	US	PA	PHILADELPHIA	19192	TWO LIBERTY PLACE 48TH FLOOR	1601 CHESTNUT STREET	US	DE	061059331			1-LAF	1	1231	10-K	20091231	2009	FY	20100225	2010-02-25 06:06:00.0	0	0	ci-20091231.xml	1	
0000950123-10-016613	1164727	NEWMONT MINING CORP /DE/	1040	US	CO	GREENWOOD VILLAGE	80111	6363 SOUTH FIDDLERS GREEN CIRCLE		303-863-7414	US	CO	GREENWOOD VILLAGE	80111	6363 SOUTH FIDDLERS GREEN CIRCLE		US	DE	841611629	DELTA HOLDCO CORP	20020109	1-LAF	1	1231	10-K	20091231	2009	FY	20100225	2010-02-25 06:06:00.0	0	0	nem-20091231.xml	1	
0000950123-10-016787	1037868	AMETEK INC/	3621	US	PA	PAOLI	19301	37 NORTH VALLEY RD.	BUILDING 4, POB 1764	6106472121	US	PA	PAOLI	19301	37 NORTH VALLEY RD.	BUILDING 4, POB 1764	US	DE	141682544	AMETEK AEROSPACE PRODUCTS INC	19970415	1-LAF	1	1231	10-K	20091231	2009	FY	20100225	2010-02-25 11:30:00.0	0	0	ame-20091231.xml	1	
0000950123-10-016801	217346	TEXTRON INC	3720	US	RI	PROVIDENCE	02903	40 WESTMINSTER ST		4014212800	US	RI	PROVIDENCE	02903	40 WESTMINSTER ST		US	DE	050315468	AMERICAN TEXTRON INC	19710510	1-LAF	1	1231	10-K	20091231	2009	FY	20100225	2010-02-25 12:03:00.0	0	0	txt-20100102.xml	1	
0000950123-10-016821	1126294	RRI ENERGY INC	4911	US	TX	HOUSTON	77002	1000 MAIN STREET		713-497-3000	US	TX	HOUSTON	77002	1000 MAIN STREET		US	DE	760655566	RELIANT ENERGY INC	20040423	1-LAF	1	1231	10-K	20091231	2009	FY	20100225	2010-02-25 12:31:00.0	0	0	rri-20091231.xml	1	
0000950123-10-016846	93410	CHEVRON CORP	2911	US	CA	SAN RAMON	94583	6001 BOLLINGER CANYON ROAD		925-842-1000	US	CA	SAN RAMON	94583	6001 BOLLINGER CANYON ROAD		US	DE	940890210	CHEVRONTEXACO CORP	20011009	1-LAF	1	1231	10-K	20091231	2009	FY	20100225	2010-02-25 12:56:00.0	0	0	cvx-20091231.xml	1	
0000950123-10-016933	1130385	FOSTER WHEELER AG	1600	US	NJ	CLINTON	08809	PERRYVILLE CORPORATE PARK	SERVICE ROAD EAST 173	9087304270	US	NJ	CLINTON	08809	PERRYVILLE CORPORATE PARK	SERVICE ROAD EAST 173	BM		223802649	FOSTER WHEELER LTD	20001221	1-LAF	1	1231	10-K	20091231	2009	FY	20100225	2010-02-25 14:16:00.0	0	0	fwlt-20091231.xml	1	
0000950123-10-016994	46640	HEINZ H J CO	2030	US	PA	PITTSBURGH	15222-5448	1 PPG PLACE	SUITE 3100	4124565700	US	PA	PITTSBURGH	15230	P O BOX 57	P O BOX 57	US	PA	250542520			1-LAF	1	0430	10-Q	20100131	2010	Q3	20100225	2010-02-25 15:26:00.0	0	0	hnz-20100127.xml	1	
0000950123-10-017074	1424847	LORILLARD, INC.	2111	US	NC	GREENSBORO	27408	714 GREEN VALLEY ROAD		336.335.7000	US	NC	GREENSBORO	27408	714 GREEN VALLEY ROAD		US	DE	131911176			1-LAF	1	1231	10-K	20091231	2009	FY	20100225	2010-02-25 16:23:00.0	0	0	lo-20091231.xml	1	
0000950123-10-017084	1018963	ALLEGHENY TECHNOLOGIES INC	3317	US	PA	PITTSBURGH	15222	1000 SIX PPG PLACE		4123942800	US	PA	PITTSBURGH	15222	100 SIX PPG PLACE		US	DE	251792394	ALLEGHENY TELEDYNE INC	19960716	1-LAF	1	1231	10-K	20091231	2009	FY	20100225	2010-02-25 16:26:00.0	0	0	ati-20091231.xml	1	
0000950123-10-017093	1090012	DEVON ENERGY CORP/DE	1311	US	OK	OKLAHOMA CITY	73102	20 N BROADWAY	STE 1500	4052353611	US	OK	OKLAHOMA CITY	73102	20 N BROADWAY	STE 1500	US	DE	731567067	DEVON DELAWARE CORP	19990707	1-LAF	1	1231	10-K	20091231	2009	FY	20100225	2010-02-25 16:32:00.0	0	0	dvn-20091231.xml	1	
0000950123-10-017111	1037016	NII HOLDINGS INC	4812	US	VA	RESTON	20191	10700 PARKRIDGE BLVD	SUITE 600	7034334000	US	VA	RESTON	20191	10700 PARKRIDGE BLVD	SUITE 600	US	DE	911671412	NEXTEL INTERNATIONAL INC	19970919	1-LAF	1	1231	10-K	20091231	2009	FY	20100225	2010-02-25 16:43:00.0	0	0	nihd-20091231.xml	1	
0000950123-10-017170	316206	STARWOOD HOTEL & RESORTS WORLDWIDE INC	7011	US	NY	WHITE PLAINS	10604	1111 WESTCHESTER AVENUE		9146408100	US	AZ	PHOENIX	85016	2231 E CAMELBACK RD. 4TH FL	SUITE 4O0	US	MD	521193298	STARWOOD LODGING CORP	19950215	1-LAF	1	1231	10-K	20091231	2009	FY	20100225	2010-02-25 17:22:00.0	0	0	hot-20091231.xml	1	
0000950123-10-017177	1136869	ZIMMER HOLDINGS INC	3842	US	IN	WARSAW	46580	345 EAST MAIN STREET		5742676131	US	IN	WARSAW	46580	345 EAST MAIN STREET		US	DE	134151777			1-LAF	1	1231	10-K	20091231	2009	FY	20100225	2010-02-25 17:25:00.0	0	0	zmh-20091231.xml	1	
0000950123-10-017187	1163165	CONOCOPHILLIPS	2911	US	TX	HOUSTON	77079	CONOCOPHILLIPS	600 NORTH DAIRY ASHFORD ROAD	2812931000	US	TX	HOUSTON	77079	CONOCOPHILLIPS	600 NORTH DAIRY ASHFORD ROAD	US	DE	010562944	CORVETTEPORSCHE CORP	20011204	1-LAF	1	1231	10-K	20091231	2009	FY	20100225	2010-02-25 17:30:00.0	0	0	cop-20091231.xml	1	
0001047469-10-001324	1063761	SIMON PROPERTY GROUP INC /DE/	6798	US	IN	INDIANAPOLIS	46204-3438	225 WEST WASHINGTON STREET		317-636-1600	US	IN	INDIANAPOLIS	46204-3438	225 WEST WASHINGTON STREET		US	DE	046268599	CORPORATE PROPERTY INVESTORS INC	19980610	1-LAF	1	1231	10-K	20091231	2009	FY	20100225	2010-02-25 11:12:00.0	0	0	spg-20091231.xml	1	
0001047469-10-001355	899051	ALLSTATE CORP	6331	US	IL	NORTHBROOK	60062	2775 SANDERS ROAD		8474025000	US	IL	NORTHBROOK	60062	2775 SANDERS ROAD		US	DE	363871531			1-LAF	1	1231	10-K	20091231	2009	FY	20100225	2010-02-25 16:32:00.0	0	0	all-20091231.xml	1	
0001047469-10-001356	1124198	FLUOR CORP	1600	US	TX	IRVING	75039	6700 LAS COLINAS BLVD		4693987000	US	TX	IRVING	75039	6700 LAS COLINAS BLVD		US	DE	330927079			1-LAF	1	1231	10-K	20091231	2009	FY	20100225	2010-02-25 16:39:00.0	0	0	flr-20091231.xml	1	
0001047469-10-001362	1355096	LIBERTY MEDIA CORP	4841	US	CO	ENGLEWOOD	80112	12300 LIBERTY BOULEVARD		7208755400	US	CO	ENGLEWOOD	80112	12300 LIBERTY BOULEVARD				841288730	LIBERTY MEDIA HOLDING CORP	20060303	1-LAF	1	1231	10-K	20091231	2009	FY	20100225	2010-02-25 16:43:00.0	0	0	lcapa-20091231.xml	1	
0001047469-10-001364	1324404	CF INDUSTRIES HOLDINGS, INC.	2870	US	IL	DEERFIELD	60015	4 PARKWAY NORTH	SUITE 400	(847) 405-2400	US	IL	DEERFIELD	60015	4 PARKWAY NORTH	SUITE 400	US	DE	202697511			1-LAF	1	1231	10-K	20091231	2009	FY	20100225	2010-02-25 16:46:00.0	0	0	cf-20091231.xml	1	
0001047469-10-001402	813828	CBS CORP	4833	US	NY	NEW YORK	10019	51 WEST 52ND STREET	35TH FLOOR	2129754321	US	NY	NEW YORK	10019	51 WEST 52ND STREET	35TH FLOOR	US	DE	042949533	VIACOM INC	19920703	1-LAF	1	1231	10-K	20091231	2009	FY	20100225	2010-02-25 17:11:00.0	0	0	cbs-20091231.xml	1	
0001104659-10-009750	1053112	CABLEVISION SYSTEMS CORP /NY	4841	US	NY	BETHPAGE	11714	1111 STEWART AVENUE		5163806230	US	NY	BETHPAGE	11714	1111 STEWART AVENUE		US	DE	112776686			1-LAF	0	1231	10-K	20091231	2009	FY	20100225	2010-02-25 16:59:00.0	0	0	cvc-20091231.xml	2	784681
0001140361-10-008295	1357615	KBR, INC.	1600	US	TX	HOUSTON	77002	601 JEFFERSON STREET	SUITE 3400	(713) 753-3834	US	TX	HOUSTON	77002	601 JEFFERSON STREET	SUITE 3400	US	DE	204536774			1-LAF	1	1231	10-K	20091231	2009	FY	20100225	2010-02-25 06:05:00.0	0	0	kbr-20091231.xml	1	
0001140361-10-008522	21665	COLGATE PALMOLIVE CO	2844	US	NY	NEW YORK	10022	300 PARK AVE		2123102000	US	NY	NEW YORK	10022	300 PARK AVE	14TH FLOOR	US	DE	131815595			1-LAF	1	1231	10-K	20091231	2009	FY	20100225	2010-02-25 17:18:00.0	0	0	cl-20091231.xml	1	
0001157523-10-001218	37996	FORD MOTOR CO	3711	US	MI	DEARBORN	48126	ONE AMERICAN ROAD		3133223000	US	MI	DEARBORN	48126	ONE AMERICAN RD		US	DE	380549190			1-LAF	1	1231	10-K	20091231	2009	FY	20100225	2010-02-25 14:03:00.0	0	0	f-20091231.xml	1	
0001193125-10-039749	891456	PLAINS EXPLORATION & PRODUCTION CO	1311	US	TX	HOUSTON	77002	700 MILAM STREET	SUITE 3100	7135796000	US	TX	HOUSTON	77002	700 MILAM STREET	SUITE 3100	US	DE	330430755	PLAINS EXPLORATION & PRODUCTION CO L P	20020619	1-LAF	1	1231	10-K	20091231	2009	FY	20100225	2010-02-25 07:48:00.0	0	0	pxp-20091231.xml	1	
0001193125-10-039864	9892	BARD C R INC /NJ/	3841	US	NJ	MURRAY HILL	07974	730 CENTRAL AVE		9082778000	US	NJ	MURRAY HILL	07974	730 CENTRAL AVENUE		US	NJ	221454160			1-LAF	1	1231	10-K	20091231	2009	FY	20100225	2010-02-25 09:08:00.0	0	0	bcr-20091231.xml	1	
0001193125-10-040106	1103982	KRAFT FOODS INC	2000	US	IL	NORTHFIELD	60093	THREE LAKES DRIVE		8476462000	US	IL	NORTHFIELD	60093	THREE LAKES DRIVE		US	VA	522284372			1-LAF	1	1231	10-K	20091231	2009	FY	20100225	2010-02-25 11:55:00.0	0	0	kft-20091231.xml	1	
0001193125-10-040142	906107	EQUITY RESIDENTIAL	6798	US	IL	CHICAGO	60606	EQUITY RESIDENTIAL	TWO NORTH RIVERSIDE PLAZA, SUITE 400	3129281178	US	IL	CHICAGO	60606	TWO NORTH RIVERSIDE PLAZA	SUITE 400	US	MD	363877868	EQUITY RESIDENTIAL PROPERTIES TRUST	19930524	1-LAF	1	1231	10-K	20091231	2009	FY	20100225	2010-02-25 12:19:00.0	0	0	eqr-20091231.xml	1	
0001193125-10-040148	931182	ERP OPERATING LTD PARTNERSHIP	6798	US	IL	CHICAGO	60606	TWO N RIVERSIDE PLZ	STE 400	3124741300	US	IL	CHICAGO	60606	TWO N RIVERSIDE PLAZA	SUITE 450	US	MD	363894853			1-LAF	1	1231	10-K	20091231	2009	FY	20100225	2010-02-25 12:23:00.0	0	0	cik000093118-20091231.xml	1	
0001193125-10-040175	8868	AVON PRODUCTS INC	2844	US	NY	NEW YORK	10105-0196	1345 AVENUE OF THE AMERICAS		212-282-5000	US	NY	NEW  YORK	10105-0196	1345 AVENUE OF THE AMERICAS		US	NY	130544597			1-LAF	1	1231	10-K	20091231	2009	FY	20100225	2010-02-25 12:40:00.0	0	0	avp-20091231.xml	1	
0001193125-10-040348	868809	XTO ENERGY INC	1311	US	TX	FORT WORTH	76102	810 HOUSTON ST	STE 2000	8178702800	US	TX	FORT WORTH	76102	810 HOUSTON STREET	STE 2000	US	DE	752347769	CROSS TIMBERS OIL CO	19940801	1-LAF	1	1231	10-K	20091231	2009	FY	20100225	2010-02-25 14:05:00.0	0	0	xto-20091231.xml	1	
0001193125-10-040444	316709	SCHWAB CHARLES CORP	6211	US	CA	SAN FRANCISCO	94105	211 MAIN STREET		4156367000	US	CA	SAN FRANCISCO	94105	211 MAIN STREET		US	DE	943025021			1-LAF	1	1231	10-K	20091231	2009	FY	20100225	2010-02-25 14:43:00.0	0	0	schw-20091231.xml	1	
0001193125-10-040500	1058290	COGNIZANT TECHNOLOGY SOLUTIONS CORP	7371	US	NJ	TEANECK	07666	500 FRANK W. BURR BLVD.		2018010233	US	NJ	TEANECK	07666	500 FRANK W. BURR BLVD.				133728359			1-LAF	1	1231	10-K	20091231	2009	FY	20100225	2010-02-25 15:07:00.0	0	0	ctsh-20091231.xml	1	
0001193125-10-040508	788784	PUBLIC SERVICE ENTERPRISE GROUP INC	4931	US	NJ	NEWARK	07102-4194	CORPORATE ACCOUNTING SERVICES	80 PARK PLAZA, 9TH FLOOR	973-430-7000	US	NJ	NEWARK	07102-4194	CORPORATE ACCOUNTING SERVICES	80 PARK PLAZA, 9TH FLOOR	US	NJ	222625848			1-LAF	1	1231	10-K	20091231	2009	FY	20100225	2010-02-25 15:10:00.0	0	0	peg-20091231.xml	3	81033 1158659
0001193125-10-040520	936468	LOCKHEED MARTIN CORP	3760	US	MD	BETHESDA	20817	6801 ROCKLEDGE DR		3018976000	US	MD	BETHESDA	20817	6801 ROCKLEDGE DRIVE		US	MD	521893632			1-LAF	1	1231	10-K	20091231	2009	FY	20100225	2010-02-25 15:14:00.0	0	0	lmt-20091231.xml	1	
0001193125-10-040605	896159	ACE LTD	6331	CH		ZURICH CH-8001	00000	BARENGASSE 32		441 295 5200	BM		HAMILTON HM08	00000	ACE BUILDING	17 WOODBOURNE AVENUE	CH		000000000	ACE LTD	19930122	1-LAF	1	1231	10-K	20091231	2009	FY	20100225	2010-02-25 15:44:00.0	0	0	ace-20091231.xml	1	
0001193125-10-040686	73309	NUCOR CORP	3312	US	NC	CHARLOTTE	28211	2100 REXFORD RD		7043667000	US	NC	CHARLOTTE	28211	2100 REXFORD ROAD		US	DE	131860817	NUCLEAR CORP OF AMERICA INC	19680911	1-LAF	1	1231	10-K	20091231	2009	FY	20100225	2010-02-25 16:16:00.0	0	0	nue-20091231.xml	1	
0001193125-10-040773	927066	DAVITA INC	8090	US	CA	EL SEGUNDO	90245	601 HAWAII STREET		3105362400	US	CA	EL SEGUNDO	90245	601 HAWAII STREET		US	DE	510354549	TOTAL RENAL CARE HOLDINGS INC	19950524	1-LAF	1	1231	10-K	20091231	2009	FY	20100225	2010-02-25 16:45:00.0	0	0	dva-20091231.xml	1	
0001193125-10-040793	849213	PLUM CREEK TIMBER CO INC	6798	US	WA	SEATTLE	98104-4040	999 THIRD AVENUE	SUITE 4300	(206)467-3600	US	WA	SEATTLE	98104-4040	999 THIRD AVENUE	SUITE 4300	US	DE	911912863	PLUM CREEK TIMBER CO L P	19920703	1-LAF	1	1231	10-K	20091231	2009	FY	20100225	2010-02-25 16:48:00.0	0	0	pcl-20091231.xml	1	
0001193125-10-040826	1037540	BOSTON PROPERTIES INC	6798	US	MA	BOSTON	02199	800 BOYLSTON STREET	SUITE 1900	6172363300	US	MA	BOSTON	02199	800 BOYLSTON STREET	SUITE 1900	US	DE	042473675			1-LAF	1	1231	10-K	20091231	2009	FY	20100225	2010-02-25 16:57:00.0	0	0	bxp-20091231.xml	1	
0001193125-10-040838	1043121	BOSTON PROPERTIES LTD PARTNERSHIP	6798	US	MA	BOSTON	02199	800 BOYLSTON STREET	SUITE 1900	6172363300	US	MA	BOSTON	02199	800 BOYLSTON STREET	SUITE 1900	US	DE	000000000			4-NON	0	1231	10-K	20091231	2009	FY	20100225	2010-02-25 17:00:00.0	0	0	cik000104312-20091231.xml	1	
0001193125-10-040857	277595	ENERGEN CORP	4924	US	AL	BIRMINGHAM	35203-2707	605 RICHARD ARRINGTON JR BLVD N		2053262997	US	AL	BIRMINGHAM	35203	605 RICHARD ARRINGTON JR BLVD N		US	AL	630757759	ALAGASCO INC	19851002	1-LAF	1	1231	10-K	20091231	2009	FY	20100225	2010-02-25 17:03:00.0	0	0	egn-20091231.xml	2	3146
0001193125-10-040916	51434	INTERNATIONAL PAPER CO /NEW/	2621	US	TN	MEMPHIS	38197	6400 POPLAR AVENUE		901-419-7000	US	TN	MEMPHIS	38197	6400 POPLAR AVENUE		US	NY	130872805	INTERNATIONAL PAPER & POWER CORP	19710527	1-LAF	1	1231	10-K	20091231	2009	FY	20100225	2010-02-25 17:18:00.0	0	0	ip-20091231.xml	1	
0001193125-10-040943	1267238	ASSURANT INC	6321	US	NY	NEW YORK					US	NY	NEW YORK	10005	ONE CHASE MANHATTAN PLAZA				391126612			1-LAF	1	1231	10-K	20091231	2009	FY	20100225	2010-02-25 17:27:00.0	0	0	aiz-20091231.xml	1	
0001193125-10-040947	1373835	SPECTRA ENERGY CORP.	4923	US	TX	HOUSTON	77056	5400 WESTHEIMER COURT		704-382-8160	US	TX	HOUSTON	77056	5400 WESTHEIMER COURT		US	DE	205413139	GAS SPINCO, INC.	20060825	1-LAF	1	1231	10-K	20091231	2009	FY	20100225	2010-02-25 17:28:00.0	0	0	se-20091231.xml	1	
0000915389-10-000023	915389	EASTMAN CHEMICAL CO	2821	US	TN	KINGSPORT	37660	PO BOX 511	200 SOUTH WILCOX DRIVE	4232292000	US	TN	KINGSPORT	37662	P O BOX BOX 511 B-54D		US	DE	621539359			1-LAF	1	1231	10-K/A	20091231	2009	FY	20100224	2010-02-24 17:30:00.0	0	0	emn-20091231.xml	1	
0000920148-10-000021	920148	LABORATORY CORP OF AMERICA HOLDINGS	8071	US	NC	BURLINGTON	27215	358 S MAIN ST		3362291127	US	NC	BURLINGTON	27215	358 S MAIN ST		US	DE	133757370	NATIONAL HEALTH LABORATORIES HOLDINGS INC	19940314	1-LAF	1	1231	10-K	20091231	2009	FY	20100224	2010-02-24 15:21:00.0	0	0	lh-20091231.xml	1	
0000950123-10-015884	315852	RANGE RESOURCES CORP	1311	US	TX	FT WORTH	76102	100 THROCKMORTON  STE. 1200		817-870-2601	US	TX	FT WORTH	76102	100 THROCKMORTON  STE. 1200		US	DE	341312571	LOMAK PETROLEUM INC	19920703	1-LAF	1	1231	10-K	20091231	2009	FY	20100224	2010-02-23 19:46:00.0	0	0	rrc-20091231.xml	1	
0000950123-10-016029	19617	J P MORGAN CHASE & CO	6021	US	NY	NEW YORK	10017	270 PARK AVE	38TH FL	2122706000	US	NY	NEW YORK	10017	270 PARK AVENUE		US	DE	132624428	CHASE MANHATTAN CORP /DE/	19960402	1-LAF	1	1231	10-K	20091231	2009	FY	20100224	2010-02-24 06:19:00.0	0	0	jpm-20091231.xml	1	
0000950123-10-016198	89800	SHERWIN WILLIAMS CO	5200	US	OH	CLEVELAND	44115	101 PROSPECT AVE NW		2165662200							US	OH	340526850			1-LAF	1	1231	10-K	20091231	2009	FY	20100224	2010-02-24 12:54:00.0	0	0	shw-20091231.xml	1	
0000950123-10-016328	64040	MCGRAW-HILL COMPANIES INC	2731	US	NY	NEW YORK	10020	1221 AVENUE OF THE AMERICAS		2125122000	US	NY	NEW YORK	10020	1221 AVENUE OF THE AMERICAS		US	NY	131026995	MCGRAW HILL INC	19920703	1-LAF	1	1231	10-K	20091231	2009	FY	20100224	2010-02-24 15:46:00.0	0	0	mhp-20091231.xml	1	
0000950123-10-016350	1333141	FRESENIUS MEDICAL CARE AG & CO. KGAA	8090	DE		BAD HOMBURG	61352	ELSE-KROENER STRASSE 1		011-49-6172-6090	DE		BAD HOMBURG	61352	ELSE-KROENER STRASSE 1				000000000			1-LAF	1	1231	20-F	20091231	2009	FY	20100224	2010-02-24 16:09:00.0	0	0	fms-20091231.xml	1	
0000950123-10-016360	39899	GANNETT CO INC /DE/	2711	US	VA	MCLEAN	22107-0910	7950 JONES BRANCH DRIVE		7038546000	US	VA	MCLEAN	22107-0910	7950 JONES BRANCH DRIVE		US	DE	160442930			1-LAF	1	1231	10-K	20091231	2009	FY	20100224	2010-02-24 16:17:00.0	0	0	gci-20091227.xml	1	
0000950123-10-016361	1060391	REPUBLIC SERVICES, INC.	4953	US	AZ	PHOENIX	85054	18500 N. ALLIED WAY		480 627 2700	US	AZ	PHOENIX	85054	18500 N. ALLIED WAY		US	DE	650716904	REPUBLIC SERVICES INC	19980423	1-LAF	1	1231	10-K	20091231	2009	FY	20100224	2010-02-24 16:17:00.0	0	0	rsg-20091231.xml	1	
0000950123-10-016370	885721	EXPRESS SCRIPTS INC	5912	US	MO	ST LOUIS	63121	ONE EXPRESS WAY		3149960900	US	MO	ST LOUIS	63121	ONE EXPRESS WAY		US	DE	431420563			1-LAF	1	1231	10-K	20091231	2009	FY	20100224	2010-02-24 16:29:00.0	0	0	esrx-20091231.xml	1	
0000950123-10-016384	30625	FLOWSERVE CORP	3561	US	TX	IRVING	75039	5215 N. O'CONNOR BLVD.	SUITE 2300	9724436500	US	TX	IRVING	75039	5215 N. O'CONNOR BLVD.	SUITE 2300	US	NY	310267900	DURCO INTERNATIONAL INC	19970508	1-LAF	1	1231	10-K	20091231	2009	FY	20100224	2010-02-24 16:37:00.0	0	0	fls-20091231.xml	1	
0000950123-10-016425	1064728	PEABODY ENERGY CORP	1221	US	MO	ST LOUIS	63101-1826	701 MARKET ST		3143423400	US	MO	ST LOUIS	63101-1826	701 MARKET ST		US	DE	134004153	P&L COAL HOLDINGS CORP	19980623	1-LAF	1	1231	10-K	20091231	2009	FY	20100224	2010-02-24 17:14:00.0	0	0	btu-20091231.xml	1	
0001047469-10-001174	820027	AMERIPRISE FINANCIAL INC	6282	US	MN	MINNEAPOLIS	55474	1099 AMERIPRISE FINANCIAL CENTER		612-671-2018	US	MN	MINNEAPOLIS	55474	1099 AMERIPRISE FINANCIAL CENTER		US	DE	133180631	AMERICAN EXPRESS FINANCIAL CORP	20030513	1-LAF	1	1231	10-K	20091231	2009	FY	20100224	2010-02-23 18:48:00.0	0	0	amp-20091231.xml	1	
0001104659-10-009153	97216	TEREX CORP	3537	US	CT	WESTPORT	06880	200 NYALA FARM ROAD		2032227170	US	CT	WESTPORT	06880	200 NYALA FARM ROAD		US	DE	341531521	BLACK MAMMOTH CONSOLIDATED MINING CO	19671002	1-LAF	0	1231	10-K	20091231	2009	FY	20100224	2010-02-24 15:30:00.0	0	0	tex-20091231.xml	1	
0001144204-10-009642	1121788	GARMIN LTD	3812	KY		CAMANA BAY	KY1-1006	PO BOX 10670, GRAND CAYMAN KY1-1006	STE. 3206B, 45 MARKET ST., GARDENIA CT.	9133978200	US	KS	OLATHE	66062	C/O GARMIN INTERNATIONAL INC	1200 E 151ST STREET			980229227			1-LAF	1	1231	10-K	20091231	2009	FY	20100224	2010-02-24 12:36:00.0	0	0	grmn-20091226.xml	1	
0001157523-10-001176	1043219	ANNALY CAPITAL MANAGEMENT INC	6798	US	NY	NEW YORK	10036	1211 AVENUE OF THE AMERICAS		212 696 0100	US	NY	NEW YORK	10036	1211 AVENUE OF THE AMERICAS		US	MD	223479661	ANNALY MORTGAGE MANAGEMENT INC	19970729	1-LAF	1	1231	10-K	20091231	2009	FY	20100224	2010-02-24 16:46:00.0	0	0	nly-20091231.xml	1	
0001193125-10-037944	877890	CITRIX SYSTEMS INC	7372	US	FL	FORT LAUDERDALE	33309	851 WEST CYPRESS CREEK ROAD		9542673000	US	FL	FL LAUDERDALE	33309	851 WEST CYPRESS CREEK ROAD		US	DE	752275152			1-LAF	1	1231	10-K	20091231	2009	FY	20100224	2010-02-23 21:30:00.0	0	0	ctxs-20091231.xml	1	
0001193125-10-038294	789073	FORTUNE BRANDS INC	3430	US	IL	DEERFIELD	60015	520 LAKE COOK ROAD		8474844400	US	IL	DEERFIELD	60015	520 LAKE COOK ROAD		US	DE	133295276	AMERICAN BRANDS INC /DE/	19920703	1-LAF	1	1231	10-K	20091231	2009	FY	20100224	2010-02-24 08:43:00.0	0	0	fo-20091231.xml	1	
0001193125-10-038391	1047122	RAYTHEON CO/	3812	US	MA	WALTHAM	02451-1449	870 WINTER STREET		781-522-3031	US	MA	WALTHAM	02451-1449	870 WINTER STREET		US	DE	951778500	HE HOLDINGS INC	19971001	1-LAF	1	1231	10-K	20091231	2009	FY	20100224	2010-02-24 10:09:00.0	0	0	rtn-20091231.xml	1	
0001193125-10-038621	55785	KIMBERLY CLARK CORP	2670	US	TX	IRVING	75038	351 PHELPS DRIVE		9722811200	US	TX	DALLAS	75261-9100	P O BOX 619100	DFW AIRPORT STATION	US	DE	390394230			1-LAF	1	1231	10-K	20091231	2009	FY	20100224	2010-02-24 13:39:00.0	0	0	kmb-20091231.xml	1	
0001193125-10-038642	63276	MATTEL INC /DE/	3942	US	CA	EL SEGUNDO	90245	333 CONTINENTAL BLVD		3102522000							US	DE	951567322			1-LAF	1	1231	10-K	20091231	2009	FY	20100224	2010-02-24 13:55:00.0	0	0	mat-20091231.xml	1	
0001193125-10-038679	60086	LOEWS CORP	6331	US	NY	NEW YORK	10065-8087	667 MADISON AVE		212-521-2000	US	NY	NEW YORK	10065-8087	667 MADISON AVE		US	DE	132646102			1-LAF	1	1231	10-K	20091231	2009	FY	20100224	2010-02-24 14:21:00.0	0	0	l-20091231.xml	1	
0001193125-10-038766	884905	PRAXAIR INC	2810	US	CT	DANBURY	06810-5113	39 OLD RIDGEBURY RD		2038372000	US	CT	DANBURY	06810-5113	39 OLD RIDGEBURY ROAD		US	DE	061249050	UNION CARBIDE INDUSTRIAL GASES INC	19600201	1-LAF	1	1231	10-K	20091231	2009	FY	20100224	2010-02-24 15:26:00.0	0	0	px-20091231.xml	1	
0001193125-10-038824	1163302	UNITED STATES STEEL CORP	3312	US	PA	PITTSBURGH	15219-2800	600 GRANT ST	ROOM 1500	415 433 2967	US		PITTSBURGH	15219-2800	600 GRANT STREET		US	DE	251897152	UNITED STATES STEEL LLC	20011205	1-LAF	1	1231	10-K	20091231	2009	FY	20100224	2010-02-24 15:55:00.0	0	0	x-20091231.xml	1	
0001193125-10-038834	1282266	WINDSTREAM CORP	4813	US	AR	LITTLE ROCK	72212	4001 RODNEY PARHAM RD.		5017487000	US	AR	LITTLE ROCK	72212	4001 RODNEY PARHAM RD.		US	DE	200792300	VALOR COMMUNICATIONS GROUP INC	20040326	1-LAF	1	1231	10-K	20091231	2009	FY	20100224	2010-02-24 15:58:00.0	0	0	win-20091231.xml	1	
0001193125-10-038962	29669	RR DONNELLEY & SONS CO	2750	US	IL	CHICAGO	60606	111 SOUTH WACKER DRIVE		3123268000	US	IL	CHICAGO	60606	111 SOUTH WACKER DRIVE		US	DE	361004130	DONNELLEY R R & SONS CO	19920703	1-LAF	1	1231	10-K	20091231	2009	FY	20100224	2010-02-24 16:42:00.0	0	0	rrd-20091231.xml	1	
0001193125-10-038977	313616	DANAHER CORP /DE/	3823	US	DC	WASHINGTON	20006	2099 PENNSYLVANIA AVE N.W., 12TH FLOOR		2028280850	US	DC	WASHINGTON	20006	2099 PENNSYLVANIA AVE. N.W., 12TH FLOOR		US	DE	591995548	DMG INC	19850221	1-LAF	1	1231	10-K	20091231	2009	FY	20100224	2010-02-24 16:48:00.0	0	0	dhr-20091231.xml	1	
0001193125-10-039013	1316631	LIBERTY GLOBAL, INC.	4841	US	CO	ENGLEWOOD	80112	12300 LIBERTY BOULEVARD		720 875 5800	US	CO	ENGLEWOOD	80112	12300 LIBERTY BOULEVARD				202197030			1-LAF	1	1231	10-K	20091231	2009	FY	20100224	2010-02-24 17:02:00.0	0	0	lbtya-20091231.xml	1	
0001193125-10-039027	764180	ALTRIA GROUP, INC.	2111	US	VA	RICHMOND	23230	6601 WEST BROAD STREET		(804) 274-2200	US	VA	RICHMOND	23230	6601 WEST BROAD STREET		US	VA	133260245	ALTRIA GROUP INC	20030127	1-LAF	1	1231	10-K	20091231	2009	FY	20100224	2010-02-24 17:24:00.0	0	0	mo-20091231.xml	1	
0001451505-10-000023	1451505	TRANSOCEAN LTD.	1381	CH		VERNIER	1214	BLANDONNET INTERNATIONAL BUSINESS CENTER	BLDG F, 7TH FLOOR, CHEMIN DE BLANDONNET	41-58-792-9243	CH		VERNIER	1214	BLANDONNET INTERNATIONAL BUSINESS CENTER	BLDG F, 7TH FLOOR, CHEMIN DE BLANDONNET	CH		980599916			1-LAF	1	1231	10-K	20091231	2009	FY	20100224	2010-02-24 16:38:00.0	0	0	rig-20091231.xml	1	
0000899689-10-000004	899689	VORNADO REALTY TRUST	6798	US	NY	NEW YORK	10019	888 SEVENTH AVE		212-894-7000	US	NY	NEW YORK	10019	888 SEVENTH AVE		US	MD	221657560			1-LAF	1	1231	10-K	20091231	2009	FY	20100223	2010-02-23 08:44:00.0	0	0	vno-20091231.xml	1	
0000909281-10-000028	909281	ONEOK PARTNERS LP	4922	US	OK	TULSA	74103	100 WEST FIFTH STREET		9185887000	US	OK	TULSA	74103	100 WEST FIFTH STREET		US	DE	931120873	NORTHERN BORDER PARTNERS LP	19930719	1-LAF	1	1231	10-K	20091231	2009	FY	20100223	2010-02-23 14:02:00.0	0	0	oks-20091231.xml	1	
0000909281-10-000030	1039684	ONEOK INC /NEW/	4923	US	OK	TULSA	74103	100 WEST 5TH ST		9185887000	US	OK	TULSA	74103	100 WEST 5TH ST		US	OK	731520922	WAI INC	19970519	1-LAF	1	1231	10-K	20091231	2009	FY	20100223	2010-02-23 14:05:00.0	1	0	oke-20091231.xml	1	
0000918160-10-000011	918160	AK STEEL HOLDING CORP	3312	US	OH	WEST CHESTER	45069	9227 CENTRE POINTE DRIVE		5134255000	US	OH	WEST CHESTER	45069	9227 CENTRE POINTE DRIVE		US	DE	311401455			1-LAF	1	1231	10-K	20091231	2009	FY	20100223	2010-02-23 08:52:00.0	0	0	aks-20091231.xml	1	
0000950123-10-015380	10456	BAXTER INTERNATIONAL INC	3841	US	IL	DEERFIELD	60015	ONE BAXTER PKWY	DF2-1W	8479482000	US	IL	DEERFIELD	60015	ONE BAXTER PARKWAY	DF2-1W	US	DE	360781620	BAXTER TRAVENOL LABORATORIES INC	19880522	1-LAF	1	1231	10-K	20091231	2009	FY	20100223	2010-02-22 21:55:00.0	0	0	bax-20091231.xml	1	
0000950123-10-015699	949039	DIAMOND OFFSHORE DRILLING INC	1381	US	TX	HOUSTON	77094	15415 KATY FREEWAY		7134925300	US	TX	HOUSTON	77094	15415 KATY FREEWAY		US	DE	760321760			1-LAF	1	1231	10-K	20091231	2009	FY	20100223	2010-02-23 15:22:00.0	0	0	do-20091231.xml	1	
0000950123-10-015756	874766	HARTFORD FINANCIAL SERVICES GROUP INC/DE	6331	US	CT	HARTFORD	06155	ONE HARTFORD PLAZA		8605475000	US	CT	HARTFORD	06155	ONE HARTFORD PLAZA		US	DE	133317783	ITT HARTFORD GROUP INC /DE	19930328	1-LAF	1	1231	10-K	20091231	2009	FY	20100223	2010-02-23 16:15:00.0	0	0	hig-20091231.xml	1	
0000950123-10-015821	1170650	MEDCO HEALTH SOLUTIONS INC	5912	US	NJ	FRANKLIN LAKES	07417	100 PARSONS POND DR		2012693400	US	NJ	FRANKLIN LAKES	07417	100 PARSONS POND DR		US	DE	223461740	MEDCOHEALTH SOLUTIONS INC	20020528	1-LAF	1	1231	10-K	20091231	2009	FY	20100223	2010-02-23 17:15:00.0	0	0	mhs-20091226.xml	1	
0000950123-10-015824	1013871	NRG ENERGY, INC.	4911	US	NJ	PRINCETON	08540	211 CARNEGIE CENTER	-	609-524-4500	US	NJ	PRINCETON	08540	211 CARNEGIE CENTER	-	US	DE	411724239	NRG ENERGY INC	19960509	1-LAF	1	1231	10-K	20091231	2009	FY	20100223	2010-02-23 17:17:00.0	0	0	nrg-20091231.xml	1	
0000950123-10-015829	936340	DTE ENERGY CO	4911	US	MI	DETROIT	48226	ONE ENERGY PLAZA		3132354000	US	MI	DETROIT	48226	ONE ENERGY PLAZA		US	MI	383217752	DTE HOLDINGS INC	19950127	1-LAF	1	1231	10-K	20091231	2009	FY	20100223	2010-02-23 17:23:00.0	0	0	dte-20091231.xml	1	
0001047469-10-001151	51143	INTERNATIONAL BUSINESS MACHINES CORP	3570	US	NY	ARMONK	10504	1 NEW ORCHARD ROAD		9144991900	US	NY	ARMONK	10504	1 NEW ORCHARD RD		US	NY	130871985			1-LAF	1	1231	10-K	20091231	2009	FY	20100223	2010-02-23 13:32:00.0	0	0	ibm-20091231.xml	1	
0001104659-10-008799	820313	AMPHENOL CORP /DE/	3678	US	CT	WALLINGFORD	06492	358 HALL AVE		2032658900							US	DE	222785165			1-LAF	1	1231	10-K	20091231	2009	FY	20100223	2010-02-23 14:23:00.0	0	0	aph-20091231.xml	1	
0001104659-10-008891	901491	PAPA JOHNS INTERNATIONAL INC	5812	US	KY	LOUISVILLE	40299-2334	2002 PAPA JOHNS BOULEVARD		5022617272	US	KY	LOUISVILLE	40269-9990	P O BOX 99900		US	DE	611203323			1-LAF	1	1231	10-K	20091231	2009	FY	20100223	2010-02-23 17:16:00.0	0	0	pzza-20091227.xml	1	
0001140361-10-007829	888228	KINDER MORGAN ENERGY PARTNERS L P	4922	US	TX	HOUSTON	77002	500 DALLAS	SUITE 1000	713-369-9000	US	TX	HOUSTON	77002	500 DALLAS	SUITE 1000	US	DE	760380342	ENRON LIQUIDS PIPELINE L P	19970304	1-LAF	1	1231	10-K	20091231	2009	FY	20100223	2010-02-22 20:03:00.0	0	0	kmp-20091231.xml	1	
0001140361-10-007923	97476	TEXAS INSTRUMENTS INC	3674	US	TX	DALLAS	75266	P.O. BOX 660199		9729953773	US	TX	DALLAS	75266	12500 TI BLVD	PO BOX 660199	US	DE	750289970			1-LAF	1	1231	10-K	20091231	2009	FY	20100223	2010-02-23 14:26:00.0	0	0	txn-20091231.xml	1	
0001193125-10-036866	1059324	PETROHAWK ENERGY CORP	1311	US	TX	HOUSTON	77002	1000 LOUISIANA SUITE 5600		8322042700	US	TX	HOUSTON	77002	1000 LOUISIANA SUITE 5600		US	DE	860876964	BETA OIL & GAS INC	19980407	1-LAF	1	1231	10-K	20091231	2009	FY	20100223	2010-02-23 06:08:00.0	0	0	hk-20091231.xml	1	
0001193125-10-037160	793952	HARLEY DAVIDSON INC	3751	US	WI	MILWAUKEE	53208	3700 W JUNEAU AVE		4143424680							US	WI	391382325			1-LAF	1	1231	10-K	20091231	2009	FY	20100223	2010-02-23 11:14:00.0	0	0	hog-20091231.xml	1	
0001193125-10-037170	750556	SUNTRUST BANKS INC	6021	US	GA	ATLANTA	30308	303 PEACHTREE ST N E		4045887711	US	GA	ATLANTA	30308	303 PEACHTREE ST N E		US	GA	581575035			1-LAF	1	1231	10-K	20091231	2009	FY	20100223	2010-02-23 11:20:00.0	0	0	sti-20091231.xml	1	
0001193125-10-037173	773910	ANADARKO PETROLEUM CORP	1311	US	TX	THE WOODLANDS	77380-1046	1201 LAKE ROBBINS DRIVE		8326367520	US	TX	THE WOODLANDS	77380	1201 LAKE ROBBINS DR.		US	DE	760146568			1-LAF	1	1231	10-K	20091231	2009	FY	20100223	2010-02-23 11:22:00.0	0	0	apc-20091231.xml	1	
0001193125-10-037551	1166691	COMCAST CORP	4841	US	PA	PHILADELPHIA					US	PA	PHILADELPHIA	19102	1500 MARKET STREET		US	PA	270000798	AT&T COMCAST CORP	20020206	1-LAF	1	1231	10-K	20091231	2009	FY	20100223	2010-02-23 15:48:00.0	0	0	cmcsa-20091231.xml	1	
0001193125-10-037566	931148	GRAFTECH INTERNATIONAL LTD	3620	US	OH	PARMA	44130	12900 SNOW ROAD		2166762000	US	OH	PARMA	44130	12900 SNOW ROAD		US	DE	061385548	UCAR INTERNATIONAL INC	19941011	1-LAF	1	1231	10-K	20091231	2009	FY	20100223	2010-02-23 16:04:00.0	0	0	gti-20091231.xml	1	
0001193125-10-037640	896262	AMEDISYS INC	8082	US	LA	BATON ROUGE	70816	5959 S SHERWOOD FOREST BLVD		2252922031	US	LA	BATON ROUGE	70816	5959 S SHERWOOD FOREST BLVD		US	DE	113131700	ANALYTICAL NURSING MANAGEMENT CORP	19940819	1-LAF	1	1231	10-K	20091231	2009	FY	20100223	2010-02-23 16:36:00.0	0	0	amed-20091231.xml	1	
0000950123-10-014958	59478	LILLY ELI & CO	2834	US	IN	INDIANAPOLIS	46285	LILLY CORPORATE CTR	DROP CODE 1112	3172762000	US	IN	INDIANAPOLIS	46285	LILLY CORPORATE CENTER	DROP CODE 1112	US	IN	350470950			1-LAF	1	1231	10-K	20091231	2009	FY	20100222	2010-02-22 12:45:00.0	0	0	lly-20091231.xml	1	
0000950123-10-015187	1076405	PEPSI BOTTLING GROUP INC	2080	US	NY	SOMERS	10589-2201	ONE PEPSI WAY		9147676000	US	NY	SOMERS	10589-2201	ONE PEPSI WAY		US	DE	134038356			1-LAF	1	1231	10-K	20091231	2009	FY	20100222	2010-02-22 16:28:00.0	0	0	pbg-20091226.xml	1	
0000950123-10-015194	1087835	BOTTLING GROUP LLC	2080	US	NY	SOMERS	10589-2201	ONE PEPSI WAY		9142532884	US	NY	SOMERS	10589-2201	ONE PEPSI WAY		US	DE	134042452			4-NON	1	1231	10-K	20091231	2009	FY	20100222	2010-02-22 16:31:00.0	0	0	bgllc-20091226.xml	1	
0000950123-10-015237	50863	INTEL CORP	3674	US	CA	SANTA CLARA	95054	2200 MISSION COLLEGE BLVD	RNB-4-151	4087658080	US	CA	SANTA CLARA	95054	2200 MISSION COLLEGE BLVD	RNB-4-151	US	DE	941672743			1-LAF	1	1231	10-K	20091231	2009	FY	20100222	2010-02-22 17:14:00.0	0	0	intc-20091226.xml	1	
0001047469-10-001104	1022671	STEEL DYNAMICS INC	3312	US	IN	FORT WAYNE	46804	7575 W JEFFERSON BLVD		260 459 3553	US	IN	FORT WAYNE	46804	7575 W JEFFERSON BLVD		US	IN	351929476			1-LAF	1	1231	10-K	20091231	2009	FY	20100222	2010-02-22 17:11:00.0	0	0	stld-20091231.xml	1	
0001144204-10-009164	818479	DENTSPLY INTERNATIONAL INC /DE/	3843	US	PA	YORK	17405	SUSQUEHANNA COMMERCE CENTER	221 W. PHILADELPHIA STREET	7178457511	US	PA	YORK	17405	SUSQUEHANNA COMMERCE CENTER	221 W. PHILADELPHIA STREET	US	DE	391434669	GENDEX CORP	19920703	1-LAF	1	1231	10-K	20091231	2009	FY	20100222	2010-02-22 09:58:00.0	0	0	xray-20091231.xml	1	
0001157523-10-001098	1201792	AMERICAN PUBLIC EDUCATION INC	8200	US	WV	CHARLES TOWN	25414	111 W CONGRESS STREET		3047243700	US	WV	CHARLES TOWN	25414	111 W CONGRESS STREET		US	DE	010724376			2-ACC	0	1231	10-K	20091231	2009	FY	20100222	2010-02-22 16:01:00.0	0	0	apei-20091231.xml	1	
0001193125-10-035850	1437107	DISCOVERY COMMUNICATIONS, INC.	4841	US	CO	ENGLEWOOD	80112	12300 LIBERTY BOULEVARD		(720) 875-4000	US	CO	ENGLEWOOD	80112	12300 LIBERTY BOULEVARD		US	DE	352333914			1-LAF	1	1231	10-K	20091231	2009	FY	20100222	2010-02-22 09:30:00.0	0	0	disca-20091231.xml	1	
0001193125-10-036116	1047862	CONSOLIDATED EDISON INC	4931	US	NY	NEW YORK	10003	4 IRVING PLACE	ROOM 1618 S	2124604600	US	NY	NEW YORK	10003	4 IRVING PLACE	ROOM 1618 S	US	NY	133965100			1-LAF	1	1231	10-K	20091231	2009	FY	20100222	2010-02-22 13:23:00.0	0	0	ed-20091231.xml	2	23632
0001193125-10-036181	1065280	NETFLIX INC	7841	US	CA	LOS GATOS	95032	100 WINCHESTER CIRCLE	.	408-540-3700	US	CA	LOS GATOS	95032-7606	100 WINCHESTER CIRCLE		US	DE	770467272	NETFLIX COM INC	20000229	1-LAF	1	1231	10-K	20091231	2009	FY	20100222	2010-02-22 14:10:00.0	0	0	nflx-20091231.xml	1	
0001193125-10-036348	37785	FMC CORP	2800	US	PA	PHILADELPHIA	19103	1735 MARKET STREET		215 299-6000	US	PA	PHILADELPHIA	19103	1735 MARKET STREET		US	DE	940479804	FOOD MACHINERY & CHEMICAL CORP	19670706	1-LAF	1	1231	10-K	20091231	2009	FY	20100222	2010-02-22 15:55:00.0	0	0	fmc-20091231.xml	1	
0001193125-10-036385	77476	PEPSICO INC	2080	US	NY	PURCHASE	10577	700 ANDERSON HILL RD		9142532000	US	NY	PURCHASE	10577-1444	700 ANDERSON HILL ROAD		US	NC	131584302	PEPSI COLA CO	19700903	1-LAF	1	1231	10-K	20091231	2009	FY	20100222	2010-02-22 16:20:00.0	0	0	pep-20091226.xml	1	
0001193125-10-036435	818686	TEVA PHARMACEUTICAL INDUSTRIES LTD	2834	IL		PETACH TIKVA	49131	5 BAZEL ST	P O B 3190		IL		PETACH TIKVA	49131	TEVA PHARMACEUTICAL INDUSTRIES LIMITED	5 BAZEL ST PO B 3190	IL		000000000			1-LAF	1	1231	20-F	20091231	2009	FY	20100222	2010-02-22 16:44:00.0	0	0	teva-20091231.xml	1	
0001193125-10-036446	1281761	REGIONS FINANCIAL CORP	6021	US	AL	BIRMINGHAM	35203	1900 FIFTH AVENUE NORTH		205-944-1300	US	AL	BIRMINGHAM	35203	1900 FIFTH AVENUE NORTH		US	DE	630589368	NEW REGIONS FINANCIAL CORP	20040225	1-LAF	1	1231	10-K	20091231	2009	FY	20100222	2010-02-22 16:51:00.0	0	0	rf-20091231.xml	1	
0001193125-10-036481	93751	STATE STREET CORP	6022	US	MA	BOSTON	02111	ONE LINCOLN STREET		617 786-3000	US	MA	BOSTON	02111	ONE LINCOLN STREET		US	MA	042456637	STATE STREET CORP	19970424	1-LAF	1	1231	10-K	20091231	2009	FY	20100222	2010-02-22 17:15:00.0	0	0	stt-20091231.xml	1	
0001274494-10-000007	1274494	FIRST SOLAR, INC.	3674	US	AZ	TEMPE	85281	350 WEST WASHINGTON STREET	SUITE 600	(602) 414-9300	US	AZ	TEMPE	85281	350 WEST WASHINGTON STREET	SUITE 600	US	DE	204623678	FIRST SOLAR HOLDINGS LLC	20031229	1-LAF	1	1231	10-K	20091231	2009	FY	20100222	2010-02-22 11:01:00.0	0	0	fslr-20091226.xml	1	
0000018230-10-000092	18230	CATERPILLAR INC	3531	US	IL	PEORIA	61629	100 NE ADAMS ST		3096751000	US	IL	PEORIA	61629	100 NE ADAMS ST		US	DE	370602744	CATERPILLAR TRACTOR CO	19860623	1-LAF	1	1231	10-K	20091231	2009	FY	20100219	2010-02-19 12:43:00.0	0	0	cat-20091231.xml	1	
0000029915-10-000024	29915	DOW CHEMICAL CO /DE/	2821	US	MI	MIDLAND	48674-2030	2030 DOW CENTER		989-636-1000	US	MI	MIDLAND	48674-2030	2030 DOW CENTER		US	DE	381285128			1-LAF	1	1231	10-K	20091231	2009	FY	20100219	2010-02-19 09:37:00.0	0	0	dow-20091231.xml	1	
0000040545-10-000010	40545	GENERAL ELECTRIC CO	3600	US	CT	FAIRFIELD	06828	3135 EASTON TURNPIKE	W3F	203-373-2211	US	CT	FAIRFIELD	06828	3135 EASTON TURNPIKE	W3F	US	NY	140689340			1-LAF	0	1231	10-K	20091231	2009	FY	20100219	2010-02-19 17:16:00.0	0	0	ge-20091231.xml	1	
0000277948-10-000013	277948	CSX CORP	4011	US	FL	JACKSONVILLE	32202	500 WATER STREET	15TH FLOOR	9043593200	US	FL	JACKSONVILLE	32202	500 WATER STREET	15TH FLOOR	US	VA	621051971			1-LAF	1	1231	10-K	20091231	2009	FY	20100219	2010-02-19 08:57:00.0	0	0	csx-20091225.xml	1	
0000891092-10-000656	29989	OMNICOM GROUP INC	7311	US	NY	NEW YORK	10022	437 MADISON AVE		2124153700	US	NY	NEW YORK	10022	437 MADISON AVE		US	NY	131514814	DOYLE DANE BERNBACH GROUP INC	19861117	1-LAF	1	1231	10-K	20091231	2009	FY	20100219	2010-02-19 17:23:00.0	0	0	omc-20091231.xml	1	
0000950123-10-014419	1275283	REYNOLDS AMERICAN INC	2111	US	NC	WINSTON SALEM	27102	401 NORTH MAIN ST		3367412000	US	NC	WINSTON SALEM	27102	401 NORTH MAIN ST				200546644			1-LAF	1	1231	10-K	20091231	2009	FY	20100219	2010-02-19 11:22:00.0	0	0	rai-20091231.xml	1	
0000950123-10-014479	1105705	TIME WARNER INC.	7812	US	NY	NEW YORK	10019	ONE TIME WARNER CENTER		2124848000	US	NY	NEW YORK	10019	ONE TIME WARNER CENTER		US	DE	134099534	TIME WARNER INC	20031015	1-LAF	1	1231	10-K	20091231	2009	FY	20100219	2010-02-19 14:22:00.0	0	0	twx-20091231.xml	1	
0000950123-10-014502	29905	DOVER CORP	3530	US	NY	NEW YORK	10017	280 PARK AVE	38-W	2129221640							US	DE	530257888			1-LAF	1	1231	10-K	20091231	2009	FY	20100219	2010-02-19 14:55:00.0	0	0	dov-20091231.xml	1	
0000950123-10-014515	889900	PATTERSON UTI ENERGY INC	1381	US	TX	SNYDER	79549	4510 LAMESA HWY	P O DRAWER 1416	9155731104	US	TX	SNYDER	79550	P O DRAWER 1416		US	DE	752504748	PATTERSON ENERGY INC	19940228	1-LAF	1	1231	10-K	20091231	2009	FY	20100219	2010-02-19 15:10:00.0	0	0	pten-20091231.xml	1	
0000950123-10-014528	1141982	COOPER INDUSTRIES PLC	3640	IE		DUBLIN 2	00000	5 FITZWILLIAM SQUARE		7132098400	IE		DUBLIN 2	00000	5 FITZWILLIAM SQUARE				980632292	COOPER INDUSTRIES LTD	20010604	1-LAF	1	1231	10-K	20091231	2009	FY	20100219	2010-02-19 15:34:00.0	0	0	cbe-20091231.xml	1	
0000950123-10-014582	36270	M&T BANK CORP	6022	US	NY	BUFFALO	14203	C/O CORPORATE REPORTING	ONE M&T PLAZA 5TH FLOOR	7168425390	US	NY	BUFFALO	14203	C/O CORPORAE REPORTING	ONE M&T PLAZA 5TH FLR	US	NY	160968385	FIRST EMPIRE STATE CORP	19920703	1-LAF	1	1231	10-K	20091231	2009	FY	20100219	2010-02-19 16:47:00.0	0	0	mtb-20091231.xml	1	
0001004980-10-000015	1004980	PG&E CORP	4931	US	CA	SAN FRANCISCO	94105	ONE MARKET SPEAR TOWER	SUITE 2400	4152677000	US	CA	SAN FRANCISCO	94105	ONE MARKET SPEAR TOWER	SUITE 2400	US	CA	943234914	PG&E PARENT CO INC	19951214	1-LAF	0	1231	10-K	20091231	2009	FY	20100219	2010-02-19 17:13:00.0	0	0	pcg-20091231.xml	1	
0001031296-10-000011	1031296	FIRSTENERGY CORP	4911	US	OH	AKRON	44308-1890	76 SOUTH MAIN ST		330-761-7837	US	OH	AKRON	44308-1890	76 SOUTH MAIN ST		US	OH	341843785			1-LAF	1	1231	10-K	20091231	2009	FY	20100219	2010-02-18 19:41:00.0	0	0	fe-20091231.xml	8	20947 53456 65350 73960 77227 352049 1407703
0001047469-10-001018	1800	ABBOTT LABORATORIES	2834	US	IL	ABBOTT PARK	60064-3500	100 ABBOTT PARK ROAD	D-322 AP6D	8479376100							US	IL	360698440			1-LAF	1	1231	10-K	20091231	2009	FY	20100219	2010-02-19 16:06:00.0	0	0	abt-20091231.xml	1	
0001047469-10-001028	24545	MOLSON COORS BREWING CO	2082	US	CO	DENVER	80123	1225 17TH STREET, SUITE 3200		303-927-2312	US	CO	DENVER	80202	1225 17TH STREET, SUITE 3200		US	DE	840178360	COORS ADOLPH CO	19920703	1-LAF	1	1231	10-K	20091231	2009	FY	20100219	2010-02-19 17:21:00.0	0	0	tap-20091226.xml	1	
0001104659-10-008164	883984	ICU MEDICAL INC/DE	3841	US	CA	SAN CLEMENTE	92763	951 CALLE AMANECER		949-366-2183	US	CA	SAN CLEMENTE	92763	951 CALLE AMANECER		US	DE	330022692			2-ACC	0	1231	10-K	20091231	2009	FY	20100219	2010-02-19 14:55:00.0	0	0	icui-20091231.xml	1	
0001140361-10-007555	833081	PRIDE INTERNATIONAL INC	1381	US	TX	HOUSTON	77057	5847 SAN FELIPE	SUITE 3300	7137891400	US	TX	HOUSTON	77057	5847 SAN FELIPE	SUITE 3300	US	DE	760069030	PRIDE PETROLEUM SERVICES INC	19920703	1-LAF	1	1231	10-K	20091231	2009	FY	20100219	2010-02-19 14:05:00.0	0	0	pde-20091231.xml	1	
0001193125-10-034780	47111	HERSHEY CO	2060	US	PA	HERSHEY	17033-0810	100 CRYSTAL A DRIVE	P O BOX 810-EXTERNAL RPTG & COMPLIANCE	7175344200	US	PA	HERSHEY	17033-0810	P O BOX 810-EXTERNAL RPTG & COMPLIANCE	100 CRYSTAL A DRIVE	US	DE	230691590	HERSHEY FOODS CORP	19920703	1-LAF	1	1231	10-K	20091231	2009	FY	20100219	2010-02-19 09:15:00.0	0	0	hsy-20091231.xml	1	
0001193125-10-034883	40533	GENERAL DYNAMICS CORP	3730	US	VA	FALLS CHURCH	22042-4513	2941 FAIRVIEW PARK DRIVE	SUITE 100	7038763000	US	VA	FALLS CHURCH	22042-4513	2941 FAIRVIEW PARK DRIVE	SUITE 100	US	DE	131673581			1-LAF	1	1231	10-K	20091231	2009	FY	20100219	2010-02-19 11:25:00.0	0	0	gd-20091231.xml	1	
0001193125-10-035019	49071	HUMANA INC	6324	US	KY	LOUISVILLE	40202	500 W MAIN ST		5025801000	US	KY	LOUISVILLE	40202	500 W. MAIN ST		US	DE	610647538	EXTENDICARE INC	19740404	1-LAF	1	1231	10-K	20091231	2009	FY	20100219	2010-02-19 13:17:00.0	0	0	hum-20091231.xml	1	
0001193125-10-035167	14272	BRISTOL MYERS SQUIBB CO	2834	US	NY	NEW YORK	10154	345 PARK AVE		2125464000	US	NY	NEW YORK	10154	345 PARK AVE		US	DE	220790350	BRISTOL MYERS CO	19891012	1-LAF	1	1231	10-K	20091231	2009	FY	20100219	2010-02-19 15:38:00.0	0	0	bmy-20091231.xml	1	
0001193125-10-035246	740260	VENTAS INC	6798	US	IL	CHICAGO	60606	111 SOUTH WACKER DRIVE	SUITE 4800	(877) 483-6827	US	IL	CHICAGO	60606	111 SOUTH WACKER DRIVE	SUITE 4800	US	DE	611055020			1-LAF	1	1231	10-K	20091231	2009	FY	20100219	2010-02-19 16:33:00.0	0	0	vtr-20091231.xml	1	
0000072207-10-000006	72207	NOBLE ENERGY INC	1311	US	TX	HOUSTON	77067	100 GLENBOROUGH	SUITE 100	2818723100	US	TX	HOUSTON	77067	100 GLENBOROUGH	SUITE 100	US	DE	730785597	NOBLE AFFILIATES INC	20020426	1-LAF	1	1231	10-K	20091231	2009	FY	20100218	2010-02-18 16:47:00.0	0	0	nbl-20091231.xml	1	
0000950123-10-014092	816284	CELGENE CORP /DE/	2834	US	NJ	SUMMIT	07901	86 MORRIS AVENUE		(908)673-9000	US	NJ	SUMMIT	07901	86 MORRIS AVENUE		US	DE	222711928			1-LAF	1	1231	10-K	20091231	2009	FY	20100218	2010-02-18 15:31:00.0	0	0	celg-20091231.xml	1	
0001047469-10-000972	86312	TRAVELERS COMPANIES, INC.	6331	US	MN	SAINT PAUL	55102	385 WASHINGTON ST		6513107911	US	MN	ST. PAUL	55102	385 WASHINGTON STREET		US	MN	410518860	ST PAUL TRAVELERS COMPANIES INC	20040401	1-LAF	1	1231	10-K	20091231	2009	FY	20100218	2010-02-18 06:26:00.0	0	0	trv-20091231.xml	1	
0001047469-10-000976	1274057	HOSPIRA INC	2834	US	IL	LAKE FOREST	60045	275 FIELD DR		8479376472							US	DE	000000000			1-LAF	1	1231	10-K	20091231	2009	FY	20100218	2010-02-18 08:16:00.0	0	0	hsp-20091231.xml	1	
0001104659-10-007860	33213	EQT CORP	4923	US	PA	PITTSBURGH	15212-5861	225 NORTH SHORE DR		4125535700	US	PA	PITTSBURGH	15212-5861	225 NORTH SHORE DR		US	PA	250464690	EQT CORP /PA/	20090206	1-LAF	1	1231	10-K	20091231	2009	FY	20100218	2010-02-18 16:12:00.0	0	0	eqt-20091231.xml	1	
0001193125-10-033939	79879	PPG INDUSTRIES INC	2851	US	PA	PITTSBURGH	15272	ONE PPG PL 40 EAST		4124343131	US	PA	PITTSBURGH	15272	ONE PPG PL 40 EAST		US	PA	250730780	PITTSBURGH PLATE GLASS CO	19681219	1-LAF	1	1231	10-K	20091231	2009	FY	20100218	2010-02-18 10:57:00.0	0	0	ppg-20091231.xml	1	
0001193125-10-034034	764065	CLIFFS NATURAL RESOURCES INC.	1000	US	OH	CLEVELAND	44114-2315	200 PUBLIC SQUARE	STE. 3300	216-694-5700	US	OH	CLEVELAND	44114-2315	200 PUBLIC SQUARE	STE. 3300	US	OH	341464672	CLEVELAND CLIFFS INC	19920703	1-LAF	1	1231	10-K	20091231	2009	FY	20100218	2010-02-18 12:49:00.0	0	0	clf-20091231.xml	1	
0001193125-10-034065	1141391	MASTERCARD INC	7389	US	NY	PURCHASE	10577	2000 PURCHASE STREET		9142492000	US	NY	PURCHASE	10577	2000 PURCHASE STREET		US	DE	134172551			1-LAF	1	1231	10-K	20091231	2009	FY	20100218	2010-02-18 13:21:00.0	0	0	ma-20091231.xml	1	
0001193125-10-034180	1156039	WELLPOINT, INC	6324	US	IN	INDIANAPOLIS	46204	120 MONUMENT CIRCLE		3174886000	US	IN	INDIANAPOLIS	46204	120 MONUMENT CIRCLE		US	IN	352145715	WELLPOINT INC	20041130	1-LAF	1	1231	10-K	20091231	2009	FY	20100218	2010-02-18 15:30:00.0	0	0	wlp-20091231.xml	1	
0001193125-10-034308	4281	ALCOA INC	3350	US	PA	PITTSBURGH	15212-5858	201 ISABELLA ST	ALCOA CORPORATE CTR	4125532576	US	PA	PITTSBURGH	15212-5858	801 ISABELLA ST	ALCOA CORPORATE CTR	US	PA	250317820	ALUMINUM CO OF AMERICA	19920703	1-LAF	1	1231	10-K	20091231	2009	FY	20100218	2010-02-18 17:03:00.0	0	0	aa-20091231.xml	1	
0001193125-10-034314	1001039	WALT DISNEY CO/	7990	US	CA	BURBANK	91521	500 SOUTH BUENA VISTA ST		8185601000	US	CA	BURBANK	91521	500 SOUTH BUENA VISTA ST		US	DE	954545390	DC HOLDCO INC	19950918	1-LAF	0	0930	8-K	20090930	2009	FY	20100218	2010-02-18 17:07:00.0	0	0	dis-20100218.xml	1	
0000045012-10-000085	45012	HALLIBURTON CO	1389	US	TX	HOUSTON	77032	3000 NORTH SAM HOUSTON PARKWAY EAST	3000 NORTH SAM HOUSTON PARKWAY EAST	2818712699	US	TX	HOUSTON	77032	3000 NORTH SAM HOUSTON PARKWAY EAST	3000 NORTH SAM HOUSTON PARKWAY EAST	US	DE	752677995	HALLIBURTON OIL WELL CEMENTING CO	19660911	1-LAF	1	1231	10-K	20091231	2009	FY	20100217	2010-02-17 13:02:00.0	0	0	hal-20091231.xml	1	
0000067716-10-000030	67716	MDU RESOURCES GROUP INC	1400	US	ND	BISMARCK	58506-5650	1200 WEST CENTURY AVENUE		701-530-1059	US	ND	BISMARCK	58506-5650	1200 WEST CENTURY AVENUE		US	DE	410423660	MONTANA DAKOTA UTILITIES CO	19850429	1-LAF	1	1231	10-K	20091231	2009	FY	20100217	2010-02-17 09:45:00.0	0	0	mdu-20091231.xml	1	
0000702165-10-000049	702165	NORFOLK SOUTHERN CORP	4011	US	VA	NORFOLK	23510-2191	THREE COMMERCIAL PL		7576292680	US	VA	NORFOLK	23510-2191	THREE COMMERCIAL PL		US	VA	521188014			1-LAF	1	1231	10-K	20091231	2009	FY	20100217	2010-02-17 17:17:00.0	0	0	nsc-20091231.xml	1	
0000930413-10-000862	1022079	QUEST DIAGNOSTICS INC	8071	US	NJ	MADISON	07940	3 GIRALDA FARMS		9735202700	US	NJ	MADISON	07940	3 GIRALDA FARMS		US	DE	161387862	CORNING CLINICAL LABORATORIES INC	19960903	1-LAF	1	1231	10-K	20091231	2009	FY	20100217	2010-02-17 16:21:00.0	0	0	dgx-20091231.xml	1	
0000950123-10-013710	768251	ALTERA CORP	3674	US	CA	SAN JOSE	95134	101 INNOVATION DR		408.544.8790	US	CA	SAN JOSE	95134	101 INNOVATION DR		US	DE	770016691			1-LAF	0	1231	10-K	20091231	2009	FY	20100217	2010-02-17 16:03:00.0	0	0	altr-20091231.xml	1	
0000950123-10-013755	6281	ANALOG DEVICES INC	3674	US	MA	NORWOOD	02062	ONE TECHNOLOGY WAY		7813294700	US	MA	NORWOOD	02062	ONE TECHNOLOGY WAY		US	MA	042348234			1-LAF	1	1031	10-Q	20100131	2010	Q1	20100217	2010-02-17 16:56:00.0	0	0	adi-20100130.xml	1	
0001041061-10-000011	1041061	YUM BRANDS INC	5812	US	KY	LOUISVILLE	40213	1441 GARDINER LANE		5028748300	US	KY	LOUISVILLE	40213	1900 COLONEL SANDERS LANE		US	NC	133951308	TRICON GLOBAL RESTAURANTS INC	19970627	1-LAF	1	1231	10-K	20091231	2009	FY	20100217	2010-02-17 16:01:00.0	0	0	yum-20091226.xml	1	
0001047469-10-000948	1126328	PRINCIPAL FINANCIAL GROUP INC	6321	US	IA	DES MOINES	50392-0300	711 HIGH STREET		5152475111	US	IA	DES MOINES	50392-0300	711 HIGH STREET		US	DE	421520346			1-LAF	1	1231	10-K	20091231	2009	FY	20100217	2010-02-17 14:28:00.0	0	0	pfg-20091231.xml	1	
0001193125-10-032740	858877	CISCO SYSTEMS INC	3576	US	CA	SAN JOSE	95134-1706	170 WEST TASMAN DR		4085264000	US	CA	SAN JOSE	95134-1706	225 WEST TASMAN DR		US	CA	770059951			1-LAF	0	0731	10-Q	20100131	2010	Q2	20100217	2010-02-17 06:07:00.0	0	0	csco-20100123.xml	1	
0001193125-10-033324	1065088	EBAY INC	7389	US	CA	SAN JOSE	95125	2145 HAMILTON AVENUE		408-376-7400	US	CA	SAN JOSE	95125	2145 HAMILTON AVENUE		US	DE	770430924			1-LAF	1	1231	10-K	20091231	2009	FY	20100217	2010-02-17 17:21:00.0	0	0	ebay-20091231.xml	1	
0000874016-10-000018	874016	JONES APPAREL GROUP INC	2330	US	NY	NEW YORK	10018	1411 BROADWAY		2126423860	US	NY	NEW YORK	10018	1411 BROADWAY		US	PA	060935166			1-LAF	1	1231	10-K	20091231	2009	FY	20100216	2010-02-16 14:28:00.0	0	0	jny-20091231.xml	1	
0000950123-10-013022	823768	WASTE MANAGEMENT INC	4953	US	TX	HOUSTON	77002	1001 FANNIN STREET	STE 4000	7135126200	US	TX	HOUSTON	77002	1001 FANNIN STREET	SUITE 4000	US	DE	731309529	USA WASTE SERVICES INC	19920703	1-LAF	1	1231	10-K	20091231	2009	FY	20100216	2010-02-16 13:22:00.0	0	0	wm-20091231.xml	1	
0000950123-10-013244	42542	GOODRICH CORP	3760	US	NC	CHARLOTTE	28217	4 COLISEUM CENTRE	2730 WEST TYVOLA ROAD	7044237000	US	NC	CHARLOTTE	28217	4 COLISEUM CENTRE	2730 WEST TYVOLA RD	US	NY	340252680	GOODRICH B F CO	19920703	1-LAF	1	1231	10-K	20091231	2009	FY	20100216	2010-02-16 16:10:00.0	0	0	gr-20091231.xml	1	
0000950123-10-013437	62996	MASCO CORP /DE/	2430	US	MI	TAYLOR	48180	21001 VAN BORN RD		3132747400	US	MI	TAYLOR	48180	21001 VAN BORN ROAD		US	DE	381794485	MASCO SCREW PRODUCTS CO	19731025	1-LAF	1	1231	10-K	20091231	2009	FY	20100216	2010-02-16 17:30:00.0	0	0	mas-20090930.xml	1	
0001047469-10-000905	68505	MOTOROLA INC	3663	US	IL	SCHAUMBURG	60196	1303 E ALGONQUIN RD		8475765000	US	IL	SCHAUMBURG	60196	1303 EAST ALGONQUIN ROAD		US	DE	361115800	MOTOROLA DELAWARE INC	19760414	1-LAF	1	1231	10-K	20091231	2009	FY	20100216	2010-02-16 16:46:00.0	0	0	mot-20091231.xml	1	
0001104659-10-007295	66740	3M CO	3841	US	MN	ST PAUL	55144-1000	3M CENTER	BLDG. 220-11W-02	6517332204	US	MN	ST. PAUL	55144-1000	3M CENTER	BLDG. 220-11W-02	US	DE	410417775	MINNESOTA MINING & MANUFACTURING CO	19920703	1-LAF	1	1231	10-K	20091231	2009	FY	20100216	2010-02-16 15:08:00.0	0	0	mmm-20091231.xml	1	
0001193125-10-031419	1051470	CROWN CASTLE INTERNATIONAL CORP	4899	US	TX	HOUSTON	77057	1220 AUGUSTA DRIVE	SUITE 500	7135703000	US	TX	HOUSTON	77057	1220 AUGUSTA DRIVE	SUITE 500	US	DE	760470458			1-LAF	1	1231	10-K	20091231	2009	FY	20100216	2010-02-16 06:32:00.0	0	0	cci-20091231.xml	1	
0001193125-10-032428	1037949	QWEST COMMUNICATIONS INTERNATIONAL INC	4813	US	CO	DENVER	80202	1801 CALIFORNIA ST		3039921400	US	CO	DENVER	80202	1801 CALIFORNIA ST		US	DE	841339282	QUEST COMMUNICATIONS INTERNATIONAL INC	19970416	1-LAF	1	1231	10-K	20091231	2009	FY	20100216	2010-02-16 17:06:00.0	0	0	q-20091231.xml	1	
0001336047-10-000009	1336047	BOARDWALK PIPELINE PARTNERS, LP	4922	US	TX	HOUSTON	77046	9 GREENWAY PLAZA, SUITE 2800		866-913-2122	US	TX	HOUSTON	77046	9 GREENWAY PLAZA, SUITE 2800		US	DE	203265614			1-LAF	1	1231	10-K	20091231	2009	FY	20100216	2010-02-16 10:10:00.0	0	0	bwp-20091231.xml	1	
0000930413-10-000784	773840	HONEYWELL INTERNATIONAL INC	3714	US	NJ	MORRISTOWN	07962	101 COLUMBIA RD	PO BOX 4000	9734552000	US	NJ	MORRISTOWN	07962	101 COLUMBIA RD P O BOX 4000	101 COLUMBIA RD P O BOX 4000	US	DE	222640650	ALLIEDSIGNAL INC	19940929	1-LAF	1	1231	10-K	20091231	2009	FY	20100212	2010-02-12 16:37:00.0	0	0	hon-20091231.xml	1	
0000950123-10-011711	54480	KANSAS CITY SOUTHERN	4011	US	MO	KANSAS CITY	64105	427 W 12TH STREET		8169831303	US	MO	KANSAS CITY	64121	PO BOX 219335		US	DE	440663509	KANSAS CITY SOUTHERN INDUSTRIES INC	19920703	1-LAF	1	1231	10-K	20091231	2009	FY	20100212	2010-02-11 19:37:00.0	0	0	ksu-20091231.xml	1	
0000950123-10-012453	1306830	CELANESE CORP	2820	US	TX	DALLAS	75234	1601 W. LBJ FREEWAY		972-443-4000	US	TX	DALLAS	75234	1601 W. LBJ FREEWAY		US	DE	980420726	BLACKSTONE CRYSTAL HOLDINGS CAPITAL PARTNERS (CAYMAN) IV LTD.	20041022	1-LAF	1	1231	10-K	20091231	2009	FY	20100212	2010-02-12 17:32:00.0	0	0	ce-20091231.xml	1	
0001047469-10-000766	765880	HCP, INC.	6798	US	CA	LONG BEACH	90806	3760 KILROY AIRPORT WAY	SUITE 300	562-733-5100	US	CA	LONG BEACH	90806	3760 KILROY AIRPORT WAY	SUITE 300	US	MD	330091377	HEALTH CARE PROPERTY INVESTORS INC	19920703	1-LAF	1	1231	10-K	20091231	2009	FY	20100212	2010-02-12 08:43:00.0	0	0	hcp-20091231.xml	1	
0001193125-10-030342	804055	COCA COLA ENTERPRISES INC	2086	US	GA	ATLANTA	30339	2500 WINDY RIDGE PKWY		7709893000	US	GA	ATLANTA	30339	2500 WINDY RIDGE PKWY		US	DE	580503352			1-LAF	1	1231	10-K	20091231	2009	FY	20100212	2010-02-12 14:15:00.0	0	0	cce-20091231.xml	1	
0001193125-10-030603	1048286	MARRIOTT INTERNATIONAL INC /MD/	7011	US	MD	BETHESDA	20817	10400 FERNWOOD ROAD		3013803000	US	MD	BETHESDA	20817	10400 FERNWOOD ROAD		US	DE	522055918	NEW MARRIOTT MI INC	19971023	1-LAF	1	1231	10-K	20091231	2009	FY	20100212	2010-02-12 16:11:00.0	0	0	mar-20100101.xml	1	
0001193125-10-030758	1308161	NEWS CORP	2711	US	NY	NEW YORK	10036	1211 AVENUE OF THE AMERICAS		212-852-7000	US	NY	NEW YORK	10036	1211 AVENUE OF THE AMERICAS				260075658	NEWS CORPORATION, INC.	20041108	1-LAF	0	0630	8-K	20090630	2009	FY	20100212	2010-02-12 17:14:00.0	0	0	nws-20100212.xml	1	
0001193125-10-030774	1288776	GOOGLE INC.	7370	US	CA	MOUNTAIN VIEW	94043	1600 AMPHITHEATRE PARKWAY		650 623 4000	US	CA	MOUNTAIN VIEW	94043	1600 AMPHITHEATRE PARKWAY		US	DE	770493581			1-LAF	1	1231	10-K	20091231	2009	FY	20100212	2010-02-12 17:19:00.0	0	0	goog-20091231.xml	1	
0000934612-10-000016	934612	BURLINGTON NORTHERN SANTA FE CORP	4011	US	TX	FT WORTH	76131-2830	2650 LOU MENK DR		8007952673	US	TX	FORT WORTH	76131-2830	2650 LOU MENK DRIVE		US	DE	411804964	BURLINGTON NORTHERN SANTE FE CORP	19950913	1-LAF	1	1231	10-K	20091231	2009	FY	20100211	2010-02-11 14:11:00.0	0	0	bni-20091231.xml	1	
0000950123-10-011337	908255	BORGWARNER INC	3714	US	MI	AUBURN HILLS	48326	3850 HAMLIN RD.		2487549200	US	MI	AUBURN HILLS	48326	3850 HAMLIN RD.		US	DE	133404508	BORG WARNER AUTOMOTIVE INC	19930628	1-LAF	1	1231	10-K	20091231	2009	FY	20100211	2010-02-11 11:26:00.0	0	0	bwa-20091231.xml	1	
0001193125-10-027861	101829	UNITED TECHNOLOGIES CORP /DE/	3724	US	CT	HARTFORD	06101	UNITED TECHNOLOGIES BLDG	ONE FINANCIAL PLZ	8607287000							US	DE	060570975	UNITED TECHNOLOGIES MICROELECTRONICS CENTER	19850825	1-LAF	1	1231	10-K	20091231	2009	FY	20100211	2010-02-11 06:09:00.0	0	0	utx-20091231.xml	1	
0001193125-10-028165	1339947	VIACOM INC.	4841	US	NY	NEW YORK	10036	1515 BROADWAY		(212) 258-6000	US	NY	NEW YORK	10036	1515 BROADWAY		US	DE	203515052	NEW VIACOM CORP.	20050927	1-LAF	1	1231	10-K	20091231	2009	FY	20100211	2010-02-11 09:51:00.0	0	0	via-20091231.xml	1	
0001437749-10-000316	353944	INTERNATIONAL GAME TECHNOLOGY	3990	US	NV	RENO	89510	9295 PROTOTYPE DRIVE	P O BOX 10580	7754487777	US	NV	RENO	89511	9295 PROTOTYPE DRIVE		US	NV	880173041			1-LAF	1	0930	10-Q	20091231	2010	Q1	20100211	2010-02-10 19:46:00.0	0	0	igt-20091231.xml	1	
0000023082-10-000015	23082	COMPUTER SCIENCES CORP	7373	US	VA	FALLS CHURCH	22042	3170 FAIRVIEW PARK DRIVE		7038761000	US	VA	FALLS CHURCH	22042	3170 FAIRVIEW PARK DRIVE		US	NV	952043126			1-LAF	1	0331	10-Q	20091231	2009	Q3	20100210	2010-02-10 12:11:00.0	0	0	csc-20100101.xml	1	
0001104659-10-006102	812074	OWENS ILLINOIS INC /DE/	3221	US	OH	PERRYSBURG	43551-2999	ONE MICHAEL OWENS WAY		5673365000	US	OH	PERRYSBURG	43551-2999	ONE MICHAEL OWENS WAY		US	DE	222781933	OWENS ILLINOIS HOLDINGS CORP	19870512	1-LAF	1	1231	10-K	20091231	2009	FY	20100210	2010-02-10 16:35:00.0	0	0	oi-20091231.xml	1	
0001193125-10-026625	1174746	INTERCONTINENTALEXCHANGE INC	6200	US	GA	ATLANTA	30328	2100 RIVEREDGE PARKWAY	SUITE 500	7708574700	US	GA	ATLANTA	30328	2100 RIVEREDGE PARKWAY	SUITE 500			000000000			1-LAF	1	1231	10-K	20091231	2009	FY	20100210	2010-02-10 08:32:00.0	0	0	ice-20091231.xml	1	
0001193125-10-027165	24741	CORNING INC /NY	3357	US	NY	CORNING	14831	ONE RIVERFRONT PLAZA		6079749000	US	NY	CORNING	14831	ONE RIVERFRONT PLAZA		US	NY	160393470	CORNING GLASS WORKS	19890512	1-LAF	1	1231	10-K	20091231	2009	FY	20100210	2010-02-10 16:05:00.0	0	0	glw-20091231.xml	1	
0001193125-10-027229	731766	UNITEDHEALTH GROUP INC	6324	US	MN	MINNEAPOLIS	55343	UNITEDHEALTH GROUP CENTER	9900 BREN ROAD EAST	9529361300	US	MN	MINNETONKA	55343	9900 BREN ROAD EAST		US	MN	411321939	UNITED HEALTHCARE CORP/	20000309	1-LAF	1	1231	10-K	20091231	2009	FY	20100210	2010-02-10 16:37:00.0	0	0	unh-20091231.xml	1	
0001193125-10-027258	90185	SIGMA ALDRICH CORP	5160	US	MO	ST LOUIS	63103	3050 SPRUCE ST		3147715765	US	MO	ST LOUIS	63103	3050 SPRUCE STREET		US	DE	431050617	SIGMA INTERNATIONAL LTD	19750925	1-LAF	1	1231	10-K	20091231	2009	FY	20100210	2010-02-10 16:56:00.0	0	0	sial-20091231.xml	1	
0000008670-10-000005	8670	AUTOMATIC DATA PROCESSING INC	7374	US	NJ	ROSELAND	07068	ONE ADP BOULVARD		9739747849	US	NJ	ROSELAND	07068	ONE ADP BOULEVARD		US	DE	221467904			1-LAF	0	0630	10-Q	20091231	2010	Q2	20100209	2010-02-09 16:49:00.0	0	0	adp-20091231.xml	1	
0000038074-10-000005	38074	FOREST LABORATORIES INC	2834	US	NY	NEW YORK	10022	909 THIRD AVENUE		(212)421-7850	US	NY	NEW YORK	10022	909 THIRD AVENUE		US	DE	111798614			1-LAF	1	0331	10-Q	20091231	2009	Q3	20100209	2010-02-09 12:50:00.0	0	0	frx-20091231.xml	1	
0000827054-10-000049	827054	MICROCHIP TECHNOLOGY INC	3674	US	AZ	CHANDLER	85224-6199	2355 W CHANDLER BLVD		480-792-7200	US	AZ	CHANDLER	85224-6199	2355 WEST CHANDLER BLVD		US	DE	860629024			1-LAF	0	1231	10-Q	20091231			20100209	2010-02-09 14:37:00.0	0	0	mchp-20091231.xml	1	
0000950123-10-010126	1133421	NORTHROP GRUMMAN CORP /DE/	3812	US	CA	LOS ANGELES	90067	1840 CENTURY PK E	C/O NORTHROP GRUMMAN CORP	310-201-1630	US	CA	LOS ANGELES	90067	1840 CENTURY PARK EAST	C/O NORTHROP GRUMMAN CORP	US	DE	954840775	NNG INC	20010129	1-LAF	1	1231	10-K	20091231	2009	FY	20100209	2010-02-08 21:29:00.0	0	0	noc-20091231.xml	1	
0000950123-10-010528	875045	BIOGEN IDEC INC.	2836	US	MA	CAMBRIDGE	02142	14 CAMBRIDGE CENTER		6176792000	US	MA	CAMBRIDGE	02142	14 CAMBRIDGE CENTER		US	DE	330112644	BIOGEN IDEC INC	20031112	1-LAF	1	1231	10-K	20091231	2009	FY	20100209	2010-02-09 17:22:00.0	0	0	biib-20091231.xml	1	
0001193125-10-024580	864328	BJ SERVICES CO	1389	US	TX	HOUSTON	77041	4601 WESTWAY PARK BLVD		7134624239	US	TX	HOUSTON	77041	4601 WESTWAY PARK BLVD	4601 WESTWAY PARK BLVD	US	DE	630084140			1-LAF	0	0930	10-Q	20091231	2010	Q1	20100209	2010-02-08 17:53:00.0	0	0	bjs-20091231.xml	1	
0001193125-10-025517	1335793	CNX GAS CORP	1311	US	PA	CANONSBURG	15317	CNX CENTER	1000 CONSOL ENERGY DRIVE	724-485-4000	US	PA	CANONSBURG	15317	CNX CENTER	1000 CONSOL ENERGY DRIVE	US	DE	203170639	CNX GAS CORP	20050810	1-LAF	1	1231	10-K	20091231	2009	FY	20100209	2010-02-09 12:54:00.0	0	0	cxg-20091231.xml	1	
0001193125-10-025522	1070412	CONSOL ENERGY INC	1221	US	PA	PITTSBURGH	15241	C/O CONSOL INC	1800 WASHINGTON RD	724-485-4000	US	PA	CANONSBURG	15317	CNX CENTER	1000 CONSOL ENERGY DRIVE	US	DE	510337383	CONSOL ENERGY INC	19980915	1-LAF	1	1231	10-K	20091231	2009	FY	20100209	2010-02-09 12:57:00.0	0	0	cnx-20091231.xml	1	
0001193125-10-025672	203527	VARIAN MEDICAL SYSTEMS INC	3845	US	CA	PALO ALTO	94304-1000	3100 HANSEN WAY		650-424-5834	US	CA	PALO ALTO	94304-1000	3100 HANSEN WAY		US	DE	942359345	VARIAN ASSOCIATES INC /DE/	19920703	1-LAF	0	0930	10-Q	20091231	2010	Q1	20100209	2010-02-09 14:31:00.0	0	0	var-20100101.xml	1	
0001193125-10-025856	712515	ELECTRONIC ARTS INC.	7372	US	CA	REDWOOD CITY	94065	209 REDWOOD SHORES PARKWAY		650-628-1500	US	CA	REDWOOD CITY	94065	209 REDWOOD SHORES PARKWAY		US	DE	942838567	ELECTRONIC ARTS INC	19920703	1-LAF	0	0331	10-Q	20091231	2009	Q3	20100209	2010-02-09 16:19:00.0	0	0	erts-20091231.xml	1	
0001193125-10-025949	1001039	WALT DISNEY CO/	7990	US	CA	BURBANK	91521	500 SOUTH BUENA VISTA ST		8185601000	US	CA	BURBANK	91521	500 SOUTH BUENA VISTA ST		US	DE	954545390	DC HOLDCO INC	19950918	1-LAF	0	0930	10-Q	20091231	2010	Q1	20100209	2010-02-09 17:06:00.0	0	0	dis-20100102.xml	1	
0001193125-10-025958	815556	FASTENAL CO	5200	US	MN	WINONA	55987	2001 THEURER BLVD		5074545374							US	MN	410948415			1-LAF	1	1231	10-K	20091231	2009	FY	20100209	2010-02-09 17:14:00.0	0	0	fast-20091231.xml	1	
0000007084-10-000006	7084	ARCHER DANIELS MIDLAND CO	2070	US	IL	DECATUR	62526	4666 FARIES PKWY		2174244798	US	IL	DECATUR	62526	4666 FARIES PKWY		US	DE	410129150			1-LAF	0	0630	10-Q	20091231	2010	Q2	20100208	2010-02-05 19:11:00.0	0	0	adm-20091231.xml	1	
0000950123-10-009905	1024478	ROCKWELL AUTOMATION INC	3829	US	WI	MILWAUKEE	53204	1201 SOUTH 2ND STREET		414-382-2000	US	WI	MILWAUKEE	53204	1201 SOUTH 2ND STREET		US	DE	251797617	ROCKWELL  AUTOMATION INC	20020507	1-LAF	1	0930	10-Q	20091231	2010	Q1	20100208	2010-02-08 16:06:00.0	0	0	rok-20091231.xml	1	
0000950123-10-009988	10795	BECTON DICKINSON & CO	3841	US	NJ	FRANKLIN LAKES	07417-1880	ONE BECTON DR		2018476800	US	NJ	FRANKLIN LAKE	07417	ONE BECTON DR		US	NJ	220760120			1-LAF	1	0930	10-Q	20091231	2010	Q1	20100208	2010-02-08 17:17:00.0	0	0	bdx-20091231.xml	1	
0001193125-10-024165	38777	FRANKLIN RESOURCES INC	6282	US	CA	SAN MATEO	94403	ONE FRANKLIN PARKWAY	BUILDING 920	650-312-2000	US	CA	SAN MATEO	94403	FRANKLIN RESOURCES INC	ONE FRANKLIN PARKWAY	US	DE	132670991			1-LAF	0	0930	10-Q	20091231	2010	Q1	20100208	2010-02-08 13:48:00.0	0	0	ben-20091231.xml	1	
0001193125-10-024406	12927	BOEING CO	3721	US	WA	SEATTLE	98124	P O BOX 3707 MS 1F 31		2066552121	US	IL	CHICAGO	60606	100 N RIVERSIDE PLZ		US	DE	910425694	BOEING AIRPLANE CO	19730725	1-LAF	1	1231	10-K	20091231	2009	FY	20100208	2010-02-08 16:29:00.0	0	0	ba-20091231.xml	1	
0000704051-10-000017	704051	LEGG MASON INC	6282	US	MD	BALTIMORE	21202	100 INTERNATIONAL DRIVE		4105390000	US	MD	BALTIMORE	21202	100 INTERNATIONAL DRIVE		US	MD	521200960			1-LAF	0	0331	10-Q	20091231	2009	Q3	20100205	2010-02-05 16:06:00.0	0	0	lm-20091231.xml	1	
0000950123-10-009025	1113169	PRICE T ROWE GROUP INC	6200	US	MD	BALTIMORE	21289-0320	100 EAST PRATT STREET	P.O. BOX 89000	4103452000	US	MD	BALTIMORE	21289-0320	100 EAST PRATT STREET	P.O. BOX 89000	US	MD	522264646			1-LAF	1	1231	10-K	20091231	2009	FY	20100205	2010-02-05 07:28:00.0	0	1	trow-20091231.xml	1	
0000950123-10-009185	1140859	AMERISOURCEBERGEN CORP	5122	US	PA	CHESTERBROOK	19087-5594	1300 MORRIS DRIVE		6107277000	US	PA	CHESTERBROOK	19087-5594	1300 MORRIS DRIVE		US	DE	233079390			1-LAF	1	0930	10-Q	20091231	2010	Q1	20100205	2010-02-05 14:55:00.0	0	0	abc-20091231.xml	1	
0000950123-10-009191	1222333	SPDR GOLD TRUST	1040	US	NY	NEW YORK	10017	C/O WORLD GOLD TRUST SERVICES LLC	424 MADISON AVE 3RD FL	2123173800	US	NY	NEW YORK	10017	424 MADISON AVE 3RD FL				522369757	STREETTRACKS GOLD TRUST	20041008	1-LAF	1	0930	10-Q	20091231	2010	Q1	20100205	2010-02-05 15:00:00.0	0	0	gld-20091231.xml	1	
0000950123-10-009307	849399	SYMANTEC CORP	7372	US	CA	MOUNTAIN VIEW	94043	350 ELLIS STREET		650-527-2900	US	CA	MOUNTAIN VIEW	94043	350 ELLIS STREET		US	DE	770181864			1-LAF	0	0331	10-Q	20091231	2009	Q3	20100205	2010-02-05 17:14:00.0	0	0	symc-20100101.xml	1	
0001104659-10-005204	47217	HEWLETT PACKARD CO	3570	US	CA	PALO ALTO	94304	3000 HANOVER ST	MS 1050	6508571501	US	CA	PALO ALTO	94304	3000 HANOVER ST	MS 1050	US	DE	941081436			1-LAF	1	1031	10-K/A	20091031	2009	FY	20100205	2010-02-05 17:06:00.0	0	0	hpq-20091031.xml	1	
0001193125-10-023041	87347	SCHLUMBERGER LTD /NV/	1389	US	TX	HOUSTON	77056	5599 SAN FELIPE	17TH FLOOR	7135132000	US	TX	HOUSTON	77056	5599 SAN FELIPE	17TH FLOOR	AN		520684746	SCHLUMBERGER NV	19920804	1-LAF	1	1231	10-K	20091231	2009	FY	20100205	2010-02-05 12:32:00.0	0	0	slb-20091231.xml	1	
0001193125-10-023271	79958	PRECISION CASTPARTS CORP	3320	US	OR	PORTLAND	97239	4650 SW MACADAM AVE	STE 440	503.417.4800	US	OR	PORTLAND	97239	4650 SW MACADAM AVE	STE 440	US	OR	930460598			1-LAF	0	0331	10-Q	20091231	2009	Q3	20100205	2010-02-05 15:00:00.0	0	0	pcp-20091227.xml	1	
0001193125-10-023280	1109357	EXELON CORP	4931	US	IL	CHICAGO	60680-5398	PO BOX 805398		3123947399	US	IL	CHICAGO	60680-5398	PO BOX 805398		US	PA	232990190			1-LAF	1	1231	10-K	20091231	2009	FY	20100205	2010-02-05 15:17:00.0	0	0	exc-20091231.xml	4	1168165 78100 22606
0001193125-10-023294	100885	UNION PACIFIC CORP	4011	US	NE	OMAHA	68179	1400 DOUGLAS STREET	STOP 0310	402 544 5214	US	NE	OMAHA	68179	1400 DOUGLAS STREET	STOP 0310	US	UT	132626465			1-LAF	1	1231	10-K	20091231	2009	FY	20100205	2010-02-05 15:31:00.0	0	0	unp-20091231.xml	1	
0001193125-10-023332	721371	CARDINAL HEALTH INC	5122	US	OH	DUBLIN	43017	7000 CARDINAL PLACE		6147573033	US	OH	DUBLIN	43017	7000 CARDINAL PLACE		US	OH	310958666	CARDINAL DISTRIBUTION INC	19920703	1-LAF	0	0630	10-Q	20091231	2010	Q2	20100205	2010-02-05 16:01:00.0	0	0	cah-20091231.xml	1	
0001206774-10-000241	21076	CLOROX CO /DE/	2842	US	CA	OAKLAND	94612-1888	THE CLOROX COMPANY	1221 BROADWAY	5102717000	US	CA	OAKLAND	94612-1305	P.O. BOX 24305		US	DE	310595760			1-LAF	0	0630	10-Q	20091231	2010	Q2	20100205	2010-02-05 16:40:00.0	0	0	clx-20091231.xml	1	
0001004155-10-000016	1004155	AGL RESOURCES INC	4924	US	GA	ATLANTA	30309	TEN PEACHTREE PLACE		4045844000	US	GA	ATLANTA	30309	TEN PEACHTREE PLACE	DEPT. 1109	US	GA	582210952			1-LAF	1	1231	10-K	20091231	2009	FY	20100204	2010-02-04 08:39:00.0	0	0	agl-20091231.xml	1	
0001193125-10-020962	1308161	NEWS CORP	2711	US	NY	NEW YORK	10036	1211 AVENUE OF THE AMERICAS		212-852-7000	US	NY	NEW YORK	10036	1211 AVENUE OF THE AMERICAS				260075658	NEWS CORPORATION, INC.	20041108	1-LAF	0	0630	10-Q	20091231	2010	Q2	20100204	2010-02-03 17:39:00.0	0	0	nws-20091231.xml	1	
0001193125-10-021555	23666	SARA LEE CORP	2000	US	IL	DOWNERS GROVE	60515	3500 LACEY ROAD		6305986000	US	IL	DOWNERS GROVE	60515	3500 LACEY ROAD		US	MD	362089049	LEE SARA CORP	19920703	1-LAF	0	0630	10-Q	20091231	2010	Q2	20100204	2010-02-04 07:32:00.0	0	0	sle-20091226.xml	1	
0001193125-10-021684	859737	HOLOGIC INC	3844	US	MA	BEDFORD	01730	35 CROSBY DRIVE		7819997300	US	MA	BEDFORD	01730	35 CROSBY DRIVE		US	DE	042902449			1-LAF	0	0930	10-Q	20091231	2010	Q1	20100204	2010-02-04 09:25:00.0	0	0	holx-20091226.xml	1	
0001193125-10-021715	1002638	OPEN TEXT CORP	7373	CA	ON	ONTARIO CANADA	N2L 0A1	275 FRANK TOMPA DRIVE	WATERLOO	519-888-7111	CA	ON	ONTARIO CANADA	N2L 0A1	275 FRANK TOMPA DRIVE	WATERLOO	CA	ON	980154400			1-LAF	0	0630	10-Q	20091231	2010	Q2	20100204	2010-02-04 10:00:00.0	0	0	otex-20091231.xml	1	
0001193125-10-021720	76334	PARKER HANNIFIN CORP	3490	US	OH	CLEVELAND	44124-4141	6035 PARKLAND BOULEVARD		2168963000	US	OH	CLEVELAND	44124-4141	6035 PARKLAND BOULEVARD		US	OH	340451060	PARKER APPLIANCE CO	19670907	1-LAF	0	0630	10-Q	20091231	2010	Q2	20100204	2010-02-04 10:12:00.0	0	0	ph-20091231.xml	1	
0000950123-10-008106	53669	JOHNSON CONTROLS INC	2531	US	WI	MILWAUKEE	53201	5757 N GREEN BAY AVENUE	P O BOX 591	4145241200	US	WI	MILWAUKEE	53201	5757 N GREEN BAY AVENUE	P O BOX 591	US	WI	390380010			1-LAF	1	0930	10-Q	20091231	2010	Q1	20100203	2010-02-03 10:32:00.0	0	0	jci-20091231.xml	1	
0000950123-10-008370	1054374	BROADCOM CORP	3674	US	CA	IRVINE	92617-3038	5300 CALIFORNIA AVENUE		949 926 5000	US	CA	IRVINE	92617-3038	5300 CALIFORNIA AVENUE		US	CA	330480482			1-LAF	0	1231	10-K	20091231	2009	FY	20100203	2010-02-03 17:03:00.0	0	0	brcm-20091231.xml	1	
0001104659-10-004636	46765	HELMERICH & PAYNE INC	1381	US	OK	TULSA	74114	UTICA AT 21ST ST		9187425531	US	OK	TULSA	74114	UTICA AT 21ST ST		US	DE	730679879			1-LAF	0	0930	10-Q	20091231	2010	Q1	20100203	2010-02-03 14:27:00.0	0	0	hp-20091231.xml	1	
0001144204-10-005154	1116132	COACH INC	3100	US	NY	NEW YORK	10001	516 WEST 34TH ST		2125941850	US	NY	NEW YORK	10001	516 WEST 34TH ST		US	MD	522242751			1-LAF	0	0630	10-Q	20091231	2010	Q2	20100203	2010-02-03 16:37:00.0	0	0	coh-20091226.xml	1	
0001144204-10-005166	32604	EMERSON ELECTRIC CO	3600	US	MO	ST LOUIS	63136	8000 W FLORISSANT AVE	P O BOX 4100	3145532000	US	MO	ST LOUIS	63136	8000 W. FLORISSANT	P.O. BOX 4100	US	MO	430259330	EMERSON ELECTRIC MANUFACTUING CO	19730710	1-LAF	0	0930	10-Q	20091231	2010	Q1	20100203	2010-02-03 16:50:00.0	0	0	emr-20091231.xml	1	
0001193125-10-020834	1403161	VISA INC.	7389	US	CA	SAN FRANCISCO	94128-8999	P.O. BOX 8999		(415) 932-2100	US	CA	SAN FRANCISCO	94128-8999	P.O. BOX 8999		US	DE	260267673	VISA INC.	20070614	1-LAF	0	0930	10-Q	20091231	2010	Q1	20100203	2010-02-03 16:33:00.0	0	0	v-20091231.xml	1	
0000950123-10-007509	96021	SYSCO CORP	5140	US	TX	HOUSTON	77077	1390 ENCLAVE PKWY		281-584-1390	US	TX	HOUSTON	77077	1390 ENCLAVE PKWY		US	DE	741648137			1-LAF	0	0630	10-Q	20091231	2010	Q2	20100202	2010-02-02 08:01:00.0	0	0	syy-20091226.xml	1	
0000950123-10-007677	866374	FLEXTRONICS INTERNATIONAL LTD.	3672	SG		SINGAPORE	018989	ONE MARINA BOULEVARD, #28-00		(65) 6890 7188	SG		SINGAPORE	018989	ONE MARINA BOULEVARD, #28-00		SG		000000000	FLEXTRONICS INTERNATIONAL LTD	19940318	1-LAF	1	0331	10-Q	20091231	2009	Q3	20100202	2010-02-02 14:49:00.0	0	0	flex-20091231.xml	1	
0000950123-10-007737	829224	STARBUCKS CORP	5810	US	WA	SEATTLE	98124-1067	P O BOX 34067		2064471575	US	WA	SEATTLE	98134	2401 UTAH AVENUE SOUTH		US	WA	911325671			1-LAF	1	0930	10-Q	20091231	2010	Q1	20100202	2010-02-02 16:16:00.0	0	0	sbux-20091227.xml	1	
0000950123-10-007004	1086195	ART TECHNOLOGY GROUP INC	7372	US	MA	CAMBRIDGE	02142	ONE MAIN STREET		617-386-1000	US	MA	CAMBRIDGE	02142	ONE MAIN STREET		US	DE	043141918			2-ACC	0	1231	10-K	20091231	2009	FY	20100201	2010-02-01 06:22:00.0	0	0	artg-20091231.xml	1	
0000950123-10-006586	8858	AVNET INC	5065	US	AZ	PHOENIX	85034	2211 SOUTH 47TH STREET		4806432000	US	AZ	PHOENIX	85034	2211 SOUTH 47TH STREET		US	NY	111890605			1-LAF	1	0630	10-Q	20091231	2010	Q2	20100129	2010-01-29 12:06:00.0	0	0	avt-20100102.xml	1	
0000950123-10-006814	356028	CA, INC.	7372	US	NY	ISLANDIA	11749	ONE CA PLAZA		6313423550	US	NY	ISLANDIA	11749	ONE CA PLAZA		US	DE	132857434	COMPUTER ASSOCIATES INTERNATIONAL INC	19920703	1-LAF	1	0331	10-Q	20091231	2009	Q3	20100129	2010-01-29 16:17:00.0	0	0	ca-20091231.xml	1	
0000950123-10-006821	106040	WESTERN DIGITAL CORP	3572	US	CA	LAKE FOREST	92630	20511 LAKE FOREST DRIVE		9499325000	US	CA	LAKE FOREST	92630	20511 LAKE FOREST DRIVE		US	DE	330956711	GENERAL DIGITAL CORP	19730125	1-LAF	1	0630	10-Q	20091231	2010	Q2	20100129	2010-01-29 16:25:00.0	0	0	wdc-20100101.xml	1	
0001193125-10-016098	1018724	AMAZON COM INC	5961	US	WA	SEATTLE	98144	1200 12TH AVENUE S SUITE 1200		2062661000	US	WA	SEATTLE	98144	1200 12TH AVENUE S SUITE 1200		US	DE	911646860			1-LAF	1	1231	10-K	20091231	2009	FY	20100129	2010-01-28 21:42:00.0	0	0	amzn-20091231.xml	1	
0001193125-10-016470	815097	CARNIVAL CORP	4400	US	FL	MIAMI	33178-2428	3655 N W 87TH AVE	PO BOX 1347	011 44 20 7940 5381	US	FL	MIAMI	33178	3655 N W 87TH AVE	PO BOX 1347	US	DE	591562976	CARNIVAL CRUISE LINES INC	19920703	1-LAF	1	1130	10-K	20091130	2009	FY	20100129	2010-01-29 09:02:00.0	0	0	ccl-20091130.xml	2	1125259
0001193125-10-016932	1035267	INTUITIVE SURGICAL INC	3842	US	CA	SUNNYVALE	94086	950 KIFER ROAD		4085232100	US	CA	SUNNYVALE	94086	950 KIFER ROAD		US	DE	770416458			1-LAF	1	1231	10-K	20091231	2009	FY	20100129	2010-01-29 15:05:00.0	0	0	isrg-20091231.xml	1	
0001193125-10-017029	80424	PROCTER & GAMBLE CO	2840	US	OH	CINCINNATI	45202	ONE PROCTER & GAMBLE PLAZA		5139831100	US	OH	CINCINNATI	45202	ONE PROCTER & GAMBLE PLAZA		US	OH	310411980			1-LAF	0	0630	8-K	20090630	2009	FY	20100129	2010-01-29 16:02:00.0	0	0	pg-20100129.xml	1	
0001193125-10-017191	92380	SOUTHWEST AIRLINES CO	4512	US	TX	DALLAS	75235	2702 LOVE FIELD DR	P O BOX 36611	2147924000	US	TX	DALLAS	75235-1611	PO BOX 36611		US	TX	741563240	AIR SOUTHWEST CO	19760108	1-LAF	1	1231	10-K	20091231	2009	FY	20100129	2010-01-29 17:14:00.0	0	0	luv-20091231.xml	1	
0000950123-10-006167	202058	HARRIS CORP /DE/	3812	US	FL	MELBOURNE	32919	1025 W NASA BLVD		3217279100	US	FL	MELBOURNE	32919	1025 W NASA BLVD		US	DE	340276860	HARRIS SEYBOLD CO	19600201	1-LAF	1	0630	10-Q	20091231	2010	Q2	20100128	2010-01-28 16:45:00.0	0	0	hrs-20100101.xml	1	
0001047469-10-000391	1385157	TYCO ELECTRONICS LTD.	5065	BM		PEMBROKE	HM08	96 PITTS BAY ROAD, 2ND FL		(441) 298-9732	BM		PEMBROKE	HM08	96 PITTS BAY ROAD, 2ND FL		BM		980518048			1-LAF	1	0930	10-Q	20091231	2010	Q1	20100128	2010-01-28 12:32:00.0	0	0	tel-20091225.xml	1	
0001047469-10-000401	833444	TYCO INTERNATIONAL LTD /BER/	7380	BM		PEMROKE HM 08 BERMU		90 PITTS BAY ROAD	THE ZURICH CENTRE SECOND FLOOR	4412928674	US	NH	EXETER	03833	C/O TYCO INTERNATIONAL (US) INC	ONE TYCO PARK	BM		000000000	ADT LIMITED	19930601	1-LAF	0	0930	10-Q	20091231	2010	Q1	20100128	2010-01-28 16:26:00.0	0	0	tyc-20091225.xml	1	
0001144204-10-004114	1137411	ROCKWELL COLLINS INC	3728	US	IA	CEDAR RAPIDS	52498	400 COLLINS ROAD NE		3192951000							US	DE	522314475			1-LAF	1	0930	10-Q	20091231	2010	Q1	20100128	2010-01-28 15:01:00.0	0	0	col-20091231.xml	1	
0001193125-10-014549	1393612	DISCOVER FINANCIAL SERVICES	6141	US	IL	RIVERWOODS	60015	2500 LAKE COOK ROAD		224-405-0900	US	IL	RIVERWOODS	60015	2500 LAKE COOK ROAD		US	DE	362517428			1-LAF	1	1130	10-K	20091130	2009	FY	20100128	2010-01-27 20:21:00.0	0	0	dfs-20091130.xml	1	
0001193125-10-014865	80424	PROCTER & GAMBLE CO	2840	US	OH	CINCINNATI	45202	ONE PROCTER & GAMBLE PLAZA		5139831100	US	OH	CINCINNATI	45202	ONE PROCTER & GAMBLE PLAZA		US	OH	310411980			1-LAF	0	0630	10-Q	20091231	2010	Q2	20100128	2010-01-28 07:27:00.0	0	0	pg-20091231.xml	1	
0001193125-10-015411	835729	BMC SOFTWARE INC	7372	US	TX	HOUSTON	77042-2827	2101 CITYWEST BLVD		7139188800	US	TX	HOUSTON	77042-2827	2101 CITYWEST BLVD		US	DE	742126120			1-LAF	0	0331	10-Q	20091231	2009	Q3	20100128	2010-01-28 14:25:00.0	0	0	bmc-20091231.xml	1	
0001193125-10-015547	52988	JACOBS ENGINEERING GROUP INC /DE/	1600	US	CA	PASADENA	91105-3063	1111 S ARROYO PARKWAY		6265783500							US	DE	954081636			1-LAF	0	0930	10-Q	20091231	2010	Q1	20100128	2010-01-28 15:47:00.0	0	0	jec-20100101.xml	1	
0001193125-10-015598	789019	MICROSOFT CORP	7372	US	WA	REDMOND	98052-6399	ONE MICROSOFT WAY		425-882-8080	US	WA	REDMOND	98052-6399	ONE MICROSOFT WAY		US	WA	911144442			1-LAF	0	0630	10-Q	20091231	2010	Q2	20100128	2010-01-28 16:12:00.0	0	0	msft-20091231.xml	1	
0000950123-10-005721	804328	QUALCOMM INC/DE	3663	US	CA	SAN DIEGO	92121	5775 MOREHOUSE DR		8585871121	US	CA	SAN DIEGO	92121	5775 MOREHOUSE DR		US	DE	953685934			1-LAF	1	0930	10-Q	20091231	2010	Q1	20100127	2010-01-27 16:51:00.0	0	0	qcom-20091227.xml	1	
0000950123-10-005134	2969	AIR PRODUCTS & CHEMICALS INC /DE/	2810	US	PA	ALLENTOWN	18195-1501	7201 HAMILTON BLVD		6104814911	US	PA	ALLENTOWN	18195-1501	7201 HAMILTON BLVD		US	DE	231274455			1-LAF	1	0930	10-Q	20091231	2010	Q1	20100126	2010-01-26 11:01:00.0	0	0	apd-20091231.xml	1	
0000950123-10-005311	927653	MCKESSON CORP	5122	US	CA	SAN FRANCISCO	94104	ONE POST ST	MCKESSON PLAZA	4159838300	US	CA	SAN FRANCISCO	94104	ONE POST ST		US	DE	943207296	MCKESSON HBOC INC	19990115	1-LAF	1	0331	10-Q	20091231	2009	Q3	20100126	2010-01-26 16:43:00.0	0	0	mck-20091231.xml	1	
0001193125-10-012479	1385187	COVIDIEN PLC	3841	IE		LOUGHLINSTOWN	DUBLIN 18	CHERRYWOOD BUSINESS PARK	BLOCK G, FIRST FLOOR	353 1 439-3000	IE		LOUGHLINSTOWN	DUBLIN 18	CHERRYWOOD BUSINESS PARK	BLOCK G, FIRST FLOOR			980624794	COVIDIEN LTD.	20070321	1-LAF	0	0930	10-Q	20091231	2010	Q1	20100126	2010-01-26 07:03:00.0	0	0	cov-20091225.xml	1	
0001193125-10-012085	320193	APPLE INC	3571	US	CA	CUPERTINO	95014	1 INFINITE LOOP		4089961010	US	CA	CUPERTINO	95014	ONE INFINITE LOOP		US	CA	942404110	APPLE COMPUTER INC	19970808	1-LAF	0	0930	10-Q	20091231	2010	Q1	20100125	2010-01-25 16:24:00.0	0	0	aapl-20091226.xml	1	
0001193125-10-012091	320193	APPLE INC	3571	US	CA	CUPERTINO	95014	1 INFINITE LOOP		4089961010	US	CA	CUPERTINO	95014	ONE INFINITE LOOP		US	CA	942404110	APPLE COMPUTER INC	19970808	1-LAF	1	0930	10-K/A	20090930	2009	FY	20100125	2010-01-25 16:26:00.0	0	0	aapl-20090926.xml	1	
0000796343-10-000003	796343	ADOBE SYSTEMS INC	7372	US	CA	SAN JOSE	95110-2704	345 PARK AVE		4085366000	US	CA	SAN JOSE	95110-2704	345 PARK AVENUE		US	DE	770019522			1-LAF	1	1130	10-K	20091130	2009	FY	20100122	2010-01-22 12:14:00.0	0	0	adbe-20091127.xml	1	
0000950123-10-004150	10795	BECTON DICKINSON & CO	3841	US	NJ	FRANKLIN LAKES	07417-1880	ONE BECTON DR		2018476800	US	NJ	FRANKLIN LAKE	07417	ONE BECTON DR		US	NJ	220760120			1-LAF	1	0930	10-K/A	20090930	2009	FY	20100121	2010-01-21 17:06:00.0	0	0	bdx-20090930.xml	1	
0000950123-10-002359	95521	SUPERVALU INC	5411	US	MN	EDEN PRAIRIE	55344	11840 VALLEY VIEW RD		9528284000	US	MN	EDEN PRAIRIE	55344	11840 VALLEY VIEW ROAD		US	DE	410617000	SUPER VALU STORES INC	19920703	1-LAF	1	0228	10-Q	20091130	2009	Q3	20100114	2010-01-13 18:28:00.0	0	0	svu-20091205.xml	1	
0000723125-10-000019	723125	MICRON TECHNOLOGY INC	3674	US	ID	BOISE	83716-9632	8000 S FEDERAL WAY	PO BOX 6	2083684000							US	DE	751618004			1-LAF	1	0831	10-Q	20091130	2010	Q1	20100112	2010-01-12 14:41:00.0	0	0	mu-20091203.xml	1	
0000950123-10-001322	1110783	MONSANTO CO /NEW/	2870	US	MO	ST LOUIS	63167	800 N LINDBERGH BLVD		3146941000	US	MO	ST LOUIS	63167	800 NORTH LINDBERGH BLVD		US	DE	431878297			1-LAF	1	0831	10-Q	20091130	2010	Q1	20100108	2010-01-08 16:16:00.0	0	0	mon-20091130.xml	1	
0000950123-10-000976	929887	APOLLO GROUP INC	8200	US	AZ	PHOENIX	85040	4615 EAST ELWOOD ST		6029665394	US	AZ	PHOENIX	85040	4615 E ELWOOD STREET		US	AZ	860419443			1-LAF	1	0831	10-Q	20091130	2010	Q1	20100107	2010-01-07 16:09:00.0	0	0	apol-20091130.xml	1	
0001104659-10-000733	764478	BEST BUY CO INC	5731	US	MN	RICHFIELD	55423	7601 PENN AVE SOUTH		6122911000	US	MN	RICHFIELD	55423	7601 PENN AVE SOUTH		US	MN	410907483	BEST BUYS CO INC	19900809	1-LAF	0	0228	10-Q	20091130	2009	Q3	20100107	2010-01-07 16:47:00.0	0	0	bby-20091128.xml	1	
0001104659-10-000569	886158	BED BATH & BEYOND INC	5700	US	NJ	UNION	07083	650 LIBERTY AVENUE		2013791520	US	NJ	SPRINGFIELD	07081	715 MORRIS AVENUE		US	NY	112250488			1-LAF	1	0228	10-Q	20091130	2009	Q3	20100106	2010-01-06 17:12:00.0	0	0	bbby-20091128.xml	1	
0001193125-10-002092	320187	NIKE INC	3021	US	OR	BEAVERTON	97005-6453	ONE BOWERMAN DR		5036713173	US	OR	BEAVERTON	97005-6453	ONE BOWERMAN DR		US	OR	930584541			1-LAF	0	0531	10-Q	20091130	2010	Q2	20100106	2010-01-06 17:17:00.0	0	0	nke-20091130.xml	1	
0000104207-10-000005	104207	WALGREEN CO	5912	US	IL	DEERFIELD	60015	200 WILMOT RD		8479402500	US	IL	DEERFIELD	60015	200 WILMOT RD		US	IL	361924025			1-LAF	1	0831	10-Q	20091130	2010	Q1	20100105	2010-01-05 14:00:00.0	0	0	wag-20091130.xml	1	
0000950123-10-000408	23217	CONAGRA FOODS INC /DE/	2000	US	NE	OMAHA	68102	ONE CONAGRA DR		4025954000	US	NE	OMAHA	68102	ONE CONAGRA DRIVE		US	DE	470248710	CONAGRA INC /DE/	19920703	1-LAF	1	0531	10-Q	20091130	2010	Q2	20100105	2010-01-05 16:25:00.0	0	0	cag-20091129.xml	1	
